;FLAVOR:Marlin
;TIME:572
;Filament used: 5.81132m
;Layer height: 1
;MINX:-27.451
;MINY:-26.726
;MINZ:0.7
;MAXX:27.45
;MAXY:26.741
;MAXZ:100.7
;TARGET_MACHINE.NAME:Unknown
;Generated with Cura_SteamEngine 5.11.0
M104 S0
M105
M109 S0
G28         ; Home all axes (Crucial for Delta printers)
M302 S0     ; Allow extrusion at any temperature (Essential for Clay)
M92 E400    ; E Steps at 400 steps
G1 Z15.0    ;Move the platform down 15mm
;Prime the extruder
G92 E0      ; Reset extruder distance
G1 F200 E3 ; Extrude 10mm of clay to prime the screw (Adjust E value as needed)
G92 E0      ; Reset extruder distance again
M82 ;absolute extrusion mode
G92 E0
G92 E0
G1 F1500 E-6.5
;LAYER_COUNT:100
;LAYER:0
M107
G1 F600 Z1.7
;MESH:djinn4.stl
G0 F960 X0.00 Y0.00 Z1.7
G0 X0.487 Y18.459
;TYPE:WALL-INNER
G1 F600 Z0.7
G1 F1500 E0
G1 F1200 X21.039 Y11.631 E6.43393
G1 X19.047 Y-9.97 E12.87858
G1 X-.487 Y-18.458 E19.20612
G1 X-21.039 Y-11.632 E25.63986
G1 X-19.047 Y9.97 E32.08481
G1 X0.487 Y18.459 E38.41246
G0 F960 X0.423 Y19.956
G0 X0.344 Y21.668
G1 F1200 X24.244 Y13.727 E45.89457
G1 X21.871 Y-12.014 E53.57437
G1 X-.344 Y-21.667 E60.77035
G1 X-24.245 Y-13.728 E68.25255
G1 X-21.871 Y12.014 E75.93267
G1 X0.344 Y21.668 E83.12877
G0 F960 X0.422 Y19.949
G0 X0.279 Y23.165
G0 X0.201 Y24.877
;TYPE:WALL-OUTER
G1 F1200 X27.45 Y15.823 E91.65934
G1 X24.695 Y-14.058 E100.57431
G1 X-.201 Y-24.876 E108.63874
G1 X-27.451 Y-15.824 E117.1694
G1 X-24.695 Y14.058 E126.08469
G1 X0.201 Y24.877 E134.14924
G0 F960 X1.624 Y24.405
G0 X0.423 Y19.956
G0 X0.62 Y15.407
;TYPE:SKIN
G1 F1200 X-16.363 Y8.026 E139.65062
G1 X-17.992 Y-9.635 E144.91978
G1 X-.62 Y-15.407 E150.35824
G1 X16.363 Y-8.026 E155.85962
G1 X17.992 Y9.635 E161.12878
G1 X0.62 Y15.407 E166.56724
G0 F960 X-15.027 Y6.186
G1 F1200 X-13.638 Y7.575 E167.15083
G0 F960 X-15.458 Y1.513
G1 F1200 X-6.134 Y10.836 E171.06807
G1 X-5.604 Y11.366
G0 F960 X0.979 Y13.707
G1 F1200 X-15.889 Y-3.161 E178.15512
G0 F960 X-16.32 Y-7.835
G1 F1200 X4.164 Y12.649 E186.76143
G0 F960 X7.348 Y11.591
G1 F1200 X-13.717 Y-9.475 E195.61204
G0 F960 X-10.533 Y-10.533
G1 F1200 X10.533 Y10.533 E204.46287
G0 F960 X13.717 Y9.475
G1 F1200 X-7.348 Y-11.591 E213.31349
G0 F960 X-4.164 Y-12.649
G1 F1200 X16.32 Y7.835 E221.9198
G0 F960 X15.889 Y3.161
G1 F1200 X-.979 Y-13.707 E229.00685
G1 X-1.509 Y-14.237
G0 F960 X6.134 Y-10.836
G1 F1200 X15.458 Y-1.513 E232.92409
G0 F960 X15.027 Y-6.186
G1 F1200 X13.638 Y-7.575 E233.50768
;MESH:NONMESH
G0 F600 X13.638 Y-7.575 Z1.7
G0 F960 X1.522 Y2.329
;TIME_ELAPSED:49.753913
;LAYER:1
;TYPE:WALL-INNER
;MESH:djinn4.stl
G1 F1470.6 X4.768 Y1.251 E234.98834
G1 X4.686 Y0.368 E235.37224
G1 X-1.522 Y-2.329 E238.30235
G1 X-4.767 Y-1.251 E239.7826
G1 X-4.685 Y-.368 E240.16649
G1 X1.522 Y2.329 E243.09621
G0 F1680 X1.378 Y5.57
G1 F1500 X8.006 Y3.368 E246.0604
G1 X7.538 Y-1.696 E248.21878
G1 X-1.378 Y-5.57 E252.34462
G1 X-8.005 Y-3.368 E255.3084
G1 X-7.537 Y1.696 E257.46679
G1 X1.378 Y5.57 E261.59223
G0 F1680 X1.235 Y8.779
G1 F1500 X11.212 Y5.464 E266.05422
G1 X10.363 Y-3.74 E269.9771
G1 X-1.235 Y-8.779 E275.34396
G1 X-11.211 Y-5.464 E279.80555
G1 X-10.361 Y3.739 E283.72805
G1 X1.235 Y8.779 E289.09429
G0 F1680 X1.091 Y11.988
G1 F1500 X14.418 Y7.56 E295.05448
G1 X13.187 Y-5.784 E300.7419
G1 X-1.091 Y-11.988 E307.34901
G1 X-14.417 Y-7.56 E313.30879
G1 X-13.185 Y5.783 E318.99583
G1 X1.091 Y11.988 E325.60232
G0 F1680 X0.948 Y15.196
G1 F1500 X17.624 Y9.656 E333.06017
G1 X16.011 Y-7.828 E340.51213
G1 X-.948 Y-15.196 E348.3597
G1 X-17.624 Y-9.656 E355.81755
G1 X-16.009 Y7.827 E363.26916
G1 X0.948 Y15.196 E371.11612
G0 F1680 X0.805 Y18.405
G1 F1500 X20.83 Y11.752 E380.07177
G1 X18.835 Y-9.872 E389.28826
G1 X-.805 Y-18.405 E398.37647
G1 X-20.83 Y-11.752 E407.33212
G1 X-18.833 Y9.871 E416.54826
G1 X0.805 Y18.405 E425.63586
G0 F1680 X0.736 Y19.904
G0 X0.662 Y21.614
G1 F1500 X24.036 Y13.848 E436.08931
G1 X21.66 Y-11.915 E447.06987
G1 X-.662 Y-21.614 E457.39927
G1 X-24.036 Y-13.848 E467.85272
G1 X-21.657 Y11.915 E478.83339
G1 X0.662 Y21.614 E489.16163
G0 F1680 X0.735 Y19.897
G0 X-0.078 Y24.564
;TYPE:WALL-OUTER
G1 F2100 X0.376 Y24.87 E489.39399
G1 X27.242 Y15.944 E501.40913
G1 X24.484 Y-13.959 E514.15422
G1 X0.078 Y-24.564 E525.44807
G1 X-.376 Y-24.87 E525.68043
G1 X-27.243 Y-15.944 E537.69597
G1 X-24.481 Y13.958 E550.44079
G1 X-0.078 Y24.564 E561.73364
G0 F1680 X0.376 Y24.87
G0 X1.28 Y24.57
;MESH:NONMESH
G0 F600 X1.28 Y24.57 Z2.7
G0 F1680 X0.376 Y24.936
;TIME_ELAPSED:80.001105
;LAYER:2
;TYPE:WALL-OUTER
;MESH:djinn4.stl
G1 F3000 X-.406 Y24.202 E562.18883
G1 X-24.242 Y13.841 E573.21953
G1 X-26.978 Y-15.836 E585.86826
G1 X-26.468 Y-16.265 E586.1511
G1 X-.376 Y-24.936 E597.82037
G1 X0.406 Y-24.202 E598.27556
G1 X24.242 Y-13.841 E609.30626
G1 X26.978 Y15.836 E621.95499
G1 X26.468 Y16.265 E622.23783
G1 X0.376 Y24.936 E633.9071
G0 F2400 X0.375 Y24.874
G1 F3000 X-.487 Y24.389 Z2.706 E634.32689
G1 X-24.31 Y13.999 Z2.858 E645.35763
G1 X-27.018 Y-15.955 Z3.035 E658.12257
G1 X-26.456 Y-16.228 Z3.039 E658.38775
G1 X-.375 Y-24.905 Z3.2 E670.05359
G1 X0.446 Y-24.295 Z3.206 E670.48769
G1 X24.27 Y-13.905 Z3.359 E681.51883
G1 X26.988 Y15.865 Z3.535 E694.20638
G1 X26.465 Y16.256 Z3.538 E694.48353
G1 X0.376 Y24.936 Z3.7 E706.153
;TIME_ELAPSED:86.875342
;LAYER:3
;note -- min layer time used
;TYPE:WALL-OUTER
;MESH:djinn4.stl
G1 F2031.6 X-.845 Y24.011 Z3.709 E706.80313
G1 X-3.44 Y22.878 Z3.726 E708.0049
G1 X-24.11 Y13.863 Z3.859 E717.57574
G1 X-24.326 Y12.462 Z3.867 E718.17738
G1 X-26.876 Y-15.664 Z4.034 E730.1636
G1 X-25.582 Y-16.58 Z4.044 E730.83647
G1 X-.376 Y-24.966 Z4.2 E742.11095
G1 X0.82 Y-23.954 Z4.21 E742.77589
G1 X3.399 Y-22.784 Z4.226 E743.97785
G1 X24.07 Y-13.769 Z4.36 E753.54908
G1 X24.199 Y-12.45 Z4.367 E754.11156
G1 X26.75 Y15.676 Z4.534 E766.09781
G1 X25.591 Y16.608 Z4.543 E766.72903
G1 X0.375 Y24.997 Z4.7 E778.00794
;TIME_ELAPSED:91.889956
;LAYER:4
;note -- min layer time used
;TYPE:WALL-OUTER
;MESH:djinn4.stl
G1 F2019.4 X-.751 Y23.941 Z4.709 E778.66312
G1 X-11.881 Y18.973 Z4.782 E783.83614
G1 X-23.889 Y13.736 Z4.859 E789.39618
G1 X-24.143 Y11.66 Z4.872 E790.28385
G1 X-26.607 Y-15.508 Z5.034 E801.86184
G1 X-24.709 Y-16.932 Z5.048 E802.8689
G1 X-.375 Y-25.027 Z5.2 E813.75322
G1 X0.766 Y-23.957 Z5.21 E814.41711
G1 X11.841 Y-18.879 Z5.282 E819.58811
G1 X23.849 Y-13.642 Z5.36 E825.14816
G1 X24.016 Y-11.648 Z5.372 E825.99741
G1 X26.48 Y15.52 Z5.534 E837.5754
G1 X24.718 Y16.96 Z5.548 E838.5412
G1 X0.376 Y25.058 Z5.7 E849.42915
;TIME_ELAPSED:96.904570
;LAYER:5
;note -- min layer time used
;TYPE:WALL-OUTER
;MESH:djinn4.stl
G1 F2006.3 X-.738 Y24.012 Z5.709 E850.07771
G1 X-20.313 Y15.072 Z5.838 E859.21118
G1 X-23.668 Y13.609 Z5.86 E860.76461
G1 X-23.96 Y10.858 Z5.876 E861.93875
G1 X-26.337 Y-15.352 Z6.034 E873.10847
G1 X-23.835 Y-17.284 Z6.053 E874.45011
G1 X-.376 Y-25.089 Z6.2 E884.9432
G1 X0.754 Y-24.029 Z6.21 E885.60078
G1 X20.272 Y-14.978 Z6.338 E894.73197
G1 X23.628 Y-13.515 Z6.36 E896.28579
G1 X23.834 Y-10.846 Z6.376 E897.42194
G1 X26.21 Y15.364 Z6.534 E908.59162
G1 X23.844 Y17.312 Z6.552 E909.89236
G1 X0.375 Y25.12 Z6.7 E920.38988
;TIME_ELAPSED:101.918975
;LAYER:6
;note -- min layer time used
;TYPE:WALL-OUTER
;MESH:djinn4.stl
G1 F1993.6 X-.724 Y24.088 Z6.709 E921.02974
G1 X-19.408 Y15.311 Z6.833 E929.791
G1 X-20.156 Y14.92 Z6.838 E930.14922
G1 X-23.447 Y13.482 Z6.86 E931.67351
G1 X-23.777 Y10.055 Z6.881 E933.13473
G1 X-26.067 Y-15.196 Z7.033 E943.89576
G1 X-22.961 Y-17.636 Z7.057 E945.57213
G1 X-.375 Y-25.15 Z7.2 E955.67466
G1 X0.74 Y-24.104 Z7.21 E956.32353
G1 X19.421 Y-15.338 Z7.334 E965.08166
G1 X20.112 Y-14.825 Z7.339 E965.44692
G1 X23.406 Y-13.387 Z7.361 E966.97237
G1 X23.651 Y-10.043 Z7.381 E968.39544
G1 X25.94 Y15.208 Z7.533 E979.15643
G1 X22.97 Y17.664 Z7.557 E980.79213
G1 X0.375 Y25.181 Z7.7 E990.89868
;TIME_ELAPSED:106.933164
;LAYER:7
;note -- min layer time used
;TYPE:WALL-OUTER
;MESH:djinn4.stl
G1 F1981.4 X-.71 Y24.162 Z7.709 E991.53043
G1 X-18.667 Y15.725 Z7.829 E999.95106
G1 X-20.066 Y14.732 Z7.84 E1000.67919
G1 X-23.227 Y13.354 Z7.86 E1002.14272
G1 X-23.594 Y9.253 Z7.885 E1003.89023
G1 X-25.797 Y-15.04 Z8.033 E1014.243
G1 X-22.087 Y-17.988 Z8.062 E1016.25418
G1 X-.375 Y-25.211 Z8.2 E1025.96575
G1 X0.726 Y-24.178 Z8.21 E1026.60651
G1 X18.681 Y-15.753 Z8.33 E1035.02421
G1 X20.016 Y-14.642 Z8.34 E1035.76135
G1 X23.186 Y-13.26 Z8.361 E1037.22907
G1 X23.468 Y-9.241 Z8.386 E1038.93901
G1 X25.67 Y15.052 Z8.533 E1049.29174
G1 X22.097 Y18.016 Z8.561 E1051.26206
G1 X0.376 Y25.242 Z8.7 E1060.97765
;TIME_ELAPSED:111.947158
;LAYER:8
;note -- min layer time used
;TYPE:WALL-OUTER
;MESH:djinn4.stl
G1 F1969.4 X-.698 Y24.234 Z8.709 E1061.6028
G1 X-17.926 Y16.141 Z8.825 E1069.68131
G1 X-19.966 Y14.551 Z8.841 E1070.77906
G1 X-23.006 Y13.226 Z8.861 E1072.18652
G1 X-23.411 Y8.449 Z8.89 E1074.22126
G1 X-25.526 Y-14.885 Z9.033 E1084.1653
G1 X-21.214 Y-18.34 Z9.067 E1086.51041
G1 X-.376 Y-25.273 Z9.2 E1095.83115
G1 X0.714 Y-24.251 Z9.209 E1096.46531
G1 X17.94 Y-16.169 Z9.325 E1104.54107
G1 X19.917 Y-14.461 Z9.341 E1105.64992
G1 X22.965 Y-13.132 Z9.362 E1107.06118
G1 X23.284 Y-8.437 Z9.39 E1109.05843
G1 X25.399 Y14.897 Z9.533 E1119.00247
G1 X21.223 Y18.368 Z9.566 E1121.30715
G1 X0.375 Y25.304 Z9.7 E1130.63232
;TIME_ELAPSED:116.961502
;LAYER:9
;note -- min layer time used
;TYPE:WALL-OUTER
;MESH:djinn4.stl
G1 F1957.4 X-.685 Y24.31 Z9.709 E1131.24907
G1 X-17.186 Y16.557 Z9.821 E1138.98696
G1 X-19.868 Y14.37 Z9.842 E1140.45573
G1 X-22.785 Y13.099 Z9.861 E1141.80618
G1 X-23.228 Y7.647 Z9.895 E1144.12775
G1 X-25.256 Y-14.729 Z10.033 E1153.66353
G1 X-20.34 Y-18.692 Z10.071 E1156.34352
G1 X-.375 Y-25.334 Z10.2 E1165.2737
G1 X0.7 Y-24.326 Z10.209 E1165.89915
G1 X17.199 Y-16.584 Z10.321 E1173.63429
G1 X19.818 Y-14.28 Z10.343 E1175.11476
G1 X22.744 Y-13.005 Z10.362 E1176.46939
G1 X23.102 Y-7.635 Z10.395 E1178.75359
G1 X25.129 Y14.741 Z10.533 E1188.28933
G1 X20.349 Y18.72 Z10.571 E1190.92897
G1 X0.376 Y25.365 Z10.7 E1199.86277
;TIME_ELAPSED:121.975647
;LAYER:10
;note -- min layer time used
;TYPE:WALL-OUTER
;MESH:djinn4.stl
G1 F1945.5 X-.67 Y24.383 Z10.709 E1200.4717
G1 X-16.445 Y16.971 Z10.816 E1207.86916
G1 X-19.769 Y14.19 Z10.843 E1209.70858
G1 X-22.565 Y12.971 Z10.862 E1211.00314
G1 X-23.046 Y6.845 Z10.9 E1213.61114
G1 X-24.986 Y-14.573 Z11.032 E1222.73861
G1 X-19.466 Y-19.044 Z11.076 E1225.7535
G1 X-.376 Y-25.396 Z11.2 E1234.29245
G1 X0.686 Y-24.4 Z11.209 E1234.9104
G1 X16.459 Y-16.999 Z11.317 E1242.30511
G1 X19.72 Y-14.1 Z11.344 E1244.15698
G1 X22.524 Y-12.877 Z11.363 E1245.45533
G1 X22.919 Y-6.833 Z11.4 E1248.02601
G1 X24.859 Y14.585 Z11.533 E1257.15348
G1 X19.475 Y19.072 Z11.576 E1260.12808
G1 X0.375 Y25.427 Z11.7 E1268.67146
;TIME_ELAPSED:126.989592
;LAYER:11
;note -- min layer time used
;TYPE:WALL-OUTER
;MESH:djinn4.stl
G1 F1933.5 X-.659 Y24.456 Z11.709 E1269.27348
G1 X-15.705 Y17.386 Z11.812 E1276.32918
G1 X-19.671 Y14.01 Z11.844 E1278.5397
G1 X-22.344 Y12.844 Z11.862 E1279.77742
G1 X-22.862 Y6.042 Z11.905 E1282.67269
G1 X-24.716 Y-14.417 Z12.032 E1291.39151
G1 X-18.591 Y-19.396 Z12.081 E1294.74164
G1 X-.375 Y-25.457 Z12.2 E1302.88963
G1 X0.675 Y-24.472 Z12.209 E1303.50067
G1 X15.718 Y-17.414 Z12.312 E1310.55306
G1 X19.621 Y-13.919 Z12.345 E1312.77665
G1 X22.303 Y-12.75 Z12.363 E1314.01838
G1 X22.736 Y-6.03 Z12.405 E1316.87641
G1 X24.589 Y14.429 Z12.532 E1325.59518
G1 X18.6 Y19.424 Z12.581 E1328.90508
G1 X0.375 Y25.488 Z12.7 E1337.05709
;TIME_ELAPSED:132.003341
;LAYER:12
;note -- min layer time used
;TYPE:WALL-OUTER
;MESH:djinn4.stl
G1 F1921.6 X-.644 Y24.531 Z12.709 E1337.6504
G1 X-14.964 Y17.801 Z12.808 E1344.36586
G1 X-19.571 Y13.829 Z12.846 E1346.94756
G1 X-22.123 Y12.716 Z12.863 E1348.12921
G1 X-22.679 Y5.24 Z12.91 E1351.31095
G1 X-24.446 Y-14.261 Z13.032 E1359.6215
G1 X-17.717 Y-19.749 Z13.086 E1363.30683
G1 X-.375 Y-25.518 Z13.2 E1371.06372
G1 X0.66 Y-24.547 Z13.209 E1371.66605
G1 X14.977 Y-17.828 Z13.308 E1378.37837
G1 X19.522 Y-13.739 Z13.346 E1380.97314
G1 X22.082 Y-12.622 Z13.364 E1382.15859
G1 X22.553 Y-5.228 Z13.41 E1385.30312
G1 X24.319 Y14.273 Z13.532 E1393.61363
G1 X17.726 Y19.777 Z13.586 E1397.25876
G1 X0.375 Y25.549 Z13.7 E1405.01967
;TIME_ELAPSED:137.016890
;LAYER:13
;note -- min layer time used
;TYPE:WALL-OUTER
;MESH:djinn4.stl
G1 F1909.6 X-.631 Y24.605 Z13.709 E1405.60519
G1 X-14.224 Y18.216 Z13.803 E1411.97984
G1 X-19.473 Y13.648 Z13.847 E1414.93311
G92 E0
G1 X-21.902 Y12.589 Z13.863 E1.12464
G1 X-22.497 Y4.437 Z13.915 E4.59373
G1 X-24.176 Y-14.105 Z14.032 E12.49555
G1 X-16.843 Y-20.101 Z14.091 E16.51581
G1 X-.375 Y-25.58 Z14.2 E23.88187
G1 X0.647 Y-24.621 Z14.209 E24.47669
G1 X14.237 Y-18.243 Z14.304 E30.8482
G1 X19.424 Y-13.558 Z14.347 E33.81473
G1 X21.861 Y-12.494 Z14.364 E34.94333
G1 X22.37 Y-4.425 Z14.415 E38.37479
G1 X24.05 Y14.117 Z14.532 E46.27666
G1 X16.852 Y20.129 Z14.591 E50.25707
G1 X0.376 Y25.611 Z14.7 E57.62676
;TIME_ELAPSED:142.040152
;LAYER:14
;note -- min layer time used
;TYPE:WALL-OUTER
;MESH:djinn4.stl
G1 F1897.7 X-.618 Y24.678 Z14.709 E58.20536
G1 X-13.483 Y18.63 Z14.799 E64.23882
G1 X-19.375 Y13.467 Z14.848 E67.56376
G1 X-21.681 Y12.461 Z14.864 E68.63155
G1 X-22.313 Y3.635 Z14.92 E72.38709
G1 X-23.906 Y-13.949 Z15.032 E79.88068
G1 X-15.969 Y-20.453 Z15.096 E84.23588
G1 X-.376 Y-25.641 Z15.2 E91.21057
G1 X0.634 Y-24.694 Z15.209 E91.79819
G1 X13.496 Y-18.658 Z15.299 E97.82833
G1 X19.325 Y-13.377 Z15.349 E101.16663
G1 X21.64 Y-12.367 Z15.365 E102.2386
G1 X22.187 Y-3.623 Z15.42 E105.957
G1 X23.78 Y13.961 Z15.532 E113.45059
G1 X15.978 Y20.481 Z15.596 E117.76597
G1 X0.376 Y25.672 Z15.7 E124.7447
;TIME_ELAPSED:147.053309
;LAYER:15
;note -- min layer time used
;TYPE:WALL-OUTER
;MESH:djinn4.stl
G1 F1885.8 X-.604 Y24.753 Z15.709 E125.3149
G1 X-12.742 Y19.045 Z15.794 E131.00773
G1 X-19.275 Y13.287 Z15.849 E134.70373
G1 X-21.461 Y12.334 Z15.864 E135.71584
G1 X-22.13 Y2.832 Z15.925 E139.75868
G1 X-23.636 Y-13.793 Z16.031 E146.84359
G1 X-15.095 Y-20.805 Z16.102 E151.53373
G1 X-.376 Y-25.702 Z16.2 E158.11746
G1 X0.62 Y-24.769 Z16.209 E158.69668
G1 X12.755 Y-19.073 Z16.294 E164.38619
G1 X19.226 Y-13.197 Z16.35 E168.09597
G1 X21.42 Y-12.24 Z16.365 E169.11188
G1 X22.004 Y-2.82 Z16.425 E173.11761
G1 X23.51 Y13.805 Z16.531 E180.20251
G1 X15.104 Y20.833 Z16.601 E184.85286
G1 X0.375 Y25.733 Z16.7 E191.44102
;TIME_ELAPSED:152.066273
;LAYER:16
;note -- min layer time used
;TYPE:WALL-OUTER
;MESH:djinn4.stl
G1 F1873.8 X-.591 Y24.827 Z16.708 E192.00311
G1 X-12.001 Y19.46 Z16.789 E197.35475
G1 X-19.176 Y13.107 Z16.851 E201.42215
G1 X-21.24 Y12.207 Z16.865 E202.37781
G1 X-21.948 Y2.029 Z16.93 E206.70802
G1 X-23.366 Y-13.637 Z17.031 E213.38419
G1 X-14.221 Y-21.157 Z17.107 E218.40927
G1 X-.375 Y-25.764 Z17.2 E224.60258
G1 X0.607 Y-24.843 Z17.209 E225.17398
G1 X12.014 Y-19.487 Z17.29 E230.52248
G1 X19.127 Y-13.016 Z17.351 E234.60375
G1 X21.199 Y-12.112 Z17.366 E235.5632
G1 X21.821 Y-2.017 Z17.431 E239.85587
G1 X23.24 Y13.649 Z17.531 E246.53208
G1 X14.23 Y21.185 Z17.606 E251.51739
G1 X0.375 Y25.795 Z17.7 E257.71472
;TIME_ELAPSED:157.078495
;LAYER:17
;note -- min layer time used
;TYPE:WALL-OUTER
;MESH:djinn4.stl
G1 F1861.9 X-.578 Y24.9 Z17.708 E258.2696
G1 X-11.26 Y19.875 Z17.785 E263.27987
G1 X-19.078 Y12.925 Z17.852 E267.71956
G1 X-21.019 Y12.079 Z17.866 E268.61822
G1 X-21.764 Y1.227 Z17.936 E273.23488
G1 X-23.096 Y-13.481 Z18.031 E279.50283
G1 X-13.346 Y-21.509 Z18.112 E284.86318
G1 X-.375 Y-25.825 Z18.2 E290.66512
G1 X0.594 Y-24.916 Z18.209 E291.22902
G1 X11.274 Y-19.902 Z18.285 E296.23653
G1 X19.029 Y-12.835 Z18.353 E300.68957
G1 X20.978 Y-11.985 Z18.366 E301.59201
G1 X21.638 Y-1.215 Z18.436 E306.17161
G1 X22.97 Y13.493 Z18.531 E312.43956
G1 X13.355 Y21.537 Z18.612 E317.76016
G1 X0.375 Y25.856 Z18.7 E323.56613
;TIME_ELAPSED:162.090527
;LAYER:18
;note -- min layer time used
;TYPE:WALL-OUTER
;MESH:djinn4.stl
G1 F1849.9 X-.563 Y24.975 Z18.708 E324.1123
G1 X-10.52 Y20.289 Z18.78 E328.78288
G1 X-18.98 Y12.744 Z18.853 E333.59401
G1 X-20.798 Y11.951 Z18.866 E334.43582
G1 X-21.581 Y0.424 Z18.941 E339.33941
G1 X-21.685 Y-.726 Z18.949 E339.82949
G1 X-21.805 Y-1.935 Z18.956 E340.34513
G1 X-21.85 Y-2.546 Z18.96 E340.60516
G1 X-22.826 Y-13.325 Z19.031 E345.19872
G1 X-12.473 Y-21.861 Z19.118 E350.8937
G1 X-.375 Y-25.886 Z19.2 E356.30507
G1 X0.579 Y-24.991 Z19.209 E356.86026
G1 X10.533 Y-20.317 Z19.28 E361.52752
G1 X18.931 Y-12.654 Z19.354 E366.35266
G1 X20.758 Y-11.857 Z19.367 E367.19865
G1 X21.455 Y-.412 Z19.441 E372.06516
G1 X21.559 Y0.738 Z19.449 E372.55524
G1 X21.699 Y1.945 Z19.457 E373.07095
G1 X21.724 Y2.558 Z19.461 E373.33134
G1 X22.7 Y13.337 Z19.531 E377.9249
G1 X12.482 Y21.889 Z19.617 E383.58014
G1 X0.375 Y25.917 Z19.7 E388.99555
;TIME_ELAPSED:167.102369
;LAYER:19
;note -- min layer time used
;TYPE:WALL-OUTER
;MESH:djinn4.stl
G1 F1838 X-.55 Y25.049 Z19.708 E389.53392
G1 X-9.779 Y20.704 Z19.775 E393.86331
G1 X-18.881 Y12.563 Z19.855 E399.04617
G1 X-20.577 Y11.824 Z19.867 E399.83135
G1 X-21.336 Y0.388 Z19.942 E404.69572
G1 X-21.494 Y-1.116 Z19.951 E405.33757
G1 X-21.586 Y-2.307 Z19.959 E405.84456
G1 X-22.556 Y-13.169 Z20.03 E410.47298
G1 X-11.599 Y-22.214 Z20.123 E416.50318
G1 X-.375 Y-25.948 Z20.2 E421.52359
G1 X0.566 Y-25.065 Z20.209 E422.07127
G1 X9.792 Y-20.732 Z20.275 E426.39734
G1 X18.831 Y-12.474 Z20.355 E431.59366
G1 X20.537 Y-11.73 Z20.367 E432.38359
G1 X21.222 Y-.377 Z20.442 E437.21082
G1 X21.399 Y1.128 Z20.452 E437.85398
G1 X21.45 Y2.311 Z20.459 E438.35653
G1 X22.429 Y13.181 Z20.531 E442.98868
G1 X11.608 Y22.242 Z20.623 E448.97883
G1 X0.376 Y25.979 Z20.7 E454.00287
;TIME_ELAPSED:172.114021
;LAYER:20
;note -- min layer time used
;TYPE:WALL-OUTER
;MESH:djinn4.stl
G1 F1826 X-.537 Y25.122 Z20.708 E454.53433
G1 X-9.039 Y21.119 Z20.77 E458.52273
G1 X-18.782 Y12.384 Z20.856 E464.07644
G1 X-20.356 Y11.696 Z20.867 E464.80551
G1 X-21.078 Y0.895 Z20.938 E469.39993
G1 X-21.199 Y-.299 Z20.946 E469.90928
G1 X-21.307 Y-2.039 Z20.958 E470.6492
G1 X-22.285 Y-13.013 Z21.03 E475.32527
G1 X-10.725 Y-22.566 Z21.129 E481.6901
G1 X-.376 Y-26.009 Z21.2 E486.31914
G1 X0.553 Y-25.138 Z21.209 E486.85963
G1 X9.052 Y-21.146 Z21.27 E490.84488
G1 X18.733 Y-12.293 Z21.357 E496.41271
G1 X20.316 Y-11.602 Z21.368 E497.14579
G1 X20.964 Y-.888 Z21.439 E501.70136
G1 X21.104 Y0.311 Z21.446 E502.2137
G1 X21.17 Y2.043 Z21.458 E502.94933
G1 X22.159 Y13.025 Z21.53 E507.6292
G1 X10.734 Y22.593 Z21.628 E513.95405
G1 X0.376 Y26.04 Z21.7 E518.58726
;TIME_ELAPSED:177.125475
;LAYER:21
;note -- min layer time used
;TYPE:WALL-OUTER
;MESH:djinn4.stl
G1 F1814.1 X-.523 Y25.197 Z21.708 E519.11032
G1 X-8.297 Y21.533 Z21.765 E522.75789
G1 X-18.684 Y12.202 Z21.857 E528.68397
G1 X-20.136 Y11.569 Z21.868 E529.35625
G1 X-20.822 Y1.4 Z21.935 E533.68201
G1 X-20.904 Y0.519 Z21.941 E534.05754
G1 X-21.025 Y-1.75 Z21.956 E535.02193
G1 X-22.016 Y-12.857 Z22.03 E539.75471
G1 X-9.851 Y-22.917 Z22.134 E546.45455
G1 X-.376 Y-26.07 Z22.2 E550.69277
G1 X0.539 Y-25.213 Z22.209 E551.22485
G1 X8.31 Y-21.561 Z22.265 E554.86909
G1 X18.636 Y-12.111 Z22.358 E560.80993
G1 X20.096 Y-11.475 Z22.369 E561.48583
G1 X20.708 Y-1.393 Z22.435 E565.77273
G1 X20.809 Y-.507 Z22.441 E566.15121
G1 X20.889 Y1.754 Z22.456 E567.11143
G1 X21.889 Y12.869 Z22.53 E571.84794
G1 X9.86 Y22.945 Z22.634 E578.50775
G1 X0.375 Y26.101 Z22.7 E582.7504
;TIME_ELAPSED:182.136744
;LAYER:22
;note -- min layer time used
;TYPE:WALL-OUTER
;MESH:djinn4.stl
G1 F1802.2 X-.51 Y25.271 Z22.708 E583.26535
G1 X-7.557 Y21.948 Z22.76 E586.57211
G1 X-18.587 Y12.021 Z22.859 E592.87026
G1 X-19.915 Y11.441 Z22.868 E593.48531
G1 X-20.564 Y1.922 Z22.932 E597.53477
G1 X-20.609 Y1.336 Z22.936 E597.78421
G1 X-20.707 Y-0.011 Z22.945 E598.35742
G1 X-20.849 Y-2.785 Z22.963 E599.53631
G1 X-21.746 Y-12.701 Z23.03 E603.76207
G1 X-8.976 Y-23.27 Z23.14 E610.79746
G1 X-.375 Y-26.132 Z23.2 E614.64471
G1 X0.526 Y-25.287 Z23.209 E615.16898
G1 X7.57 Y-21.976 Z23.26 E618.47241
G1 X18.536 Y-11.932 Z23.359 E624.78383
G1 X19.875 Y-11.347 Z23.369 E625.404
G1 X20.451 Y-1.915 Z23.432 E629.41462
G1 X20.515 Y-1.324 Z23.436 E629.66692
G1 X20.571 Y0.015 Z23.445 E630.23572
G1 X20.723 Y2.797 Z23.464 E631.41822
G1 X21.619 Y12.713 Z23.53 E635.64394
G1 X8.985 Y23.298 Z23.64 E642.63932
G1 X0.375 Y26.163 Z23.7 E646.4906
;TIME_ELAPSED:187.147824
;LAYER:23
;note -- min layer time used
;TYPE:WALL-OUTER
;MESH:djinn4.stl
G1 F1790.2 X-.497 Y25.344 Z23.708 E646.99834
G1 X-6.816 Y22.363 Z23.755 E649.96372
G1 X-18.486 Y11.842 Z23.86 E656.63243
G1 X-19.694 Y11.314 Z23.869 E657.19197
G1 X-20.666 Y-3.588 Z23.969 E663.53015
G1 X-21.476 Y-12.545 Z24.029 E667.34722
G1 X-8.102 Y-23.622 Z24.146 E674.71757
G1 X-.375 Y-26.193 Z24.2 E678.17386
G1 X0.513 Y-25.36 Z24.209 E678.69062
G1 X6.829 Y-22.391 Z24.255 E681.65267
G1 X18.438 Y-11.75 Z24.361 E688.33649
G1 X19.654 Y-11.219 Z24.37 E688.89965
G1 X20.539 Y3.6 Z24.469 E695.20037
G1 X21.349 Y12.557 Z24.53 E699.01744
G1 X8.111 Y23.65 Z24.645 E706.34779
G1 X0.375 Y26.224 Z24.7 E709.8081
;TIME_ELAPSED:192.158732
;LAYER:24
;note -- min layer time used
;TYPE:WALL-OUTER
;MESH:djinn4.stl
G1 F1778.3 X-.483 Y25.419 Z24.708 E710.30744
G1 X-6.075 Y22.778 Z24.75 E712.93219
G1 X-18.39 Y11.659 Z24.862 E719.97418
G1 X-19.474 Y11.186 Z24.87 E720.47614
G1 X-20.483 Y-4.391 Z24.975 E727.10123
G1 X-21.206 Y-12.389 Z25.029 E730.50961
G1 X-7.228 Y-23.974 Z25.152 E738.21492
G1 X-.375 Y-26.254 Z25.2 E741.28024
G1 X0.499 Y-25.435 Z25.208 E741.7886
G1 X6.088 Y-22.805 Z25.25 E744.41021
G1 X18.34 Y-11.569 Z25.362 E751.46583
G1 X19.434 Y-11.092 Z25.37 E751.97237
G1 X20.357 Y4.403 Z25.475 E758.56046
G1 X21.079 Y12.401 Z25.529 E761.96879
G1 X7.237 Y24.002 Z25.651 E769.63411
G1 X0.375 Y26.285 Z25.7 E772.70346
;TIME_ELAPSED:197.170008
;LAYER:25
;note -- min layer time used
;TYPE:WALL-OUTER
;MESH:djinn4.stl
G1 F1766.4 X-.47 Y25.493 Z25.708 E773.195
G1 X-5.334 Y23.192 Z25.744 E775.47874
G1 X-18.29 Y11.479 Z25.863 E782.8916
G1 X-19.253 Y11.059 Z25.87 E783.3375
G1 X-20.3 Y-5.194 Z25.981 E790.24995
G1 X-20.936 Y-12.234 Z26.029 E793.25006
G1 X-6.354 Y-24.326 Z26.158 E801.29006
G1 X-.375 Y-26.316 Z26.2 E803.96454
G1 X0.486 Y-25.509 Z26.208 E804.46539
G1 X5.348 Y-23.22 Z26.245 E806.74619
G1 X18.24 Y-11.389 Z26.364 E814.1727
G1 X19.213 Y-10.964 Z26.371 E814.62334
G1 X20.173 Y5.206 Z26.481 E821.49834
G1 X20.809 Y12.246 Z26.529 E824.49845
G1 X6.363 Y24.354 Z26.657 E832.49846
G1 X0.375 Y26.347 Z26.7 E835.17698
;TIME_ELAPSED:202.181105
;LAYER:26
;note -- min layer time used
;TYPE:WALL-OUTER
;MESH:djinn4.stl
G1 F1754.4 X-.457 Y25.566 Z26.708 E835.6613
G1 X-4.594 Y23.607 Z26.739 E837.60405
G1 X-18.19 Y11.298 Z26.865 E845.38805
G1 X-19.032 Y10.931 Z26.871 E845.77789
G1 X-20.116 Y-5.996 Z26.987 E852.97681
G1 X-20.666 Y-12.078 Z27.029 E855.56869
G1 X-5.48 Y-24.678 Z27.164 E863.94365
G1 X-.375 Y-26.377 Z27.2 E866.22717
G1 X0.473 Y-25.582 Z27.208 E866.72051
G1 X4.607 Y-23.635 Z27.24 E868.65994
G1 X18.142 Y-11.208 Z27.365 E876.45855
G1 X18.992 Y-10.837 Z27.372 E876.85218
G1 X19.99 Y6.008 Z27.487 E884.01412
G1 X20.539 Y12.09 Z27.529 E886.60596
G1 X5.489 Y24.706 Z27.663 E894.94094
G1 X0.375 Y26.408 Z27.7 E897.22849
;TIME_ELAPSED:207.192025
;LAYER:27
;note -- min layer time used
;TYPE:WALL-OUTER
;MESH:djinn4.stl
G1 F1742.5 X-.442 Y25.641 Z27.708 E897.7041
G1 X-3.853 Y24.022 Z27.734 E899.30661
G1 X-18.093 Y11.117 Z27.866 E907.46301
G1 X-18.812 Y10.804 Z27.871 E907.79583
G1 X-19.933 Y-6.799 Z27.993 E915.28209
G1 X-20.396 Y-11.922 Z28.028 E917.46527
G1 X-4.606 Y-25.03 Z28.17 E926.17519
G1 X-.375 Y-26.438 Z28.2 E928.06775
G1 X0.458 Y-25.657 Z28.208 E928.55238
G1 X3.866 Y-24.049 Z28.234 E930.15174
G1 X18.043 Y-11.028 Z28.367 E938.32157
G1 X18.772 Y-10.71 Z28.372 E938.65913
G1 X19.807 Y6.811 Z28.493 E946.10841
G1 X20.269 Y11.934 Z28.529 E948.29156
G1 X4.615 Y25.058 Z28.669 E956.96151
G1 X0.375 Y26.469 Z28.7 E958.85809
;TIME_ELAPSED:212.202770
;LAYER:28
;note -- min layer time used
;TYPE:WALL-OUTER
;MESH:djinn4.stl
G1 F1730.6 X-.429 Y25.715 Z28.708 E959.32591
G1 X-3.112 Y24.437 Z28.728 E960.58722
G1 X-17.994 Y10.937 Z28.868 E969.11511
G1 X-18.592 Y10.677 Z28.872 E969.39187
G1 X-19.75 Y-7.601 Z28.999 E977.16503
G1 X-20.126 Y-11.766 Z29.028 E978.93994
G1 X-3.732 Y-25.383 Z29.176 E987.9851
G1 X-.375 Y-26.5 Z29.2 E989.48669
G1 X0.445 Y-25.731 Z29.208 E989.96382
G1 X3.125 Y-24.465 Z29.229 E991.2218
G1 X17.947 Y-10.846 Z29.368 E999.76493
G1 X18.551 Y-10.582 Z29.373 E1000.04471
G1 X19.624 Y7.613 Z29.499 E1007.7805
G1 X19.999 Y11.778 Z29.528 E1009.55538
G1 X3.741 Y25.411 Z29.675 E1018.56057
G1 X0.375 Y26.531 Z29.7 E1020.06619
;TIME_ELAPSED:217.213339
;LAYER:29
;note -- min layer time used
;TYPE:WALL-OUTER
;MESH:djinn4.stl
G1 F1718.6 X-.416 Y25.788 Z29.708 E1020.52679
G1 X-2.372 Y24.852 Z29.723 E1021.44712
G1 X-17.898 Y10.755 Z29.869 E1030.34769
G1 X-18.37 Y10.548 Z29.873 E1030.56644
G1 X-19.567 Y-8.403 Z30.005 E1038.62572
G1 X-19.856 Y-11.61 Z30.028 E1039.99236
G1 X-2.858 Y-25.735 Z30.182 E1049.37248
G1 X-.375 Y-26.561 Z30.2 E1050.48311
G1 X0.432 Y-25.804 Z30.208 E1050.95272
G1 X2.385 Y-24.879 Z30.223 E1051.86989
G1 X17.847 Y-10.665 Z30.37 E1060.78391
G1 X18.329 Y-10.454 Z30.374 E1061.00723
G1 X19.44 Y8.415 Z30.506 E1069.02955
G1 X19.73 Y11.622 Z30.528 E1070.39622
G1 X2.867 Y25.763 Z30.682 E1079.73671
G1 X0.375 Y26.592 Z30.7 E1080.85136
;TIME_ELAPSED:222.223724
;LAYER:30
;note -- min layer time used
;TYPE:WALL-OUTER
;MESH:djinn4.stl
G1 F1706.7 X-.403 Y25.862 Z30.708 E1081.30416
G1 X-1.63 Y25.266 Z30.717 E1081.88311
G1 X-17.796 Y10.575 Z30.871 E1091.15427
G1 X-18.15 Y10.421 Z30.873 E1091.31812
G1 X-19.383 Y-9.206 Z31.012 E1099.6647
G1 X-19.586 Y-11.454 Z31.028 E1100.62269
G1 X-1.984 Y-26.087 Z31.188 E1110.33777
G1 X-.375 Y-26.623 Z31.2 E1111.05757
G1 X0.419 Y-25.878 Z31.208 E1111.51968
G1 X1.644 Y-25.293 Z31.218 E1112.09584
G1 X17.747 Y-10.484 Z31.371 E1121.38105
G1 X18.109 Y-10.327 Z31.374 E1121.54852
G1 X19.257 Y9.218 Z31.512 E1129.85818
G1 X19.459 Y11.466 Z31.528 E1130.81613
G1 X1.993 Y26.115 Z31.688 E1140.49126
G1 X0.376 Y26.654 Z31.7 E1141.21468
;TIME_ELAPSED:227.233956
;LAYER:31
;note -- min layer time used
;TYPE:WALL-OUTER
;MESH:djinn4.stl
G1 F1694.8 X-.389 Y25.936 Z31.707 E1141.65996
G1 X-.888 Y25.682 Z31.711 E1141.89761
G1 X-17.698 Y10.394 Z31.872 E1151.54146
G1 X-17.929 Y10.293 Z31.874 E1151.64846
G1 X-19.2 Y-10.009 Z32.018 E1160.28199
G1 X-19.316 Y-11.298 Z32.027 E1160.83128
G1 X-1.111 Y-26.439 Z32.195 E1170.881
G1 X-.375 Y-26.684 Z32.2 E1171.21023
G1 X0.405 Y-25.953 Z32.208 E1171.66394
G1 X0.902 Y-25.709 Z32.212 E1171.89893
G1 X17.65 Y-10.303 Z32.373 E1181.55716
G1 X17.888 Y-10.199 Z32.375 E1181.6674
G1 X19.074 Y10.021 Z32.518 E1190.264
G1 X19.189 Y11.31 Z32.527 E1190.81325
G1 X1.12 Y26.466 Z32.694 E1200.82276
G1 X0.374 Y26.715 Z32.7 E1201.15655
;TIME_ELAPSED:232.243454
;LAYER:32
;note -- min layer time used
;TYPE:WALL-OUTER
;MESH:djinn4.stl
G1 F1683.2 X-10.341 Y16.966 Z32.803 E1207.3049
G1 X-17.601 Y10.213 Z32.874 E1211.51314
G1 X-17.708 Y10.167 Z32.875 E1211.56257
G1 X-19.044 Y-11.149 Z33.027 E1220.62734
G1 X-.353 Y-26.726 Z33.201 E1230.95399
G1 X10.274 Y-16.892 Z33.304 E1237.09922
G1 X17.549 Y-10.125 Z33.375 E1241.31616
G1 X17.667 Y-10.074 Z33.376 E1241.37072
G1 X18.912 Y11.162 Z33.527 E1250.39926
G1 X0.338 Y26.741 Z33.7 E1260.68836
;TIME_ELAPSED:237.253515
;LAYER:33
;note -- min layer time used
;TYPE:WALL-OUTER
;MESH:djinn4.stl
G1 F1670.5 X-17.413 Y10.16 Z33.874 E1270.99783
G1 X-18.781 Y-10.972 Z34.027 E1279.98553
G1 X-.103 Y-26.552 Z34.201 E1290.30876
G1 X17.409 Y-10.156 Z34.374 E1300.49051
G1 X18.669 Y10.979 Z34.526 E1309.47664
G1 X0.088 Y26.568 Z34.7 E1319.77075
;TIME_ELAPSED:242.262043
;LAYER:34
;note -- min layer time used
;TYPE:WALL-OUTER
;MESH:djinn4.stl
G1 F1658.2 X-17.217 Y10.343 Z34.872 E1329.83877
G1 X-18.567 Y-10.762 Z35.025 E1338.81455
G1 X0.132 Y-26.395 Z35.201 E1349.15904
G1 X17.234 Y-10.36 Z35.371 E1359.10905
G1 X18.491 Y10.766 Z35.524 E1368.0913
G1 X-.149 Y26.412 Z35.7 E1378.42014
;TIME_ELAPSED:247.270989
;LAYER:35
;note -- min layer time used
;TYPE:WALL-OUTER
;MESH:djinn4.stl
G1 F1649.9 X-17.232 Y10.396 Z35.87 E1388.35875
G1 X-17.247 Y10.086 Z35.873 E1388.49048
G1 X-17.339 Y8.292 Z35.886 E1389.2529
G1 X-18.409 Y-10.583 Z36.023 E1397.27677
G1 X-18.287 Y-10.802 Z36.025 E1397.38317
G1 X0.368 Y-26.241 Z36.201 E1407.66065
G1 X17.249 Y-10.414 Z36.369 E1417.48185
G92 E0
G1 X17.205 Y-10.084 Z36.372 E0.1413
G1 X17.271 Y-8.288 Z36.385 E0.90408
G1 X18.34 Y10.587 Z36.522 E8.92793
G1 X18.201 Y10.7 Z36.524 E9.00396
G1 X-.385 Y26.259 Z36.7 E19.29152
;TIME_ELAPSED:252.288685
;LAYER:36
;note -- min layer time used
;TYPE:WALL-OUTER
;MESH:djinn4.stl
G1 F1637.7 X-.97 Y25.71 Z36.706 E19.63202
G1 X-17.267 Y10.43 Z36.87 E29.11362
G1 X-17.188 Y10.096 Z36.872 E29.25929
G1 X-17.541 Y2.308 Z36.929 E32.5681
G1 X-18.266 Y-10.501 Z37.023 E38.01326
G1 X-17.682 Y-10.959 Z37.029 E38.32825
G1 X0.467 Y-26 Z37.201 E48.3326
G1 X0.987 Y-25.728 Z37.206 E48.58167
G1 X17.289 Y-10.443 Z37.369 E58.06626
G1 X17.206 Y-10.092 Z37.372 E58.21935
G1 X17.472 Y-2.304 Z37.429 E61.52669
G1 X18.198 Y10.505 Z37.523 E66.97187
G1 X17.596 Y10.856 Z37.528 E67.26763
G1 X-.377 Y25.903 Z37.7 E77.21621
;TIME_ELAPSED:257.298255
;LAYER:37
;note -- min layer time used
;TYPE:WALL-OUTER
;MESH:djinn4.stl
G1 F1626.1 X-1.579 Y25.205 Z37.71 E77.80615
G1 X-17.312 Y10.455 Z37.869 E86.95927
G1 X-17.226 Y10.099 Z37.872 E87.11471
G1 X-17.739 Y-3.628 Z37.973 E92.94485
G1 X-18.124 Y-10.418 Z38.024 E95.83133
G1 X-17.077 Y-11.115 Z38.033 E96.36516
G1 X-2.951 Y-22.941 Z38.169 E104.18424
G1 X-.88 Y-24.713 Z38.189 E105.34106
G1 X-.672 Y-24.848 Z38.191 E105.4463
G1 X0.291 Y-25.654 Z38.2 E105.97929
G1 X1.596 Y-25.223 Z38.21 E106.56259
G1 X17.334 Y-10.468 Z38.369 E115.71871
G1 X17.245 Y-10.095 Z38.372 E115.88146
G1 X17.671 Y3.632 Z38.474 E121.71035
G1 X18.056 Y10.422 Z38.524 E124.59682
G1 X16.991 Y11.012 Z38.533 E125.11356
G1 X2.864 Y22.838 Z38.669 E132.93296
G1 X0.813 Y24.634 Z38.689 E134.09003
G1 X0.586 Y24.746 Z38.691 E134.19747
G1 X-.377 Y25.552 Z38.7 E134.73045
;TIME_ELAPSED:262.306995
;LAYER:38
;note -- min layer time used
;TYPE:WALL-OUTER
;MESH:djinn4.stl
G1 F1614.7 X-2.189 Y24.702 Z38.715 E135.57992
G1 X-17.356 Y10.481 Z38.869 E144.40423
G1 X-17.266 Y10.101 Z38.872 E144.56998
G1 X-17.855 Y-7.799 Z39.005 E152.17129
G1 X-17.848 Y-7.981 Z39.007 E152.2486
G1 X-17.981 Y-10.337 Z39.024 E153.25013
G1 X-16.473 Y-11.271 Z39.037 E154.00298
G1 X-7.387 Y-18.877 Z39.126 E159.03214
G1 X-1.313 Y-24.105 Z39.185 E162.43351
G1 X-.669 Y-24.528 Z39.191 E162.76053
G1 X0.291 Y-25.304 Z39.2 E163.28444
G1 X2.205 Y-24.719 Z39.215 E164.13389
G1 X17.378 Y-10.494 Z39.369 E172.96122
G1 X17.284 Y-10.097 Z39.372 E173.13437
G1 X17.813 Y7.801 Z39.506 E180.73405
G1 X17.78 Y7.985 Z39.507 E180.81339
G1 X17.913 Y10.341 Z39.524 E181.81493
G1 X16.386 Y11.169 Z39.537 E182.55217
G1 X7.301 Y18.775 Z39.625 E187.58099
G1 X1.269 Y24.055 Z39.685 E190.98338
G1 X0.598 Y24.386 Z39.691 E191.30093
G1 X-.377 Y25.202 Z39.7 E191.84055
;TIME_ELAPSED:267.316121
;LAYER:39
;note -- min layer time used
;TYPE:WALL-OUTER
;MESH:djinn4.stl
G1 F1603.8 X-2.799 Y24.197 Z39.72 E192.95349
G1 X-17.401 Y10.507 Z39.869 E201.44872
G1 X-17.304 Y10.104 Z39.872 E201.62465
G1 X-17.789 Y-7.121 Z40.001 E208.93827
G1 X-17.711 Y-7.986 Z40.008 E209.30689
G1 X-17.839 Y-10.254 Z40.025 E210.27101
G1 X-15.868 Y-11.428 Z40.042 E211.24471
G1 X-11.852 Y-14.79 Z40.081 E213.46763
G1 X-1.771 Y-23.526 Z40.181 E219.12928
G1 X-.68 Y-24.168 Z40.191 E219.66655
G1 X0.291 Y-24.953 Z40.2 E220.1965
G1 X2.816 Y-24.214 Z40.22 E221.31313
G1 X17.423 Y-10.52 Z40.369 E229.81107
G1 X17.323 Y-10.1 Z40.373 E229.99431
G1 X17.809 Y7.12 Z40.502 E237.30582
G1 X17.642 Y7.984 Z40.508 E237.67931
G1 X17.771 Y10.258 Z40.525 E238.646
G1 X15.781 Y11.325 Z40.542 E239.60436
G1 X11.766 Y14.687 Z40.581 E241.82695
G1 X1.727 Y23.477 Z40.681 E247.49022
G1 X0.609 Y24.026 Z40.69 E248.01885
G1 X-.377 Y24.851 Z40.7 E248.5645
;TIME_ELAPSED:272.325137
;LAYER:40
;note -- min layer time used
;TYPE:WALL-OUTER
;MESH:djinn4.stl
G1 F1593.1 X-3.409 Y23.691 Z40.724 E249.94232
G1 X-17.445 Y10.532 Z40.869 E258.10816
G1 X-17.345 Y10.11 Z40.873 E258.29223
G1 X-17.81 Y-6.442 Z40.997 E265.32008
G1 X-17.574 Y-7.983 Z41.009 E265.98175
G1 X-17.697 Y-10.172 Z41.026 E266.91228
G1 X-15.364 Y-11.512 Z41.046 E268.05418
G1 X-2.231 Y-22.946 Z41.177 E275.44468
G1 X-.691 Y-23.808 Z41.19 E276.19372
G1 X0.291 Y-24.603 Z41.2 E276.72997
G1 X3.426 Y-23.709 Z41.224 E278.11359
G1 X17.467 Y-10.545 Z41.369 E286.28243
G1 X17.363 Y-10.106 Z41.373 E286.47391
G1 X17.83 Y6.441 Z41.497 E293.49967
G1 X17.505 Y7.983 Z41.509 E294.16851
G1 X17.629 Y10.176 Z41.526 E295.10077
G1 X15.287 Y11.42 Z41.546 E296.22629
G1 X2.187 Y22.896 Z41.677 E303.61798
G1 X0.62 Y23.666 Z41.69 E304.35901
G1 X-.377 Y24.501 Z41.7 E304.91096
;TIME_ELAPSED:277.333487
;LAYER:41
;note -- min layer time used
;TYPE:WALL-OUTER
;MESH:djinn4.stl
G1 F1582.4 X-4.019 Y23.188 Z41.729 E306.55411
G1 X-17.49 Y10.558 Z41.869 E314.39145
G1 X-17.383 Y10.11 Z41.873 E314.58694
G1 X-17.83 Y-5.763 Z41.993 E321.32651
G1 X-17.436 Y-7.982 Z42.01 E322.28304
G1 X-17.555 Y-10.09 Z42.026 E323.17916
G1 X-15.246 Y-11.347 Z42.046 E324.29496
G1 X-2.688 Y-22.368 Z42.173 E331.38637
G1 X-.703 Y-23.448 Z42.19 E332.34548
G1 X0.291 Y-24.253 Z42.2 E332.88836
G1 X4.036 Y-23.206 Z42.229 E334.53878
G1 X17.512 Y-10.571 Z42.369 E342.37912
G1 X17.401 Y-10.106 Z42.373 E342.58202
G1 X17.85 Y5.762 Z42.493 E349.3195
G1 X17.368 Y7.981 Z42.511 E350.28327
G1 X17.487 Y10.094 Z42.527 E351.1815
G1 X15.214 Y11.286 Z42.546 E352.27082
G1 X2.644 Y22.319 Z42.673 E359.36942
G1 X0.632 Y23.306 Z42.69 E360.32058
G1 X-.377 Y24.151 Z42.7 E360.87916
;TIME_ELAPSED:282.341755
;LAYER:42
;note -- min layer time used
;TYPE:WALL-OUTER
;MESH:djinn4.stl
G1 F1571.4 X-4.629 Y22.683 Z42.734 E362.78835
G1 X-17.534 Y10.584 Z42.869 E370.2963
G1 X-17.423 Y10.116 Z42.873 E370.50044
G1 X-17.85 Y-5.083 Z42.989 E376.95383
G1 X-17.299 Y-7.981 Z43.012 E378.20585
G1 X-17.412 Y-10.008 Z43.027 E379.0675
G1 X-15.187 Y-11.222 Z43.047 E380.14327
G1 X-3.143 Y-21.792 Z43.169 E386.94445
G1 X-.713 Y-23.089 Z43.19 E388.11352
G1 X0.291 Y-23.902 Z43.2 E388.66183
G1 X4.646 Y-22.701 Z43.234 E390.5792
G1 X17.556 Y-10.597 Z43.37 E398.09015
G1 X17.441 Y-10.112 Z43.373 E398.30171
G1 X17.87 Y5.082 Z43.489 E404.753
G1 X17.23 Y7.98 Z43.512 E406.01262
G1 X17.344 Y10.012 Z43.528 E406.87641
G1 X15.155 Y11.161 Z43.546 E407.92569
G1 X3.099 Y21.742 Z43.669 E414.73378
G1 X0.642 Y22.947 Z43.69 E415.89525
G1 X-.377 Y23.8 Z43.7 E416.45927
;TIME_ELAPSED:287.349864
;LAYER:43
;note -- min layer time used
;TYPE:WALL-OUTER
;MESH:djinn4.stl
G1 F1560.5 X-5.238 Y22.179 Z43.739 E418.63409
G1 X-17.578 Y10.609 Z43.869 E425.81355
G1 X-17.462 Y10.122 Z43.873 E426.02603
G1 X-17.869 Y-4.404 Z43.985 E432.19365
G1 X-17.161 Y-7.979 Z44.013 E433.74044
G1 X-17.27 Y-9.926 Z44.028 E434.5681
G1 X-15.128 Y-11.096 Z44.047 E435.604
G1 X-3.6 Y-21.213 Z44.165 E442.11376
G1 X-.724 Y-22.729 Z44.19 E443.49361
G1 X0.291 Y-23.552 Z44.2 E444.04822
G1 X5.255 Y-22.197 Z44.239 E446.23215
G1 X17.6 Y-10.622 Z44.37 E453.4146
G1 X17.48 Y-10.118 Z44.374 E453.63449
G1 X17.889 Y4.403 Z44.485 E459.80002
G1 X17.093 Y7.978 Z44.513 E461.3545
G1 X17.202 Y9.93 Z44.528 E462.18427
G1 X15.096 Y11.035 Z44.547 E463.19368
G1 X3.556 Y21.163 Z44.665 E469.71035
G1 X0.653 Y22.587 Z44.69 E471.08271
G1 X-.377 Y23.45 Z44.7 E471.65303
;TIME_ELAPSED:292.357833
;LAYER:44
;note -- min layer time used
;TYPE:WALL-OUTER
;MESH:djinn4.stl
G1 F1549.7 X-5.849 Y21.675 Z44.745 E474.09462
G1 X-17.623 Y10.635 Z44.87 E480.94497
G1 X-17.501 Y10.122 Z44.874 E481.16878
G1 X-17.89 Y-3.723 Z44.981 E487.04727
G1 X-17.023 Y-7.977 Z45.014 E488.88989
G1 X-17.128 Y-9.844 Z45.029 E489.68355
G1 X-15.069 Y-10.971 Z45.047 E490.67979
G1 X-4.06 Y-20.632 Z45.161 E496.89633
G1 X-.737 Y-22.368 Z45.19 E498.48756
G1 X0.291 Y-23.202 Z45.2 E499.0494
G1 X5.866 Y-21.692 Z45.245 E501.50083
G1 X17.645 Y-10.648 Z45.37 E508.35389
G1 X17.519 Y-10.118 Z45.374 E508.58511
G1 X17.91 Y3.722 Z45.481 E514.4615
G1 X16.955 Y7.977 Z45.515 E516.31236
G1 X17.061 Y9.848 Z45.529 E517.10774
G1 X15.037 Y10.91 Z45.547 E518.07785
G1 X4.016 Y20.583 Z45.661 E524.30158
G1 X0.666 Y22.226 Z45.689 E525.8852
G1 X-.377 Y23.1 Z45.7 E526.46275
;TIME_ELAPSED:297.366206
;LAYER:45
;note -- min layer time used
;TYPE:WALL-OUTER
;MESH:djinn4.stl
G1 F1538.7 X-6.458 Y21.171 Z45.75 E529.17043
G1 X-17.667 Y10.661 Z45.87 E535.692
G1 X-17.54 Y10.127 Z45.874 E535.92496
G1 X-17.91 Y-3.044 Z45.977 E541.51728
G1 X-16.886 Y-7.976 Z46.016 E543.65519
G1 X-16.987 Y-9.761 Z46.03 E544.41401
G1 X-15.01 Y-10.846 Z46.047 E545.37115
G1 X-4.515 Y-20.057 Z46.156 E551.29775
G1 X-.746 Y-22.01 Z46.189 E553.09942
G1 X0.291 Y-22.851 Z46.2 E553.6661
G1 X6.475 Y-21.188 Z46.25 E556.38399
G1 X17.689 Y-10.674 Z46.37 E562.90827
G1 X17.558 Y-10.123 Z46.374 E563.14864
G1 X17.93 Y3.043 Z46.477 E568.73887
G1 X16.817 Y7.975 Z46.516 E570.88478
G1 X16.918 Y9.765 Z46.53 E571.64571
G1 X14.978 Y10.785 Z46.547 E572.57597
G1 X4.471 Y20.007 Z46.656 E578.50947
G1 X0.677 Y21.868 Z46.689 E580.30303
G1 X-.377 Y22.749 Z46.7 E580.88607
;TIME_ELAPSED:302.374437
;LAYER:46
;note -- min layer time used
;TYPE:WALL-OUTER
;MESH:djinn4.stl
G1 F1527.8 X-7.068 Y20.666 Z46.755 E583.86034
G1 X-17.712 Y10.686 Z46.87 E590.05311
G1 X-17.579 Y10.13 Z46.874 E590.29575
G1 X-17.93 Y-2.364 Z46.972 E595.60062
G1 X-16.748 Y-7.975 Z47.017 E598.03434
G1 X-16.844 Y-9.68 Z47.031 E598.75914
G1 X-14.953 Y-10.719 Z47.048 E599.6749
G1 X-4.972 Y-19.478 Z47.152 E605.31099
G1 X-.758 Y-21.651 Z47.189 E607.32331
G1 X0.291 Y-22.501 Z47.2 E607.89635
G1 X7.085 Y-20.683 Z47.255 E610.88136
G1 X17.734 Y-10.699 Z47.37 E617.07684
G1 X17.597 Y-10.126 Z47.374 E617.32689
G1 X17.95 Y2.363 Z47.472 E622.62966
G1 X16.679 Y7.976 Z47.518 E625.07228
G1 X16.775 Y9.684 Z47.531 E625.79835
G1 X14.921 Y10.658 Z47.548 E626.68721
G1 X4.928 Y19.429 Z47.652 E632.33049
G1 X0.688 Y21.508 Z47.689 E634.33475
G1 X-.377 Y22.399 Z47.7 E634.92409
;TIME_ELAPSED:307.381991
;LAYER:47
;note -- min layer time used
;TYPE:WALL-OUTER
;MESH:djinn4.stl
G1 F1516.9 X-7.677 Y20.162 Z47.76 E638.16461
G1 X-17.756 Y10.712 Z47.87 E644.0286
G1 X-17.618 Y10.133 Z47.874 E644.28122
G1 X-17.95 Y-1.685 Z47.968 E649.29907
G1 X-16.61 Y-7.976 Z48.019 E652.02904
G1 X-16.701 Y-9.597 Z48.032 E652.71812
G1 X-14.897 Y-10.593 Z48.048 E653.59273
G1 X-5.43 Y-18.9 Z48.148 E658.93832
G1 X-.768 Y-21.292 Z48.189 E661.16224
G1 X0.291 Y-22.15 Z48.2 E661.74072
G1 X7.694 Y-20.18 Z48.26 E664.99209
G1 X17.778 Y-10.725 Z48.37 E670.85907
G1 X17.636 Y-10.129 Z48.375 E671.11911
G1 X17.97 Y1.684 Z48.468 E676.13487
G1 X16.542 Y7.975 Z48.519 E678.87286
G1 X16.633 Y9.601 Z48.532 E679.56405
G1 X14.865 Y10.532 Z48.548 E680.41212
G1 X5.386 Y18.85 Z48.648 E685.76462
G1 X0.698 Y21.149 Z48.689 E687.98071
G1 X-.377 Y22.048 Z48.7 E688.57548
;TIME_ELAPSED:312.389403
;LAYER:48
;note -- min layer time used
;TYPE:WALL-OUTER
;MESH:djinn4.stl
G1 F1506 X-8.287 Y19.657 Z48.766 E692.08272
G1 X-17.801 Y10.738 Z48.87 E697.61762
G1 X-17.658 Y10.137 Z48.875 E697.87982
G1 X-17.97 Y-1.005 Z48.963 E702.61064
G1 X-16.473 Y-7.975 Z49.02 E705.63635
G1 X-16.559 Y-9.515 Z49.033 E706.29099
G1 X-14.838 Y-10.467 Z49.048 E707.12573
G1 X-5.887 Y-18.322 Z49.143 E712.18018
G1 X-.781 Y-20.931 Z49.189 E714.61382
G1 X0.291 Y-21.8 Z49.2 E715.19952
G1 X8.304 Y-19.675 Z49.266 E718.71801
G1 X17.823 Y-10.751 Z49.37 E724.25591
G1 X17.676 Y-10.133 Z49.375 E724.52552
G1 X17.99 Y1.004 Z49.464 E729.25424
G1 X16.404 Y7.974 Z49.521 E732.28811
G1 X16.491 Y9.519 Z49.533 E732.94489
G1 X14.806 Y10.407 Z49.548 E733.75328
G1 X5.843 Y18.273 Z49.643 E738.81464
G1 X0.711 Y20.788 Z49.689 E741.24029
G1 X-.377 Y21.698 Z49.7 E741.84229
;TIME_ELAPSED:317.397226
;LAYER:49
;note -- min layer time used
;TYPE:WALL-OUTER
;MESH:djinn4.stl
G1 F1495.1 X-8.896 Y19.153 Z49.771 E745.61588
G1 X-17.845 Y10.764 Z49.87 E750.82199
G1 X-17.697 Y10.143 Z49.875 E751.09295
G1 X-17.99 Y-.325 Z49.959 E755.53759
G1 X-16.335 Y-7.974 Z50.022 E758.85915
G1 X-16.417 Y-9.433 Z50.034 E759.47937
G1 X-14.78 Y-10.341 Z50.049 E760.27388
G1 X-6.344 Y-17.744 Z50.139 E765.0375
G1 X-.793 Y-20.571 Z50.189 E767.68143
G1 X0.291 Y-21.45 Z50.2 E768.27376
G1 X8.913 Y-19.17 Z50.271 E772.05895
G1 X17.867 Y-10.777 Z50.37 E777.26777
G1 X17.715 Y-10.139 Z50.375 E777.54613
G1 X18.01 Y0.324 Z50.459 E781.98867
G1 X16.266 Y7.973 Z50.522 E785.31843
G1 X16.349 Y9.437 Z50.534 E785.94079
G1 X14.748 Y10.28 Z50.548 E786.70874
G1 X6.3 Y17.694 Z50.639 E791.47927
G1 X0.723 Y20.428 Z50.688 E794.11542
G1 X-.377 Y21.348 Z50.7 E794.72406
;TIME_ELAPSED:322.404380
;LAYER:50
;note -- min layer time used
;TYPE:WALL-OUTER
;MESH:djinn4.stl
G1 F1484.2 X-9.506 Y18.648 Z50.777 E798.76456
G1 X-17.89 Y10.789 Z50.87 E803.64188
G1 X-17.736 Y10.142 Z50.875 E803.92416
G1 X-18.011 Y0.353 Z50.954 E808.08051
G1 X-16.198 Y-7.973 Z51.023 E811.6971
G1 X-16.274 Y-9.351 Z51.034 E812.28285
G1 X-14.722 Y-10.215 Z51.049 E813.03675
G1 X-6.802 Y-17.165 Z51.134 E817.50895
G1 X-.802 Y-20.212 Z51.188 E820.36507
G1 X0.291 Y-21.099 Z51.2 E820.96251
G1 X9.523 Y-18.666 Z51.277 E825.0146
G1 X17.912 Y-10.802 Z51.37 E829.89492
G1 X17.754 Y-10.138 Z51.375 E830.18461
G1 X18.03 Y-.354 Z51.455 E834.33886
G1 X16.129 Y7.973 Z51.524 E837.96399
G1 X16.206 Y9.355 Z51.535 E838.55146
G1 X14.69 Y10.154 Z51.549 E839.27878
G1 X6.758 Y17.116 Z51.634 E843.75817
G1 X0.732 Y20.069 Z51.688 E846.60635
G1 X-.377 Y20.997 Z51.7 E847.2201
;TIME_ELAPSED:327.411944
;LAYER:51
;note -- min layer time used
;TYPE:WALL-OUTER
;MESH:djinn4.stl
G1 F1473.4 X-10.117 Y18.144 Z51.783 E851.52771
G1 X-17.934 Y10.815 Z51.87 E856.07562
G1 X-17.776 Y10.149 Z51.876 E856.36614
G1 X-18.03 Y1.034 Z51.95 E860.23629
G1 X-16.06 Y-7.972 Z52.025 E864.14906
G1 X-16.132 Y-9.269 Z52.035 E864.70039
G1 X-14.663 Y-10.09 Z52.049 E865.41464
G1 X-7.26 Y-16.586 Z52.129 E869.59482
G1 X-.813 Y-19.852 Z52.188 E872.66218
G1 X0.291 Y-20.749 Z52.2 E873.26592
G1 X10.134 Y-18.161 Z52.283 E877.58555
G1 X17.956 Y-10.828 Z52.37 E882.13616
G1 X17.794 Y-10.145 Z52.376 E882.43409
G1 X18.05 Y-1.035 Z52.45 E886.30215
G1 X15.991 Y7.97 Z52.525 E890.22275
G1 X16.064 Y9.273 Z52.536 E890.77665
G1 X14.631 Y10.029 Z52.549 E891.4643
G1 X7.216 Y16.537 Z52.629 E895.65166
G1 X0.743 Y19.71 Z52.688 E898.7113
G1 X-.377 Y20.647 Z52.7 E899.33107
;TIME_ELAPSED:332.419382
;LAYER:52
;note -- min layer time used
;TYPE:WALL-OUTER
;MESH:djinn4.stl
G1 F1462.5 X-10.726 Y17.64 Z52.788 E903.90513
G1 X-17.979 Y10.841 Z52.87 E908.12456
G1 X-17.814 Y10.151 Z52.876 E908.42567
G1 X-18.051 Y1.712 Z52.945 E912.00882
G1 X-15.922 Y-7.969 Z53.026 E916.21589
G1 X-15.99 Y-9.187 Z53.036 E916.73365
G1 X-14.606 Y-9.964 Z53.049 E917.4073
G1 X-7.718 Y-16.008 Z53.125 E921.29665
G1 X-.824 Y-19.492 Z53.188 E924.57507
G1 X0.291 Y-20.398 Z53.2 E925.18484
G1 X10.743 Y-17.658 Z53.288 E929.77085
G1 X18.001 Y-10.854 Z53.37 E933.99328
G1 X17.832 Y-10.147 Z53.376 E934.3018
G1 X18.07 Y-1.713 Z53.445 E937.88285
G1 X15.854 Y7.969 Z53.527 E942.09842
G1 X15.922 Y9.191 Z53.537 E942.61787
G1 X14.574 Y9.903 Z53.549 E943.2649
G1 X7.674 Y15.958 Z53.625 E947.16116
G1 X0.754 Y19.349 Z53.688 E950.43188
G1 X-.377 Y20.296 Z53.7 E951.05796
;TIME_ELAPSED:337.426158
;LAYER:53
;note -- min layer time used
;TYPE:WALL-OUTER
;MESH:djinn4.stl
G1 F1451.6 X-11.336 Y17.135 Z53.794 E955.89888
G1 X-18.023 Y10.866 Z53.87 E959.7892
G1 X-17.853 Y10.154 Z53.876 E960.09989
G1 X-18.07 Y2.392 Z53.94 E963.39558
G1 X-15.785 Y-7.97 Z54.028 E967.89917
G1 X-15.848 Y-9.105 Z54.037 E968.38163
G1 X-14.549 Y-9.838 Z54.05 E969.01468
G1 X-8.175 Y-15.43 Z54.12 E972.61353
G1 X-.836 Y-19.132 Z54.188 E976.10226
G1 X0.291 Y-20.048 Z54.2 E976.71865
G1 X11.353 Y-17.153 Z54.294 E981.57179
G1 X18.045 Y-10.879 Z54.37 E985.46511
G1 X17.871 Y-10.15 Z54.376 E985.78321
G1 X18.09 Y-2.393 Z54.441 E989.07681
G1 X15.716 Y7.971 Z54.528 E993.5895
G1 X15.779 Y9.109 Z54.538 E994.07324
G1 X14.517 Y9.777 Z54.55 E994.67928
G1 X8.131 Y15.381 Z54.62 E998.28531
G1 X0.766 Y18.991 Z54.688 E1001.76653
G1 X-.377 Y19.946 Z54.7 E1002.3987
;TIME_ELAPSED:342.432809
;LAYER:54
;note -- min layer time used
;TYPE:WALL-OUTER
;MESH:djinn4.stl
G1 F1440.7 X-11.945 Y16.632 Z54.8 E1007.50598
G1 X-18.068 Y10.892 Z54.87 E1011.06811
G1 X-17.893 Y10.161 Z54.876 E1011.38713
G1 X-18.09 Y3.073 Z54.935 E1014.39664
G1 X-15.646 Y-7.971 Z55.03 E1019.19743
G1 X-15.705 Y-9.023 Z55.038 E1019.64462
G1 X-14.486 Y-9.715 Z55.05 E1020.23956
G1 X-8.632 Y-14.852 Z55.115 E1023.54514
G1 X-.847 Y-18.773 Z55.188 E1027.24474
G1 X0.291 Y-19.698 Z55.2 E1027.86717
G1 X11.962 Y-16.649 Z55.3 E1032.98692
G1 X18.089 Y-10.905 Z55.37 E1036.55145
G1 X17.911 Y-10.157 Z55.377 E1036.87778
G1 X18.11 Y-3.074 Z55.436 E1039.88519
G1 X15.577 Y7.97 Z55.53 E1044.69428
G1 X15.638 Y9.027 Z55.539 E1045.14365
G1 X14.456 Y9.653 Z55.55 E1045.71134
G1 X8.588 Y14.802 Z55.615 E1049.02475
G1 X0.777 Y18.631 Z55.687 E1052.71685
G1 X-.377 Y19.596 Z55.7 E1053.35532
;TIME_ELAPSED:347.439346
;LAYER:55
;note -- min layer time used
;TYPE:WALL-OUTER
;MESH:djinn4.stl
G1 F1429.8 X-12.556 Y16.127 Z55.806 E1058.73003
G1 X-18.112 Y10.918 Z55.87 E1061.96246
G1 X-17.932 Y10.163 Z55.877 E1062.29188
G1 X-18.11 Y3.751 Z55.931 E1065.01437
G1 X-15.508 Y-7.969 Z56.031 E1070.10978
G1 X-15.563 Y-8.94 Z56.039 E1070.52256
G1 X-14.432 Y-9.587 Z56.05 E1071.07558
G1 X-9.09 Y-14.273 Z56.11 E1074.09158
G1 X-.856 Y-18.415 Z56.187 E1078.00357
G1 X0.291 Y-19.347 Z56.2 E1078.63084
G1 X12.573 Y-16.144 Z56.306 E1084.01802
G1 X18.134 Y-10.931 Z56.37 E1087.25315
G1 X17.95 Y-10.159 Z56.377 E1087.58999
G1 X18.13 Y-3.752 Z56.431 E1090.31038
G1 X15.44 Y7.969 Z56.532 E1095.41443
G1 X15.495 Y8.945 Z56.54 E1095.82933
G1 X14.4 Y9.526 Z56.55 E1096.35544
G1 X9.046 Y14.224 Z56.61 E1099.37863
G1 X0.786 Y18.273 Z56.687 E1103.28295
G1 X-.377 Y19.245 Z56.7 E1103.92626
;TIME_ELAPSED:352.445762
;LAYER:56
;note -- min layer time used
;TYPE:WALL-OUTER
;MESH:djinn4.stl
G1 F1418.9 X-13.166 Y15.622 Z56.812 E1109.56788
G1 X-18.157 Y10.943 Z56.87 E1112.47151
G1 X-17.971 Y10.166 Z56.877 E1112.81061
G1 X-18.131 Y4.431 Z56.926 E1115.24565
G1 X-15.371 Y-7.969 Z57.033 E1120.63736
G1 X-15.421 Y-8.859 Z57.041 E1121.0157
G1 X-14.371 Y-9.463 Z57.051 E1121.52982
G1 X-9.547 Y-13.695 Z57.105 E1124.25347
G1 X-.87 Y-18.054 Z57.187 E1128.37482
G1 X0.291 Y-18.997 Z57.2 E1129.00965
G1 X13.183 Y-15.639 Z57.312 E1134.66395
G1 X18.178 Y-10.956 Z57.37 E1137.56998
G1 X17.989 Y-10.162 Z57.377 E1137.91639
G1 X18.15 Y-4.432 Z57.426 E1140.34933
G1 X15.303 Y7.968 Z57.533 E1145.74917
G1 X15.353 Y8.863 Z57.541 E1146.12963
G1 X14.339 Y9.402 Z57.551 E1146.61703
G1 X9.503 Y13.645 Z57.605 E1149.34759
G1 X0.8 Y17.911 Z57.687 E1153.46128
G1 X-.377 Y18.895 Z57.7 E1154.11241
;TIME_ELAPSED:357.452063
;LAYER:57
;note -- min layer time used
;TYPE:WALL-OUTER
;MESH:djinn4.stl
G1 F1408.1 X-13.775 Y15.118 Z57.819 E1160.02055
G1 X-18.201 Y10.969 Z57.87 E1162.59538
G1 X-18.01 Y10.169 Z57.877 E1162.94447
G1 X-18.151 Y5.111 Z57.92 E1165.09206
G1 X-15.234 Y-7.967 Z58.035 E1170.77914
G1 X-15.279 Y-8.777 Z58.042 E1171.12346
G1 X-14.312 Y-9.338 Z58.051 E1171.59794
G1 X-10.005 Y-13.117 Z58.1 E1174.02985
G1 X-.879 Y-17.694 Z58.187 E1178.36303
G1 X0.291 Y-18.646 Z58.2 E1179.00323
G1 X13.792 Y-15.136 Z58.319 E1184.92393
G1 X18.223 Y-10.982 Z58.37 E1187.50177
G1 X18.028 Y-10.165 Z58.378 E1187.85827
G1 X18.171 Y-5.112 Z58.421 E1190.00377
G1 X15.165 Y7.965 Z58.535 E1195.69877
G1 X15.211 Y8.781 Z58.542 E1196.04565
G1 X14.28 Y9.277 Z58.551 E1196.49337
G1 X9.961 Y13.068 Z58.6 E1198.93247
G1 X0.809 Y17.552 Z58.687 E1203.25801
G1 X-.377 Y18.544 Z58.7 E1203.91425
;TIME_ELAPSED:362.458794
;LAYER:58
;note -- min layer time used
;TYPE:WALL-OUTER
;MESH:djinn4.stl
G1 F1397.2 X-14.385 Y14.613 Z58.825 E1210.08931
G1 X-18.246 Y10.995 Z58.87 E1212.33507
G1 X-18.05 Y10.175 Z58.878 E1212.69291
G1 X-18.171 Y5.79 Z58.915 E1214.55473
G1 X-15.096 Y-7.965 Z59.036 E1220.53685
G1 X-15.137 Y-8.694 Z59.043 E1220.84675
G1 X-14.253 Y-9.213 Z59.051 E1221.28183
G1 X-10.462 Y-12.539 Z59.095 E1223.42232
G1 X-.89 Y-17.335 Z59.187 E1227.96638
G1 X0.291 Y-18.296 Z59.2 E1228.61261
G1 X14.402 Y-14.631 Z59.325 E1234.80043
G1 X18.267 Y-11.008 Z59.371 E1237.04888
G1 X18.068 Y-10.171 Z59.378 E1237.41403
G1 X18.191 Y-5.791 Z59.416 E1239.27376
G1 X15.027 Y7.965 Z59.537 E1245.26465
G1 X15.068 Y8.699 Z59.543 E1245.57667
G1 X14.222 Y9.151 Z59.551 E1245.98377
G1 X10.418 Y12.489 Z59.595 E1248.13176
G1 X0.82 Y17.193 Z59.687 E1252.66837
G1 X-.377 Y18.194 Z59.7 E1253.33064
;TIME_ELAPSED:367.465411
;LAYER:59
;note -- min layer time used
;TYPE:WALL-OUTER
;MESH:djinn4.stl
G1 F1386.3 X-14.994 Y14.11 Z59.831 E1259.77213
G1 X-18.29 Y11.02 Z59.87 E1261.68967
G1 X-18.088 Y10.174 Z59.878 E1262.05883
G1 X-18.19 Y6.469 Z59.91 E1263.63193
G1 X-14.959 Y-7.965 Z60.038 E1269.90975
G1 X-14.994 Y-8.613 Z60.044 E1270.18518
G1 X-14.195 Y-9.087 Z60.052 E1270.57949
G1 X-10.92 Y-11.96 Z60.09 E1272.42855
G1 X-.902 Y-16.975 Z60.186 E1277.18348
G1 X0.291 Y-17.946 Z60.2 E1277.83635
G1 X15.011 Y-14.127 Z60.331 E1284.29078
G1 X18.312 Y-11.033 Z60.371 E1286.21104
G1 X18.106 Y-10.17 Z60.378 E1286.58761
G1 X18.21 Y-6.47 Z60.41 E1288.15861
G1 X14.89 Y7.964 Z60.539 E1294.44479
G1 X14.926 Y8.617 Z60.544 E1294.72237
G1 X14.163 Y9.026 Z60.552 E1295.0898
G1 X10.876 Y11.911 Z60.59 E1296.94604
G1 X0.832 Y16.833 Z60.686 E1301.69335
G1 X-.377 Y17.844 Z60.7 E1302.36226
;TIME_ELAPSED:372.471375
;LAYER:60
;note -- min layer time used
;TYPE:WALL-OUTER
;MESH:djinn4.stl
G1 F1375.4 X-15.605 Y13.605 Z60.838 E1309.07121
G1 X-18.335 Y11.046 Z60.871 E1310.65936
G1 X-18.128 Y10.18 Z60.878 E1311.03727
G1 X-18.21 Y7.149 Z60.905 E1312.32418
G1 X-14.821 Y-7.964 Z61.04 E1318.89788
G1 X-14.852 Y-8.531 Z61.045 E1319.13889
G1 X-14.137 Y-8.961 Z61.052 E1319.49301
G1 X-11.377 Y-11.382 Z61.084 E1321.05124
G1 X-.914 Y-16.615 Z61.186 E1326.0165
G1 X0.291 Y-17.595 Z61.2 E1326.67572
G1 X15.622 Y-13.622 Z61.338 E1333.39759
G1 X18.357 Y-11.059 Z61.371 E1334.98845
G1 X18.146 Y-10.176 Z61.379 E1335.37377
G1 X18.23 Y-7.15 Z61.405 E1336.65859
G1 X14.752 Y7.964 Z61.54 E1343.24107
G1 X14.784 Y8.535 Z61.545 E1343.4838
G1 X14.105 Y8.9 Z61.552 E1343.81098
G1 X11.333 Y11.332 Z61.584 E1345.37612
G1 X0.844 Y16.472 Z61.686 E1350.33375
G1 X-.377 Y17.493 Z61.7 E1351.00929
;TIME_ELAPSED:377.477776
;LAYER:61
;note -- min layer time used
;TYPE:WALL-OUTER
;MESH:djinn4.stl
G1 F1364.5 X-16.214 Y13.101 Z61.845 E1357.98467
G1 X-18.379 Y11.072 Z61.871 E1359.24403
G1 X-18.167 Y10.183 Z61.879 E1359.63192
G1 X-18.23 Y7.83 Z61.899 E1360.63096
G1 X-14.683 Y-7.964 Z62.042 E1367.50137
G1 X-14.71 Y-8.449 Z62.046 E1367.70754
G1 X-14.079 Y-8.835 Z62.052 E1368.02149
G1 X-11.835 Y-10.804 Z62.079 E1369.28857
G1 X-.926 Y-16.254 Z62.186 E1374.46433
G1 X0.291 Y-17.245 Z62.2 E1375.13045
G1 X16.231 Y-13.119 Z62.345 E1382.11883
G1 X18.401 Y-11.085 Z62.371 E1383.38118
G1 X18.185 Y-10.179 Z62.379 E1383.77649
G1 X18.251 Y-7.831 Z62.4 E1384.77345
G1 X14.614 Y7.964 Z62.542 E1391.65274
G1 X14.642 Y8.453 Z62.546 E1391.86062
G1 X14.047 Y8.774 Z62.552 E1392.14757
G1 X11.791 Y10.755 Z62.579 E1393.42184
G1 X0.856 Y16.112 Z62.686 E1398.58999
G1 X-.377 Y17.143 Z62.7 E1399.27215
;TIME_ELAPSED:382.484073
;LAYER:62
;note -- min layer time used
;TYPE:WALL-OUTER
;MESH:djinn4.stl
G1 F1353.6 X-16.824 Y12.596 Z62.851 E1406.51461
G1 X-18.424 Y11.097 Z62.871 E1407.44517
G1 X-18.206 Y10.186 Z62.879 E1407.84274
G1 X-18.251 Y8.508 Z62.894 E1408.55519
G1 X-14.545 Y-7.964 Z63.044 E1415.72116
G92 E0
G1 X-14.567 Y-8.366 Z63.047 E0.17087
G1 X-14.021 Y-8.71 Z63.053 E0.44477
G1 X-12.292 Y-10.226 Z63.073 E1.42075
G1 X-.936 Y-15.896 Z63.186 E6.80796
G1 X0.291 Y-16.894 Z63.2 E7.47925
G1 X16.841 Y-12.614 Z63.351 E14.73465
G1 X18.446 Y-11.11 Z63.371 E15.66821
G1 X18.224 Y-10.182 Z63.379 E16.07319
G1 X18.271 Y-8.509 Z63.394 E16.78354
G1 X14.476 Y7.964 Z63.544 E23.95831
G1 X14.499 Y8.371 Z63.548 E24.13133
G1 X13.989 Y8.648 Z63.553 E24.37766
G1 X12.248 Y10.177 Z63.573 E25.3611
G1 X0.866 Y15.754 Z63.686 E30.74071
G1 X-.377 Y16.792 Z63.7 E31.42803
;TIME_ELAPSED:387.497527
;LAYER:63
;note -- min layer time used
;TYPE:WALL-OUTER
;MESH:djinn4.stl
G1 F1342.7 X-17.433 Y12.093 Z63.858 E38.93682
G1 X-18.468 Y11.122 Z63.871 E39.53916
G1 X-18.245 Y10.188 Z63.879 E39.94672
G1 X-18.271 Y9.188 Z63.888 E40.37129
G1 X-14.408 Y-7.962 Z64.045 E47.83264
G1 X-14.425 Y-8.284 Z64.048 E47.9695
G1 X-13.962 Y-8.584 Z64.053 E48.20365
G1 X-12.75 Y-9.648 Z64.068 E48.88817
G1 X-.948 Y-15.537 Z64.186 E54.48626
G1 X0.291 Y-16.544 Z64.2 E55.16391
G1 X17.45 Y-12.11 Z64.358 E62.68593
G1 X18.49 Y-11.135 Z64.371 E63.29098
G1 X18.263 Y-10.184 Z64.38 E63.70595
G1 X18.291 Y-9.189 Z64.389 E64.12843
G1 X14.339 Y7.96 Z64.546 E71.59775
G1 X14.357 Y8.288 Z64.549 E71.73718
G1 X13.93 Y8.523 Z64.553 E71.94404
G1 X12.706 Y9.598 Z64.568 E72.63546
G1 X0.877 Y15.394 Z64.685 E78.22633
G1 X-.377 Y16.442 Z64.7 E78.91996
;TIME_ELAPSED:392.503063
;LAYER:64
;note -- min layer time used
;TYPE:WALL-OUTER
;MESH:djinn4.stl
G1 F1331.8 X-18.044 Y11.588 Z64.865 E86.69624
G1 X-18.513 Y11.148 Z64.871 E86.96919
G1 X-18.285 Y10.192 Z64.88 E87.38633
G1 X-18.29 Y9.865 Z64.883 E87.52513
G1 X-14.27 Y-7.959 Z65.047 E95.2802
G1 X-14.283 Y-8.203 Z65.05 E95.38391
G1 X-13.904 Y-8.459 Z65.054 E95.57803
G1 X-13.207 Y-9.069 Z65.062 E95.97115
G1 X-3.759 Y-13.811 Z65.157 E100.4579
G1 X-.741 Y-15.332 Z65.188 E101.89232
G1 X0.291 Y-16.194 Z65.2 E102.46302
G1 X18.061 Y-11.605 Z65.365 E110.25258
G1 X18.535 Y-11.161 Z65.371 E110.52824
G1 X18.303 Y-10.188 Z65.38 E110.95279
G1 X18.31 Y-9.866 Z65.383 E111.08949
G1 X14.202 Y7.959 Z65.548 E118.85327
G1 X14.215 Y8.207 Z65.55 E118.95867
G1 X13.872 Y8.398 Z65.554 E119.12531
G1 X13.163 Y9.02 Z65.562 E119.52561
G1 X3.689 Y13.668 Z65.657 E124.00452
G1 X0.654 Y15.229 Z65.688 E125.45306
G1 X-.377 Y16.092 Z65.7 E126.02372
;TIME_ELAPSED:397.508493
;LAYER:65
;note -- min layer time used
;TYPE:WALL-OUTER
;MESH:djinn4.stl
G1 F1320.2 X-18.55 Y11.145 Z65.871 E134.01757
G1 X-14.881 Y-4.758 Z66.02 E140.9446
G1 X-14.133 Y-7.957 Z66.049 E142.33898
G1 X-14.142 Y-8.121 Z66.051 E142.40869
G1 X-13.847 Y-8.333 Z66.054 E142.56287
G1 X-13.665 Y-8.492 Z66.056 E142.66545
G1 X-11.065 Y-9.895 Z66.083 E143.91938
G1 X-.135 Y-15.487 Z66.195 E149.1303
G1 X0.291 Y-15.843 Z66.2 E149.36593
G1 X18.568 Y-11.141 Z66.371 E157.37584
G1 X14.815 Y4.743 Z66.52 E164.30313
G1 X14.065 Y7.955 Z66.55 E165.70307
G1 X14.074 Y8.125 Z66.551 E165.77532
G1 X13.815 Y8.272 Z66.554 E165.90172
G1 X13.621 Y8.442 Z66.556 E166.0112
G1 X10.995 Y9.752 Z66.583 E167.25674
G1 X0.049 Y15.385 Z66.695 E172.48165
G1 X-.377 Y15.741 Z66.7 E172.71728
;TIME_ELAPSED:402.515045
;LAYER:66
;note -- min layer time used
;TYPE:WALL-OUTER
;MESH:djinn4.stl
G1 F1302.9 X-18.507 Y10.805 Z66.873 E180.69231
G1 X-14.049 Y-7.967 Z67.051 E188.88132
G1 X0.236 Y-15.488 Z67.199 E195.73331
G1 X18.525 Y-10.801 Z67.373 E203.74658
G1 X14.056 Y7.967 Z67.551 E211.93502
G1 X-.302 Y15.41 Z67.7 E218.79915
;TIME_ELAPSED:407.521342
;LAYER:67
;note -- min layer time used
;TYPE:WALL-OUTER
;MESH:djinn4.stl
G1 F1289.6 X-18.473 Y10.51 Z67.875 E226.78698
G1 X-14.103 Y-7.818 Z68.05 E234.78402
G1 X0.03 Y-15.213 Z68.199 E241.55404
G1 X18.486 Y-10.506 Z68.376 E249.6381
G1 X14.117 Y7.822 Z68.551 E257.63504
G1 X-0.054 Y15.168 Z68.7 E264.40976
;TIME_ELAPSED:412.527533
;LAYER:68
;note -- min layer time used
;TYPE:WALL-OUTER
;MESH:djinn4.stl
G1 F1280.4 X-18.438 Y10.254 Z68.878 E272.48645
G1 X-14.149 Y-7.728 Z69.052 E280.33268
G1 X-.21 Y-14.995 Z69.199 E287.00456
G1 X18.445 Y-10.252 Z69.379 E295.17424
G1 X14.157 Y7.73 Z69.553 E303.02037
G1 X0.195 Y14.967 Z69.7 E309.69505
;TIME_ELAPSED:417.533649
;LAYER:69
;note -- min layer time used
;TYPE:WALL-OUTER
;MESH:djinn4.stl
G1 F1276.5 X-0.07 Y14.899 Z69.703 E309.81117
G1 X-10.576 Y12.215 Z69.805 E314.41346
G1 X-17.74 Y10.403 Z69.874 E317.54985
G1 X-17.914 Y10.34 Z69.876 E317.62839
G1 X-18.394 Y10.001 Z69.881 E317.8778
G1 X-14.164 Y-7.738 Z70.053 E325.6179
G1 X-13.664 Y-7.961 Z70.058 E325.85026
G1 X-.25 Y-14.901 Z70.2 E332.26044
G1 X0.039 Y-14.776 Z70.203 E332.39408
G1 X10.545 Y-12.09 Z70.305 E336.99659
G1 X17.721 Y-10.328 Z70.374 E340.13278
G1 X17.883 Y-10.216 Z70.376 E340.21637
G1 X18.402 Y-9.999 Z70.381 E340.45513
G1 X14.17 Y7.747 Z70.553 E348.19831
G1 X13.649 Y7.932 Z70.558 E348.43297
G1 X0.235 Y14.873 Z70.7 E354.84334
;TIME_ELAPSED:422.539666
;LAYER:70
;note -- min layer time used
;TYPE:WALL-OUTER
;MESH:djinn4.stl
G1 F1269.4 X-.288 Y14.581 Z70.706 E355.09757
G1 X-17.121 Y10.407 Z70.87 E362.4584
G1 X-17.601 Y10.241 Z70.874 E362.67397
G1 X-18.304 Y9.763 Z70.882 E363.03478
G1 X-18.266 Y9.39 Z70.886 E363.19392
G1 X-14.177 Y-7.753 Z71.053 E370.67408
G1 X-13.201 Y-8.127 Z71.062 E371.11769
G1 X-.217 Y-14.82 Z71.201 E377.31761
G1 X0.262 Y-14.476 Z71.206 E377.5679
G1 X17.113 Y-10.373 Z71.37 E384.92897
G1 X17.56 Y-10.067 Z71.375 E385.15888
G1 X18.179 Y-9.792 Z71.382 E385.44637
G1 X18.273 Y-9.388 Z71.386 E385.62242
G1 X14.184 Y7.758 Z71.552 E393.10381
G1 X13.186 Y8.099 Z71.562 E393.55144
G1 X0.235 Y14.8 Z71.7 E399.74047
;TIME_ELAPSED:427.545198
;LAYER:71
;note -- min layer time used
;TYPE:WALL-OUTER
;MESH:djinn4.stl
G1 F1260.5 X-.249 Y14.37 Z71.706 E400.01526
G1 X-16.522 Y10.477 Z71.865 E407.11694
G1 X-17.405 Y9.989 Z71.875 E407.54514
G1 X-17.832 Y9.831 Z71.879 E407.73838
G1 X-18.132 Y8.763 Z71.89 E408.20922
G1 X-14.191 Y-7.762 Z72.052 E415.41966
G1 X-13.137 Y-8.116 Z72.062 E415.89157
G1 X-10.247 Y-9.583 Z72.093 E417.26716
G1 X-.218 Y-14.747 Z72.201 E422.05494
G1 X0.241 Y-14.335 Z72.206 E422.31672
G1 X16.514 Y-10.442 Z72.366 E429.4184
G1 X17.284 Y-9.859 Z72.375 E429.82832
G1 X17.801 Y-9.707 Z72.38 E430.05704
G1 X18.14 Y-8.761 Z72.39 E430.48356
G1 X14.199 Y7.767 Z72.551 E437.69524
G1 X13.138 Y8.118 Z72.562 E438.16957
G1 X10.232 Y9.554 Z72.593 E439.54534
G1 X0.236 Y14.726 Z72.7 E444.32222
;TIME_ELAPSED:432.550217
;LAYER:72
;note -- min layer time used
;TYPE:WALL-OUTER
;MESH:djinn4.stl
G1 F1250.4 X-.249 Y14.297 Z72.706 E444.59704
G1 X-15.924 Y10.547 Z72.861 E451.43777
G1 X-17.076 Y9.808 Z72.874 E452.01867
G1 X-17.515 Y9.648 Z72.879 E452.21699
G1 X-18 Y8.136 Z72.894 E452.89093
G1 X-14.206 Y-7.771 Z73.051 E459.83177
G1 X-13.086 Y-8.147 Z73.062 E460.3332
G1 X-7.357 Y-11.005 Z73.123 E463.05055
G1 X-.218 Y-14.673 Z73.2 E466.45712
G1 X0.241 Y-14.262 Z73.206 E466.71863
G1 X15.916 Y-10.513 Z73.361 E473.55925
G1 X16.955 Y-9.677 Z73.374 E474.12526
G1 X17.483 Y-9.524 Z73.379 E474.35858
G1 X18.007 Y-8.134 Z73.393 E474.98907
G1 X14.214 Y7.776 Z73.55 E481.93104
G1 X13.087 Y8.149 Z73.562 E482.4349
G1 X7.342 Y10.976 Z73.623 E485.15249
G1 X0.236 Y14.653 Z73.7 E488.54837
;TIME_ELAPSED:437.555181
;LAYER:73
;note -- min layer time used
;TYPE:WALL-OUTER
;MESH:djinn4.stl
G1 F1240.4 X-.247 Y14.224 Z73.706 E488.82255
G1 X-15.325 Y10.618 Z73.856 E495.40262
G1 X-16.747 Y9.628 Z73.873 E496.13803
G1 X-17.196 Y9.465 Z73.878 E496.34077
G1 X-17.867 Y7.508 Z73.898 E497.21886
G1 X-14.221 Y-7.78 Z74.05 E503.88957
G1 X-13.037 Y-8.177 Z74.062 E504.41959
G1 X-4.42 Y-12.452 Z74.155 E508.50228
G1 X-.219 Y-14.6 Z74.2 E510.50488
G1 X0.239 Y-14.189 Z74.206 E510.76606
G1 X15.317 Y-10.584 Z74.356 E517.34604
G1 X16.627 Y-9.497 Z74.373 E518.06853
G1 X17.165 Y-9.341 Z74.378 E518.30628
G1 X17.874 Y-7.506 Z74.397 E519.14123
G1 X14.229 Y7.785 Z74.549 E525.81308
G1 X13.038 Y8.179 Z74.562 E526.34552
G1 X4.405 Y12.424 Z74.655 E530.42866
G1 X0.237 Y14.58 Z74.7 E532.42036
;TIME_ELAPSED:442.560094
;LAYER:74
;note -- min layer time used
;TYPE:WALL-OUTER
;MESH:djinn4.stl
G1 F1230.5 X-.248 Y14.151 Z74.706 E532.69518
G1 X-14.729 Y10.688 Z74.852 E539.01471
G1 X-16.422 Y9.446 Z74.872 E539.9059
G1 X-16.878 Y9.282 Z74.877 E540.11158
G1 X-17.734 Y6.881 Z74.902 E541.19347
G1 X-14.236 Y-7.789 Z75.049 E547.59446
G1 X-12.985 Y-8.207 Z75.062 E548.15429
G1 X-2.87 Y-13.198 Z75.172 E552.94161
G1 X-2.69 Y-13.274 Z75.173 E553.02454
G1 X-.219 Y-14.527 Z75.2 E554.20044
G1 X0.24 Y-14.116 Z75.206 E554.46194
G1 X14.721 Y-10.653 Z75.352 E560.78147
G1 X16.301 Y-9.316 Z75.372 E561.65995
G1 X16.847 Y-9.157 Z75.377 E561.90132
G1 X17.742 Y-6.879 Z75.401 E562.94012
G1 X14.244 Y7.793 Z75.548 E569.34194
G1 X12.986 Y8.209 Z75.561 E569.90432
G1 X2.862 Y13.184 Z75.671 E574.69207
G1 X2.675 Y13.246 Z75.673 E574.77569
G1 X0.236 Y14.507 Z75.7 E575.94105
;TIME_ELAPSED:447.564954
;LAYER:75
;note -- min layer time used
;TYPE:WALL-OUTER
;MESH:djinn4.stl
G1 F1220.6 X-.246 Y14.079 Z75.706 E576.21464
G1 X-14.129 Y10.759 Z75.847 E582.2732
G1 X-16.094 Y9.266 Z75.871 E583.32064
G1 X-16.56 Y9.098 Z75.876 E583.53089
G1 X-17.601 Y6.254 Z75.906 E584.8163
G1 X-14.251 Y-7.797 Z76.048 E590.94717
G1 X-12.935 Y-8.237 Z76.061 E591.53612
G1 X-3.325 Y-12.958 Z76.167 E596.08053
G1 X-2.684 Y-13.206 Z76.173 E596.37225
G1 X-.218 Y-14.454 Z76.2 E597.5453
G1 X0.238 Y-14.045 Z76.206 E597.80529
G1 X14.121 Y-10.724 Z76.347 E603.86395
G1 X15.973 Y-9.135 Z76.371 E604.89967
G1 X16.529 Y-8.973 Z76.376 E605.14547
G1 X17.609 Y-6.252 Z76.405 E606.388
G1 X14.259 Y7.801 Z76.547 E612.5197
G1 X12.936 Y8.239 Z76.561 E613.1112
G1 X3.326 Y12.961 Z76.666 E617.6558
G1 X2.673 Y13.173 Z76.673 E617.94719
G1 X0.236 Y14.434 Z76.7 E619.1118
;TIME_ELAPSED:452.569767
;LAYER:76
;note -- min layer time used
;TYPE:WALL-OUTER
;MESH:djinn4.stl
G1 F1210.7 X-.246 Y14.008 Z76.706 E619.38483
G1 X-13.53 Y10.829 Z76.842 E625.18221
G1 X-15.766 Y9.085 Z76.87 E626.38578
G1 X-16.242 Y8.914 Z76.875 E626.60046
G1 X-17.469 Y5.627 Z76.91 E628.0896
G1 X-14.266 Y-7.805 Z77.047 E633.95045
G1 X-12.883 Y-8.268 Z77.061 E634.56946
G1 X-3.788 Y-12.736 Z77.161 E638.87034
G1 X-2.684 Y-13.133 Z77.173 E639.36829
G1 X-.218 Y-14.381 Z77.2 E640.54135
G1 X0.238 Y-13.973 Z77.206 E640.80105
G1 X13.522 Y-10.795 Z77.342 E646.59834
G1 X15.645 Y-8.954 Z77.37 E647.79102
G1 X16.211 Y-8.79 Z77.376 E648.04113
G1 X17.477 Y-5.625 Z77.409 E649.48794
G1 X14.274 Y7.81 Z77.546 E655.35003
G1 X12.884 Y8.27 Z77.561 E655.97146
G1 X3.789 Y12.739 Z77.661 E660.27253
G1 X2.674 Y13.101 Z77.673 E660.77009
G1 X0.236 Y14.361 Z77.7 E661.93488
;TIME_ELAPSED:457.574533
;LAYER:77
;note -- min layer time used
;TYPE:WALL-OUTER
;MESH:djinn4.stl
G1 F1200.9 X-.246 Y13.935 Z77.706 E662.20791
G1 X-12.931 Y10.901 Z77.837 E667.74372
G1 X-15.437 Y8.905 Z77.869 E669.1035
G1 X-15.924 Y8.731 Z77.874 E669.323
G1 X-17.336 Y4.999 Z77.914 E671.01657
G1 X-14.281 Y-7.814 Z78.045 E676.60729
G1 X-12.832 Y-8.299 Z78.061 E677.25583
G1 X-4.25 Y-12.515 Z78.156 E681.31413
G1 X-2.687 Y-13.06 Z78.173 E682.01669
G1 X-.218 Y-14.308 Z78.2 E683.19088
G1 X0.238 Y-13.9 Z78.207 E683.45059
G1 X12.923 Y-10.866 Z78.337 E688.9864
G1 X15.316 Y-8.774 Z78.369 E690.33547
G1 X15.893 Y-8.607 Z78.375 E690.59042
G1 X17.344 Y-4.997 Z78.413 E692.24176
G1 X14.289 Y7.819 Z78.545 E697.83372
G1 X12.833 Y8.301 Z78.56 E698.48468
G1 X4.251 Y12.517 Z78.656 E702.54298
G1 X2.676 Y13.027 Z78.673 E703.24564
G1 X0.236 Y14.288 Z78.7 E704.41138
;TIME_ELAPSED:462.579253
;LAYER:78
;note -- min layer time used
;TYPE:WALL-OUTER
;MESH:djinn4.stl
G1 F1191.1 X-.244 Y13.862 Z78.706 E704.68377
G1 X-12.333 Y10.971 Z78.832 E709.95944
G1 X-15.11 Y8.722 Z78.868 E711.47615
G1 X-15.606 Y8.548 Z78.873 E711.69925
G1 X-17.203 Y4.372 Z78.918 E713.59687
G1 X-14.296 Y-7.823 Z79.044 E718.91788
G1 X-12.782 Y-8.329 Z79.06 E719.59541
G1 X-4.713 Y-12.293 Z79.151 E723.41113
G1 X-2.681 Y-12.989 Z79.173 E724.32277
G1 X-.218 Y-14.235 Z79.2 E725.4943
G1 X0.236 Y-13.827 Z79.207 E725.75338
G1 X12.325 Y-10.936 Z79.332 E731.02905
G1 X14.989 Y-8.592 Z79.368 E732.53512
G1 X15.575 Y-8.423 Z79.374 E732.79397
G1 X17.211 Y-4.37 Z79.418 E734.64906
G1 X14.304 Y7.827 Z79.544 E739.9709
G1 X12.783 Y8.331 Z79.56 E740.65098
G1 X4.714 Y12.296 Z79.651 E744.46688
G1 X2.67 Y12.957 Z79.672 E745.37866
G1 X0.236 Y14.215 Z79.7 E746.54156
;TIME_ELAPSED:467.583930
;LAYER:79
;note -- min layer time used
;TYPE:WALL-OUTER
;MESH:djinn4.stl
G1 F1181.3 X-.244 Y13.79 Z79.707 E746.81367
G1 X-11.734 Y11.041 Z79.827 E751.82807
G1 X-14.782 Y8.543 Z79.867 E753.5007
G1 X-15.288 Y8.364 Z79.872 E753.72851
G1 X-17.071 Y3.745 Z79.922 E755.82996
G1 X-14.311 Y-7.831 Z80.043 E760.88094
G1 X-12.732 Y-8.359 Z80.06 E761.5876
G1 X-5.175 Y-12.072 Z80.146 E765.1613
G1 X-2.681 Y-12.917 Z80.172 E766.27895
G1 X-.218 Y-14.162 Z80.2 E767.4503
G1 X0.236 Y-13.755 Z80.207 E767.70909
G1 X11.726 Y-11.006 Z80.327 E772.72348
G1 X14.661 Y-8.412 Z80.366 E774.386
G1 X15.257 Y-8.24 Z80.373 E774.64929
G1 X17.079 Y-3.743 Z80.422 E776.70868
G1 X14.319 Y7.836 Z80.543 E781.7609
G1 X12.733 Y8.361 Z80.56 E782.46998
G1 X5.176 Y12.074 Z80.645 E786.04367
G1 X2.67 Y12.884 Z80.672 E787.16149
G1 X0.236 Y14.142 Z80.7 E788.32439
;TIME_ELAPSED:472.589097
;LAYER:80
;note -- min layer time used
;TYPE:WALL-OUTER
;MESH:djinn4.stl
G1 F1171.5 X-.244 Y13.717 Z80.707 E788.5965
G1 X-11.136 Y11.111 Z80.821 E793.34993
G1 X-14.455 Y8.361 Z80.865 E795.17935
G1 X-14.97 Y8.181 Z80.871 E795.4109
G1 X-16.938 Y3.118 Z80.927 E797.71645
G1 X-14.326 Y-7.84 Z81.042 E802.49772
G1 X-12.683 Y-8.389 Z81.06 E803.23297
G1 X-5.637 Y-11.85 Z81.14 E806.56484
G1 X-2.68 Y-12.844 Z81.172 E807.88891
G1 X-.219 Y-14.089 Z81.2 E809.0595
G1 X0.236 Y-13.682 Z81.207 E809.31861
G1 X11.128 Y-11.076 Z81.321 E814.07203
G1 X14.335 Y-8.23 Z81.365 E815.8919
G1 X14.939 Y-8.057 Z81.372 E816.15857
G1 X16.946 Y-3.116 Z81.426 E818.4221
G1 X14.334 Y7.845 Z81.542 E823.20461
G1 X12.684 Y8.391 Z81.56 E823.94228
G1 X5.638 Y11.853 Z81.64 E827.27434
G1 X2.669 Y12.812 Z81.672 E828.59859
G1 X0.237 Y14.069 Z81.7 E829.76054
;TIME_ELAPSED:477.594219
;LAYER:81
;note -- min layer time used
;TYPE:WALL-OUTER
;MESH:djinn4.stl
G1 F1161.7 X-.243 Y13.644 Z81.707 E830.03266
G1 X-10.537 Y11.181 Z81.816 E834.52512
G1 X-14.126 Y8.182 Z81.864 E836.51023
G1 X-14.652 Y7.997 Z81.87 E836.74689
G1 X-16.806 Y2.491 Z81.931 E839.2563
G1 X-14.341 Y-7.849 Z82.041 E843.76795
G1 X-12.632 Y-8.419 Z82.06 E844.5326
G1 X-6.099 Y-11.629 Z82.135 E847.62207
G1 X-2.678 Y-12.772 Z82.172 E849.15297
G1 X-.219 Y-14.016 Z82.2 E850.32261
G1 X0.235 Y-13.61 Z82.207 E850.58112
G1 X10.529 Y-11.147 Z82.316 E855.07358
G1 X14.005 Y-8.051 Z82.364 E857.04927
G1 X14.621 Y-7.874 Z82.371 E857.32131
G1 X16.814 Y-2.489 Z82.431 E859.78916
G1 X14.348 Y7.853 Z82.541 E864.30173
G1 X12.633 Y8.421 Z82.559 E865.06852
G1 X6.1 Y11.631 Z82.634 E868.158
G1 X2.667 Y12.74 Z82.672 E869.68923
G1 X0.236 Y13.996 Z82.7 E870.85061
;TIME_ELAPSED:482.599298
;LAYER:82
;note -- min layer time used
;TYPE:WALL-OUTER
;MESH:djinn4.stl
G1 F1151.9 X-.243 Y13.573 Z82.707 E871.12184
G1 X-9.939 Y11.252 Z82.811 E875.35344
G1 X-13.799 Y8 Z82.863 E877.49569
G1 X-14.334 Y7.815 Z82.869 E877.73596
G1 X-16.674 Y1.864 Z82.936 E880.45003
G1 X-14.355 Y-7.857 Z83.04 E884.69175
G1 X-12.584 Y-8.448 Z83.059 E885.48417
G1 X-6.561 Y-11.407 Z83.129 E888.3324
G1 X-2.677 Y-12.7 Z83.172 E890.06986
G1 X-.218 Y-13.943 Z83.2 E891.23931
G1 X0.235 Y-13.538 Z83.207 E891.49722
G1 X9.931 Y-11.217 Z83.311 E895.72882
G1 X13.678 Y-7.87 Z83.363 E897.86126
G1 X14.303 Y-7.69 Z83.37 E898.13732
G1 X16.682 Y-1.862 Z83.435 E900.80908
G1 X14.363 Y7.861 Z83.539 E905.05163
G1 X12.585 Y8.45 Z83.559 E905.84661
G1 X6.562 Y11.41 Z83.629 E908.69502
G1 X2.666 Y12.667 Z83.672 E910.43256
G1 X0.236 Y13.923 Z83.7 E911.59356
;TIME_ELAPSED:487.604335
;LAYER:83
;note -- min layer time used
;TYPE:WALL-OUTER
;MESH:djinn4.stl
G1 F1142.1 X-.242 Y13.5 Z83.707 E911.86447
G1 X-9.34 Y11.322 Z83.805 E915.83511
G1 X-13.472 Y7.819 Z83.862 E918.1343
G1 X-14.016 Y7.631 Z83.868 E918.37859
G1 X-16.542 Y1.237 Z83.94 E921.29654
G1 X-14.37 Y-7.865 Z84.039 E925.26824
G1 X-12.532 Y-8.479 Z84.059 E926.09073
G1 X-7.024 Y-11.185 Z84.123 E928.69541
G1 X-2.676 Y-12.627 Z84.171 E930.63971
G1 X-.218 Y-13.87 Z84.2 E931.80878
G1 X0.234 Y-13.465 Z84.207 E932.06638
G1 X9.332 Y-11.288 Z84.305 E936.03691
G1 X13.351 Y-7.688 Z84.362 E938.327
G1 X13.986 Y-7.506 Z84.369 E938.60736
G1 X16.549 Y-1.235 Z84.44 E941.48273
G1 X14.378 Y7.87 Z84.538 E945.45556
G1 X12.533 Y8.481 Z84.559 E946.28047
G1 X7.025 Y11.188 Z84.623 E948.88534
G1 X2.665 Y12.595 Z84.671 E950.82986
G1 X0.236 Y13.85 Z84.7 E951.99029
;TIME_ELAPSED:492.609330
;LAYER:84
;note -- min layer time used
;TYPE:WALL-OUTER
;MESH:djinn4.stl
G1 F1132.4 X-.242 Y13.427 Z84.707 E952.26121
G1 X-8.743 Y11.393 Z84.799 E955.97119
G1 X-13.143 Y7.639 Z84.861 E958.42606
G1 X-13.699 Y7.447 Z84.867 E958.67572
G1 X-16.409 Y0.61 Z84.945 E961.79724
G1 X-14.385 Y-7.874 Z85.037 E965.49921
G1 X-12.481 Y-8.51 Z85.059 E966.35124
G1 X-7.486 Y-10.964 Z85.118 E968.71334
G1 X-2.673 Y-12.556 Z85.171 E970.865
G1 X-.219 Y-13.798 Z85.2 E972.03237
G1 X0.234 Y-13.392 Z85.207 E972.29057
G1 X8.735 Y-11.359 Z85.299 E976.00045
G1 X13.023 Y-7.509 Z85.361 E978.44638
G1 X13.668 Y-7.323 Z85.368 E978.7313
G1 X16.416 Y-.608 Z85.445 E981.81081
G1 X14.393 Y7.879 Z85.537 E985.51393
G1 X12.482 Y8.512 Z85.558 E986.36837
G1 X7.487 Y10.967 Z85.617 E988.73066
G1 X2.662 Y12.523 Z85.671 E990.88242
G1 X0.236 Y13.778 Z85.7 E992.04173
;TIME_ELAPSED:497.614284
;LAYER:85
;note -- min layer time used
;TYPE:WALL-OUTER
;MESH:djinn4.stl
G1 F1122.6 X-.242 Y13.354 Z85.707 E992.31292
G1 X-8.144 Y11.464 Z85.794 E995.76143
G1 X-12.817 Y7.457 Z85.859 E998.37414
G1 X-13.381 Y7.264 Z85.866 E998.62716
G1 X-16.276 Y-0.017 Z85.95 E1001.95281
G1 X-14.4 Y-7.883 Z86.036 E1005.38507
G1 X-12.433 Y-8.539 Z86.058 E1006.26514
G1 X-7.948 Y-10.742 Z86.112 E1008.38599
G1 X-2.675 Y-12.482 Z86.171 E1010.74275
G1 X-.218 Y-13.725 Z86.2 E1011.91145
G1 X0.234 Y-13.32 Z86.207 E1012.16904
G1 X8.136 Y-11.429 Z86.294 E1015.61764
G1 X12.696 Y-7.327 Z86.359 E1018.22094
G1 X13.35 Y-7.14 Z86.367 E1018.50965
G1 X16.284 Y0.02 Z86.449 E1021.79387
G1 X14.408 Y7.888 Z86.536 E1025.22696
G1 X12.434 Y8.541 Z86.558 E1026.10945
G1 X7.949 Y10.745 Z86.611 E1028.23048
G1 X2.664 Y12.45 Z86.671 E1030.58748
G1 X0.236 Y13.705 Z86.7 E1031.74753
;TIME_ELAPSED:502.619198
;LAYER:86
;note -- min layer time used
;TYPE:WALL-OUTER
;MESH:djinn4.stl
G1 F1112.8 X-.241 Y13.281 Z86.707 E1032.01841
G1 X-7.545 Y11.535 Z86.788 E1035.20585
G1 X-12.491 Y7.276 Z86.858 E1037.97616
G1 X-13.063 Y7.081 Z86.865 E1038.23266
G1 X-16.144 Y-.645 Z86.954 E1041.763
G1 X-14.415 Y-7.892 Z87.035 E1044.92523
G1 X-12.382 Y-8.57 Z87.058 E1045.83483
G1 X-8.41 Y-10.521 Z87.106 E1047.71309
G1 X-2.668 Y-12.412 Z87.171 E1050.27897
G1 X-.218 Y-13.652 Z87.2 E1051.44445
G1 X0.233 Y-13.247 Z87.207 E1051.70172
G1 X7.537 Y-11.5 Z87.288 E1054.88926
G1 X12.37 Y-7.145 Z87.358 E1057.65052
G1 X13.032 Y-6.956 Z87.366 E1057.94273
G1 X16.151 Y0.647 Z87.454 E1061.43071
G1 X14.423 Y7.897 Z87.535 E1064.59408
G1 X12.383 Y8.572 Z87.558 E1065.5061
G1 X8.411 Y10.524 Z87.605 E1067.38455
G1 X2.658 Y12.38 Z87.671 E1069.95027
G1 X0.236 Y13.632 Z87.7 E1071.10748
;TIME_ELAPSED:507.624073
;LAYER:87
;note -- min layer time used
;TYPE:WALL-OUTER
;MESH:djinn4.stl
G1 F1103 X-.241 Y13.209 Z87.707 E1071.37808
G1 X-6.946 Y11.604 Z87.782 E1074.30433
G1 X-12.161 Y7.097 Z87.857 E1077.22986
G1 X-12.744 Y6.897 Z87.864 E1077.49146
G1 X-16.011 Y-1.272 Z87.959 E1081.22569
G1 X-14.43 Y-7.901 Z88.034 E1084.11821
G1 X-12.327 Y-8.602 Z88.058 E1085.05909
G1 X-8.866 Y-10.302 Z88.1 E1086.69571
G1 X-2.671 Y-12.339 Z88.171 E1089.4636
G1 X-.218 Y-13.579 Z88.2 E1090.63021
G1 X0.233 Y-13.175 Z88.207 E1090.8872
G1 X6.938 Y-11.57 Z88.282 E1093.81346
G1 X12.04 Y-6.966 Z88.357 E1096.73029
G1 X12.713 Y-6.773 Z88.364 E1097.02745
G1 X16.018 Y1.274 Z88.459 E1100.71975
G1 X14.437 Y7.905 Z88.533 E1103.61309
G1 X12.328 Y8.604 Z88.557 E1104.55611
G1 X8.867 Y10.304 Z88.599 E1106.19274
G1 X2.66 Y12.306 Z88.67 E1108.96087
G1 X0.236 Y13.559 Z88.7 E1110.11904
;TIME_ELAPSED:512.628908
;LAYER:88
;note -- min layer time used
;TYPE:WALL-OUTER
;MESH:djinn4.stl
G1 F1093.2 X-.241 Y13.136 Z88.707 E1110.38963
G1 X-6.347 Y11.675 Z88.776 E1113.05441
G1 X-11.834 Y6.914 Z88.856 E1116.13779
G1 X-12.426 Y6.714 Z88.863 E1116.40301
G1 X-15.878 Y-1.899 Z88.964 E1120.34137
G1 X-14.445 Y-7.91 Z89.032 E1122.96417
G1 X-12.28 Y-8.631 Z89.057 E1123.9327
G1 X-9.329 Y-10.079 Z89.093 E1125.32788
G1 X-2.67 Y-12.266 Z89.17 E1128.30274
G1 X-.218 Y-13.506 Z89.2 E1129.46898
G1 X0.233 Y-13.102 Z89.207 E1129.72597
G1 X6.339 Y-11.64 Z89.276 E1132.39085
G1 X11.713 Y-6.784 Z89.356 E1135.46505
G1 X12.395 Y-6.59 Z89.363 E1135.76599
G1 X15.885 Y1.901 Z89.464 E1139.66245
G1 X14.452 Y7.914 Z89.532 E1142.28608
G1 X12.281 Y8.633 Z89.557 E1143.25675
G1 X9.33 Y10.081 Z89.593 E1144.65193
G1 X2.659 Y12.233 Z89.67 E1147.62704
G1 X0.236 Y13.486 Z89.7 E1148.78483
;TIME_ELAPSED:517.633705
;LAYER:89
;note -- min layer time used
;TYPE:WALL-OUTER
;MESH:djinn4.stl
G1 F1083.4 X-.239 Y13.063 Z89.707 E1149.05479
G1 X-5.751 Y11.745 Z89.77 E1151.46026
G1 X-11.507 Y6.734 Z89.854 E1154.69941
G1 X-12.108 Y6.53 Z89.861 E1154.9688
G1 X-15.745 Y-2.527 Z89.969 E1159.11131
G1 X-14.46 Y-7.918 Z90.031 E1161.46357
G1 X-12.227 Y-8.662 Z90.057 E1162.46256
G1 X-9.797 Y-9.855 Z90.087 E1163.61154
G1 X-2.667 Y-12.194 Z90.17 E1166.79647
G1 X-.219 Y-13.433 Z90.2 E1167.961
G1 X0.231 Y-13.029 Z90.207 E1168.21768
G1 X5.743 Y-11.711 Z90.27 E1170.62314
G1 X11.386 Y-6.603 Z90.354 E1173.85376
G1 X12.077 Y-6.406 Z90.362 E1174.15874
G1 X15.753 Y2.529 Z90.469 E1178.25951
G1 X14.467 Y7.922 Z90.531 E1180.6127
G1 X12.228 Y8.664 Z90.557 E1181.61384
G1 X9.798 Y9.858 Z90.587 E1182.76301
G1 X2.656 Y12.162 Z90.67 E1185.94818
G1 X0.237 Y13.413 Z90.7 E1187.10407
;TIME_ELAPSED:522.637934
;LAYER:90
;note -- min layer time used
;TYPE:WALL-OUTER
;MESH:djinn4.stl
G1 F1073.6 X-.239 Y12.991 Z90.707 E1187.37407
G1 X-5.15 Y11.817 Z90.764 E1189.51723
G1 X-11.179 Y6.553 Z90.853 E1192.9143
G1 X-11.79 Y6.347 Z90.86 E1193.18797
G1 X-15.612 Y-3.154 Z90.975 E1197.53463
G1 X-14.475 Y-7.927 Z91.03 E1199.61717
G1 X-12.178 Y-8.691 Z91.057 E1200.64462
G1 X-10.259 Y-9.634 Z91.08 E1201.55215
G1 X-2.666 Y-12.122 Z91.17 E1204.94352
G1 X-.219 Y-13.36 Z91.2 E1206.10748
G1 X0.231 Y-12.956 Z91.207 E1206.36416
G1 X5.142 Y-11.782 Z91.264 E1208.50731
G1 X11.058 Y-6.423 Z91.353 E1211.89534
G1 X11.759 Y-6.223 Z91.361 E1212.20474
G1 X15.62 Y3.156 Z91.474 E1216.50968
G1 X14.482 Y7.931 Z91.529 E1218.59314
G1 X12.179 Y8.693 Z91.556 E1219.62274
G1 X10.26 Y9.636 Z91.58 E1220.53027
G1 X2.655 Y12.09 Z91.67 E1223.92202
G1 X0.237 Y13.34 Z91.7 E1225.07734
;TIME_ELAPSED:527.642126
;LAYER:91
;note -- min layer time used
;TYPE:WALL-OUTER
;MESH:djinn4.stl
G1 F1063.8 X-.239 Y12.918 Z91.707 E1225.34734
G1 X-4.553 Y11.886 Z91.757 E1227.23004
G1 X-10.851 Y6.372 Z91.852 E1230.78291
G1 X-11.472 Y6.164 Z91.859 E1231.06088
G1 X-15.48 Y-3.781 Z91.98 E1235.61184
G1 X-14.49 Y-7.935 Z92.028 E1237.42435
G1 X-12.127 Y-8.722 Z92.056 E1238.48146
G1 X-10.715 Y-9.415 Z92.074 E1239.14906
G1 X-2.663 Y-12.051 Z92.17 E1242.74513
G1 X-.219 Y-13.287 Z92.2 E1243.90757
G1 X0.231 Y-12.884 Z92.207 E1244.16396
G1 X4.545 Y-11.852 Z92.257 E1246.04666
G1 X10.731 Y-6.242 Z92.351 E1249.59115
G1 X11.441 Y-6.04 Z92.36 E1249.90446
G1 X15.488 Y3.783 Z92.48 E1254.41372
G1 X14.497 Y7.939 Z92.528 E1256.22715
G1 X12.128 Y8.724 Z92.556 E1257.28641
G1 X10.716 Y9.417 Z92.574 E1257.95401
G1 X2.652 Y12.018 Z92.669 E1261.55033
G1 X0.236 Y13.267 Z92.7 E1262.7047
;TIME_ELAPSED:532.646283
;LAYER:92
;note -- min layer time used
;TYPE:WALL-OUTER
;MESH:djinn4.stl
G1 F1054 X-.238 Y12.846 Z92.707 E1262.97378
G1 X-3.953 Y11.958 Z92.751 E1264.595
G1 X-10.525 Y6.192 Z92.85 E1268.30584
G1 X-11.154 Y5.98 Z92.858 E1268.58757
G1 X-15.347 Y-4.408 Z92.985 E1273.34228
G1 X-14.505 Y-7.944 Z93.027 E1274.88507
G1 X-12.074 Y-8.753 Z93.056 E1275.97252
G1 X-11.184 Y-9.191 Z93.067 E1276.39354
G1 X-2.662 Y-11.978 Z93.169 E1280.19914
G1 X-.218 Y-13.214 Z93.2 E1281.36158
G1 X0.23 Y-12.812 Z93.207 E1281.61706
G1 X3.945 Y-11.923 Z93.251 E1283.23838
G1 X10.404 Y-6.061 Z93.35 E1286.94055
G1 X11.123 Y-5.857 Z93.359 E1287.25777
G1 X15.355 Y4.41 Z93.485 E1291.97119
G1 X14.512 Y7.948 Z93.526 E1293.51489
G1 X12.075 Y8.755 Z93.556 E1294.6045
G1 X11.185 Y9.193 Z93.567 E1295.02552
G1 X2.651 Y11.946 Z93.669 E1298.8315
G1 X0.236 Y13.194 Z93.7 E1299.9853
;TIME_ELAPSED:537.650406
;LAYER:93
;note -- min layer time used
;TYPE:WALL-OUTER
;MESH:djinn4.stl
G1 F1044.2 X-.238 Y12.774 Z93.707 E1300.2541
G1 X-3.356 Y12.028 Z93.744 E1301.61486
G1 X-10.196 Y6.012 Z93.849 E1305.48119
G1 X-10.836 Y5.798 Z93.857 E1305.76762
G1 X-15.215 Y-5.035 Z93.991 E1310.72704
G1 X-14.519 Y-7.953 Z94.025 E1312.0003
G1 X-12.029 Y-8.781 Z94.055 E1313.11405
G1 X-11.645 Y-8.97 Z94.06 E1313.29571
G1 X-4.576 Y-11.291 Z94.146 E1316.45368
G1 X-2.573 Y-11.949 Z94.17 E1317.34853
G1 X-.218 Y-13.141 Z94.2 E1318.46884
G1 X0.23 Y-12.739 Z94.207 E1318.72432
G1 X3.348 Y-11.993 Z94.244 E1320.08507
G1 X10.075 Y-5.881 Z94.349 E1323.9428
G1 X10.805 Y-5.673 Z94.357 E1324.26497
G1 X15.223 Y5.037 Z94.491 E1329.18232
G1 X14.526 Y7.957 Z94.525 E1330.45651
G1 X12.03 Y8.783 Z94.555 E1331.57242
G1 X11.646 Y8.972 Z94.56 E1331.75407
G1 X4.565 Y11.258 Z94.646 E1334.91228
G1 X2.558 Y11.92 Z94.67 E1335.80928
G1 X0.236 Y13.121 Z94.7 E1336.91886
;TIME_ELAPSED:542.654494
;LAYER:94
;note -- min layer time used
;TYPE:WALL-OUTER
;MESH:djinn4.stl
G1 F1034.3 X-.237 Y12.701 Z94.707 E1337.18734
G1 X-2.755 Y12.099 Z94.737 E1338.2862
G1 X-9.867 Y5.831 Z94.847 E1342.30986
G1 X-10.518 Y5.614 Z94.855 E1342.60112
G1 X-15.082 Y-5.663 Z94.996 E1347.76469
G1 X-14.534 Y-7.961 Z95.024 E1348.76741
G1 X-2.112 Y-12.114 Z95.176 E1354.32668
G1 X-.218 Y-13.068 Z95.2 E1355.22679
G1 X0.229 Y-12.667 Z95.207 E1355.48167
G1 X2.747 Y-12.064 Z95.237 E1356.58064
G1 X9.746 Y-5.7 Z95.347 E1360.59574
G1 X10.487 Y-5.489 Z95.356 E1360.92276
G1 X15.09 Y5.665 Z95.496 E1366.04426
G1 X14.541 Y7.965 Z95.524 E1367.04791
G1 X2.097 Y12.086 Z95.676 E1372.61175
G1 X0.236 Y13.048 Z95.7 E1373.50093
;TIME_ELAPSED:547.658548
;LAYER:95
;note -- min layer time used
;TYPE:WALL-OUTER
;MESH:djinn4.stl
G1 F1024.5 X-.236 Y12.629 Z95.707 E1373.76881
G1 X-2.16 Y12.169 Z95.731 E1374.60846
G1 X-9.54 Y5.65 Z95.846 E1378.7879
G1 X-10.2 Y5.43 Z95.854 E1379.08319
G1 X-14.95 Y-6.29 Z96.002 E1384.45068
G1 X-14.549 Y-7.97 Z96.022 E1385.18377
G1 X-1.65 Y-12.281 Z96.182 E1390.95633
G1 X-.219 Y-12.995 Z96.2 E1391.63511
G1 X0.228 Y-12.594 Z96.207 E1391.88999
G1 X2.152 Y-12.134 Z96.231 E1392.72964
G1 X9.419 Y-5.519 Z96.346 E1396.90058
G1 X10.169 Y-5.306 Z96.355 E1397.2315
G1 X14.957 Y6.292 Z96.502 E1402.55717
G1 X14.556 Y7.974 Z96.522 E1403.29109
G1 X1.635 Y12.252 Z96.682 E1409.06808
G1 X0.237 Y12.975 Z96.7 E1409.73611
;TIME_ELAPSED:552.662568
;LAYER:96
;note -- min layer time used
;TYPE:WALL-OUTER
;MESH:djinn4.stl
G1 F1014.7 X-.236 Y12.556 Z96.707 E1410.00431
G1 X-1.559 Y12.24 Z96.724 E1410.58165
G1 X-9.213 Y5.469 Z96.844 E1414.91907
G92 E0
G1 X-9.882 Y5.248 Z96.853 E0.29905
G1 X-14.817 Y-6.917 Z97.008 E5.87109
G1 X-14.564 Y-7.978 Z97.021 E6.33405
G1 X-1.187 Y-12.446 Z97.188 E12.32015
G1 X-.219 Y-12.922 Z97.2 E12.778
G1 X0.228 Y-12.521 Z97.208 E13.03288
G1 X1.551 Y-12.205 Z97.224 E13.61022
G1 X9.093 Y-5.339 Z97.344 E17.93919
G1 X9.851 Y-5.123 Z97.354 E18.27373
G1 X14.825 Y6.919 Z97.508 E23.80372
G1 X14.571 Y7.982 Z97.521 E24.26761
G1 X1.172 Y12.418 Z97.688 E30.25829
G1 X0.236 Y12.902 Z97.7 E30.70554
;TIME_ELAPSED:557.672471
;LAYER:97
;note -- min layer time used
;TYPE:WALL-OUTER
;MESH:djinn4.stl
G1 F1004.8 X-.235 Y12.483 Z97.708 E30.97311
G1 X-.962 Y12.31 Z97.716 E31.29029
G1 X-8.885 Y5.29 Z97.843 E35.78327
G1 X-9.565 Y5.064 Z97.851 E36.08741
G1 X-14.684 Y-7.545 Z98.014 E41.86345
G1 X-14.579 Y-7.987 Z98.019 E42.05627
G1 X-.725 Y-12.613 Z98.194 E48.25567
G1 X-.219 Y-12.849 Z98.2 E48.49264
G1 X0.227 Y-12.449 Z98.208 E48.74693
G1 X0.954 Y-12.275 Z98.217 E49.06422
G1 X8.764 Y-5.159 Z98.343 E53.54875
G1 X9.534 Y-4.939 Z98.352 E53.88864
G1 X14.692 Y7.547 Z98.514 E59.62264
G1 X14.586 Y7.991 Z98.519 E59.81639
G1 X0.71 Y12.584 Z98.694 E66.02023
G1 X0.237 Y12.829 Z98.7 E66.24632
;TIME_ELAPSED:562.676952
;LAYER:98
;note -- min layer time used
;TYPE:WALL-OUTER
;MESH:djinn4.stl
G1 F993.4 X-.231 Y12.411 Z98.708 E66.51266
G1 X-.362 Y12.38 Z98.709 E66.56979
G1 X-4.923 Y8.511 Z98.781 E69.10837
G1 X-8.636 Y5.045 Z98.843 E71.26427
G1 X-9.247 Y4.88 Z98.85 E71.53289
G1 X-14.501 Y-8.026 Z99.019 E77.4473
G1 X-.219 Y-12.776 Z99.201 E83.83568
G1 X0.223 Y-12.378 Z99.208 E84.08813
G1 X0.354 Y-12.347 Z99.209 E84.14527
G1 X4.802 Y-8.38 Z99.281 E86.67496
G1 X8.534 Y-4.935 Z99.343 E88.8307
G1 X9.216 Y-4.756 Z99.351 E89.12997
G1 X14.502 Y8.032 Z99.518 E95.00319
G1 X0.236 Y12.756 Z99.7 E101.38166
;TIME_ELAPSED:567.681644
;LAYER:99
;TYPE:WALL-OUTER
;MESH:djinn4.stl
G1 F1714.3 X-8.805 Y4.73 Z99.782 E106.51273
G1 X-8.929 Y4.697 E106.56719
G1 X-14.158 Y-8.152 Z99.876 E112.45489
G1 X-.303 Y-12.74 Z99.975 E118.64929
G1 X8.774 Y-4.606 Z100.057 E123.82227
G1 X8.898 Y-4.573 Z100.058 E123.87673
G1 X14.16 Y8.159 Z100.151 E129.7238
G1 X0.305 Y12.746 Z100.249 E135.91807
G1 X-8.752 Y4.519 Z100.7 E140.07529
G1 X-8.876 Y4.487 E140.11877
G1 X-14.161 Y-8.161 E143.90032
G1 X-.305 Y-12.746 E146.68774
G1 X8.752 Y-4.519 E148.24564
G1 X8.876 Y-4.487 E148.26194
G1 X14.161 Y8.161
;TIME_ELAPSED:572.979072
G1 F1500 E141.76194
M104 S0
M140 S0
;Retract the filament
G92 E1
G1 E-1 F300
G28 X0 Y0
M84
M82 ;absolute extrusion mode
;End of Gcode
;SETTING_3 {"global_quality": "[general]\\nversion = 4\\nname = Turbo-profile1\\
;SETTING_3 ndefinition = custom\\n\\n[metadata]\\ntype = quality_changes\\nquali
;SETTING_3 ty_type = extra coarse\\nsetting_version = 25\\n\\n[values]\\nadhesio
;SETTING_3 n_type = none\\njerk_enabled = False\\nlayer_height = 1\\nlayer_heigh
;SETTING_3 t_0 = 0.7\\nmagic_spiralize = True\\n\\n", "extruder_quality": ["[gen
;SETTING_3 eral]\\nversion = 4\\nname = Turbo-profile1\\ndefinition = custom\\n\
;SETTING_3 \n[metadata]\\ntype = quality_changes\\nquality_type = extra coarse\\
;SETTING_3 nintent_category = default\\nposition = 0\\nsetting_version = 25\\n\\
;SETTING_3 n[values]\\nbottom_layers = =math.ceil(round(bottom_thickness / resol
;SETTING_3 veOrValue('layer_height'), 4))\\nbottom_thickness = 1.2\\ninfill_spar
;SETTING_3 se_density = 10\\nline_width = 3\\nmeshfix_maximum_resolution = 1\\nr
;SETTING_3 etraction_hop = 1.0\\nretraction_hop_enabled = True\\nspeed_layer_0 =
;SETTING_3  20\\nspeed_print = 50.0\\nspeed_travel = 40\\nspeed_wall = 50.0\\nsp
;SETTING_3 eed_wall_x = 30\\ntop_bottom_thickness = 0\\ntop_layers = 5\\ntravel_
;SETTING_3 avoid_other_parts = False\\nwall_line_count = 3\\nwall_thickness = 3.
;SETTING_3 0\\n\\n"]}
