;FLAVOR:Marlin
;TIME:444
;Filament used: 6.39415m
;Layer height: 1
;MINX:-26.627
;MINY:-26.627
;MINZ:0.5
;MAXX:26.627
;MAXY:26.627
;MAXZ:57.5
;TARGET_MACHINE.NAME:Unknown
;Generated with Cura_SteamEngine 5.11.0
M140 S60
M105
M190 S60
M104 S200
M105
M109 S200
G28 ;Home
M302 S0 ;Set cold extrusion
M92 E400 ;E Steps at 400 steps/mm M92 E-400 reverse
G1 Z15.0 F6000 ;Move the platform down 15mm
;Prime the extruder
G92 E0
G1 F200 E3
G92 E0
M82 ;absolute extrusion mode
G92 E0
G92 E0
G1 F1500 E-6.5
;LAYER_COUNT:57
;LAYER:0
M107
G1 F600 Z1.5
;MESH:obj_2_Hexaeder.stl
G0 F675 X0.00 Y0.000 Z1.5
G0 X20.624 Y20.624
;TYPE:WALL-INNER
G1 F600 Z0.5
G1 F1500 E0
G1 F900 X20.624 Y-20.624 E9.69872
G1 X-20.624 Y-20.624 E19.39745
G1 X-20.624 Y20.624 E29.09617
G1 X20.624 Y20.624 E38.79489
G0 F675 X22.047 Y22.047
G0 X23.624 Y23.624
G1 F900 X23.624 Y-23.624 E49.90441
G1 X-23.624 Y-23.624 E61.01392
G1 X-23.624 Y23.624 E72.12344
G1 X23.624 Y23.624 E83.23295
G0 F675 X22.017 Y22.047
G0 X25.047 Y25.047
G0 X26.624 Y26.624
;TYPE:WALL-OUTER
G1 F900 X26.624 Y-26.624 E95.75326
G1 X-26.624 Y-26.624 E108.27356
G1 X-26.624 Y26.624 E120.79387
G1 X26.624 Y26.624 E133.31418
G0 F675 X26.624 Y25.124
G0 X25.047 Y25.047
G0 X17.772 Y17.772
;TYPE:SKIN
G1 F900 X-17.772 Y17.772 E141.67171
G1 X-17.772 Y-17.772 E150.02924
G1 X17.772 Y-17.772 E158.38677
G1 X17.772 Y17.772 E166.7443
G0 F675 X13.427 Y-16.272
G1 F900 X16.272 Y-13.427 E167.69034
G0 F675 X16.272 Y-9.184
G1 F900 X9.184 Y-16.272 E170.04729
G0 F675 X4.941 Y-16.272
G1 F900 X16.272 Y-4.941 E173.81515
G0 F675 X16.272 Y-.699
G1 F900 X0.699 Y-16.272 E178.99359
G0 F675 X-3.544 Y-16.272
G1 F900 X16.272 Y3.544 E185.58294
G0 F675 X16.272 Y7.787
G1 F900 X-7.787 Y-16.272 E193.5832
G0 F675 X-12.029 Y-16.272
G1 F900 X16.272 Y12.029 E202.99404
G0 F675 X16.272 Y16.272
G1 F900 X-16.272 Y-16.272 E213.81579
G0 F675 X-16.272 Y-12.029
G1 F900 X12.029 Y16.272 E223.22663
G0 F675 X7.787 Y16.272
G1 F900 X-16.272 Y-7.787 E231.2269
G0 F675 X-16.272 Y-3.544
G1 F900 X3.544 Y16.272 E237.81625
G0 F675 X-.699 Y16.272
G1 F900 X-16.272 Y0.699 E242.99469
G0 F675 X-16.272 Y4.941
G1 F900 X-4.941 Y16.272 E246.76255
G0 F675 X-9.184 Y16.272
G1 F900 X-16.272 Y9.184 E249.1195
G0 F675 X-16.272 Y13.427
G1 F900 X-13.427 Y16.272 E250.06554
;MESH:NONMESH
G0 F600 X-13.427 Y16.272 Z1.5
G0 F675 X5.624 Y5.624
;TIME_ELAPSED:89.305850
;LAYER:1
M106 S255
;TYPE:WALL-INNER
;MESH:obj_2_Hexaeder.stl
G1 F1350 X5.624 Y-5.624 E255.35507
G1 X-5.624 Y-5.624 E260.64459
G1 X-5.624 Y5.624 E265.93412
G1 X5.624 Y5.624 E271.22365
G0 F1237.5 X8.624 Y8.624
G1 F1350 X8.624 Y-8.624 E279.33476
G1 X-8.624 Y-8.624 E287.44588
G1 X-8.624 Y8.624 E295.55699
G1 X8.624 Y8.624 E303.6681
G0 F1237.5 X11.624 Y11.624
G1 F1350 X11.624 Y-11.624 E314.6008
G1 X-11.624 Y-11.624 E325.53349
G1 X-11.624 Y11.624 E336.46619
G1 X11.624 Y11.624 E347.39888
G0 F1237.5 X14.624 Y14.624
G1 F1350 X14.624 Y-14.624 E361.15316
G1 X-14.624 Y-14.624 E374.90744
G1 X-14.624 Y14.624 E388.66172
G1 X14.624 Y14.624 E402.416
G0 F1237.5 X17.624 Y17.624
G1 F1350 X17.624 Y-17.624 E418.99186
G1 X-17.624 Y-17.624 E435.56772
G1 X-17.624 Y17.624 E452.14358
G1 X17.624 Y17.624 E468.71945
G0 F1237.5 X20.624 Y20.624
G1 F1350 X20.624 Y-20.624 E488.11689
G1 X-20.624 Y-20.624 E507.51434
G1 X-20.624 Y20.624 E526.91178
G1 X20.624 Y20.624 E546.30923
G0 F1237.5 X22.047 Y22.047
G0 X23.624 Y23.624
G1 F1350 X23.624 Y-23.624 E568.52826
G1 X-23.624 Y-23.624 E590.74729
G1 X-23.624 Y23.624 E612.96632
G1 X23.624 Y23.624 E635.18535
G0 F1237.5 X22.017 Y22.047
G0 X25.047 Y25.047
G0 X26.624 Y26.624
;TYPE:WALL-OUTER
G1 F1650 X26.624 Y-26.624 E660.22596
G1 X-26.624 Y-26.624 E685.26657
G1 X-26.624 Y26.624 E710.30719
G1 X26.624 Y26.624 E735.3478
G0 F1237.5 X26.624 Y25.124
G0 X25.047 Y25.047
G0 X2.136 Y2.136
;TYPE:SKIN
G1 F737.4 X-2.136 Y2.136 E738.20857
G1 X-2.136 Y-2.136 E741.06934
G1 X2.136 Y-2.136 E743.93011
G1 X2.136 Y2.136 E746.79088
;MESH:NONMESH
G0 F600 X2.136 Y2.136 Z2.5
G0 F1237.5 X25.047 Y25.047
G0 X26.627 Y26.627
;TIME_ELAPSED:140.142110
;LAYER:2
;TYPE:WALL-OUTER
;MESH:obj_2_Hexaeder.stl
G1 F2400 X-26.627 Y26.627 E771.83431
G1 X-26.627 Y-26.627 E796.87775
G1 X26.627 Y-26.627 E821.92118
G1 X26.627 Y26.627 E846.96462
G1 X-26.627 Y26.627 Z2.75 E872.00833
G1 X-26.627 Y-26.627 Z3 E897.05204
G1 X26.627 Y-26.627 Z3.25 E922.09575
G1 X26.627 Y26.627 Z3.5 E947.13946
;TIME_ELAPSED:150.831603
;LAYER:3
;TYPE:WALL-OUTER
;MESH:obj_2_Hexaeder.stl
G1 X-26.627 Y26.627 Z3.75 E972.18317
G1 X-26.627 Y-26.627 Z4 E997.22688
G1 X26.627 Y-26.627 Z4.25 E1022.27059
G1 X26.627 Y26.627 Z4.5 E1047.3143
;TIME_ELAPSED:156.178980
;LAYER:4
;TYPE:WALL-OUTER
;MESH:obj_2_Hexaeder.stl
G1 X-26.627 Y26.627 Z4.75 E1072.35801
G1 X-26.627 Y-26.627 Z5 E1097.40172
G1 X26.627 Y-26.627 Z5.25 E1122.44543
G1 X26.627 Y26.627 Z5.5 E1147.48914
;TIME_ELAPSED:161.526357
;LAYER:5
;TYPE:WALL-OUTER
;MESH:obj_2_Hexaeder.stl
G1 X-26.627 Y26.627 Z5.75 E1172.53285
G1 X-26.627 Y-26.627 Z6 E1197.57656
G1 X26.627 Y-26.627 Z6.25 E1222.62027
G1 X26.627 Y26.627 Z6.5 E1247.66398
;TIME_ELAPSED:166.873735
;LAYER:6
;TYPE:WALL-OUTER
;MESH:obj_2_Hexaeder.stl
G1 X-26.627 Y26.627 Z6.75 E1272.70769
G1 X-26.627 Y-26.627 Z7 E1297.7514
G1 X26.627 Y-26.627 Z7.25 E1322.79511
G1 X26.627 Y26.627 Z7.5 E1347.83882
;TIME_ELAPSED:172.221112
;LAYER:7
;TYPE:WALL-OUTER
;MESH:obj_2_Hexaeder.stl
G1 X-26.627 Y26.627 Z7.75 E1372.88253
G1 X-26.627 Y-26.627 Z8 E1397.92624
G1 X26.627 Y-26.627 Z8.25 E1422.96995
G1 X26.627 Y26.627 Z8.5 E1448.01366
;TIME_ELAPSED:177.568489
;LAYER:8
;TYPE:WALL-OUTER
;MESH:obj_2_Hexaeder.stl
G1 X-26.627 Y26.627 Z8.75 E1473.05738
G1 X-26.627 Y-26.627 Z9 E1498.10109
G1 X26.627 Y-26.627 Z9.25 E1523.1448
G1 X26.627 Y26.627 Z9.5 E1548.18851
;TIME_ELAPSED:182.915866
;LAYER:9
;TYPE:WALL-OUTER
;MESH:obj_2_Hexaeder.stl
G1 X-26.627 Y26.627 Z9.75 E1573.23222
G92 E0
G1 X-26.627 Y-26.627 Z10 E25.04371
G1 X26.627 Y-26.627 Z10.25 E50.08742
G1 X26.627 Y26.627 Z10.5 E75.13113
;TIME_ELAPSED:188.268767
;LAYER:10
;TYPE:WALL-OUTER
;MESH:obj_2_Hexaeder.stl
G1 X-26.627 Y26.627 Z10.75 E100.17484
G1 X-26.627 Y-26.627 Z11 E125.21855
G1 X26.627 Y-26.627 Z11.25 E150.26226
G1 X26.627 Y26.627 Z11.5 E175.30597
;TIME_ELAPSED:193.616145
;LAYER:11
;TYPE:WALL-OUTER
;MESH:obj_2_Hexaeder.stl
G1 X-26.627 Y26.627 Z11.75 E200.34968
G1 X-26.627 Y-26.627 Z12 E225.39339
G1 X26.627 Y-26.627 Z12.25 E250.4371
G1 X26.627 Y26.627 Z12.5 E275.48081
;TIME_ELAPSED:198.963522
;LAYER:12
;TYPE:WALL-OUTER
;MESH:obj_2_Hexaeder.stl
G1 X-26.627 Y26.627 Z12.75 E300.52452
G1 X-26.627 Y-26.627 Z13 E325.56823
G1 X26.627 Y-26.627 Z13.25 E350.61195
G1 X26.627 Y26.627 Z13.5 E375.65566
;TIME_ELAPSED:204.310899
;LAYER:13
;TYPE:WALL-OUTER
;MESH:obj_2_Hexaeder.stl
G1 X-26.627 Y26.627 Z13.75 E400.69937
G1 X-26.627 Y-26.627 Z14 E425.74308
G1 X26.627 Y-26.627 Z14.25 E450.78679
G1 X26.627 Y26.627 Z14.5 E475.8305
;TIME_ELAPSED:209.658276
;LAYER:14
;TYPE:WALL-OUTER
;MESH:obj_2_Hexaeder.stl
G1 X-26.627 Y26.627 Z14.75 E500.87421
G1 X-26.627 Y-26.627 Z15 E525.91792
G1 X26.627 Y-26.627 Z15.25 E550.96163
G1 X26.627 Y26.627 Z15.5 E576.00534
;TIME_ELAPSED:215.005653
;LAYER:15
;TYPE:WALL-OUTER
;MESH:obj_2_Hexaeder.stl
G1 X-26.627 Y26.627 Z15.75 E601.04905
G1 X-26.627 Y-26.627 Z16 E626.09276
G1 X26.627 Y-26.627 Z16.25 E651.13647
G1 X26.627 Y26.627 Z16.5 E676.18018
;TIME_ELAPSED:220.353031
;LAYER:16
;TYPE:WALL-OUTER
;MESH:obj_2_Hexaeder.stl
G1 X-26.627 Y26.627 Z16.75 E701.22389
G1 X-26.627 Y-26.627 Z17 E726.2676
G1 X26.627 Y-26.627 Z17.25 E751.31131
G1 X26.627 Y26.627 Z17.5 E776.35502
;TIME_ELAPSED:225.700408
;LAYER:17
;TYPE:WALL-OUTER
;MESH:obj_2_Hexaeder.stl
G1 X-26.627 Y26.627 Z17.75 E801.39873
G1 X-26.627 Y-26.627 Z18 E826.44244
G1 X26.627 Y-26.627 Z18.25 E851.48615
G1 X26.627 Y26.627 Z18.5 E876.52986
;TIME_ELAPSED:231.047785
;LAYER:18
;TYPE:WALL-OUTER
;MESH:obj_2_Hexaeder.stl
G1 X-26.627 Y26.627 Z18.75 E901.57357
G1 X-26.627 Y-26.627 Z19 E926.61728
G1 X26.627 Y-26.627 Z19.25 E951.66099
G1 X26.627 Y26.627 Z19.5 E976.7047
;TIME_ELAPSED:236.395162
;LAYER:19
;TYPE:WALL-OUTER
;MESH:obj_2_Hexaeder.stl
G1 X-26.627 Y26.627 Z19.75 E1001.74842
G1 X-26.627 Y-26.627 Z20 E1026.79213
G1 X26.627 Y-26.627 Z20.25 E1051.83584
G1 X26.627 Y26.627 Z20.5 E1076.87955
;TIME_ELAPSED:241.742540
;LAYER:20
;TYPE:WALL-OUTER
;MESH:obj_2_Hexaeder.stl
G1 X-26.627 Y26.627 Z20.75 E1101.92326
G1 X-26.627 Y-26.627 Z21 E1126.96697
G1 X26.627 Y-26.627 Z21.25 E1152.01068
G1 X26.627 Y26.627 Z21.5 E1177.05439
;TIME_ELAPSED:247.089917
;LAYER:21
;TYPE:WALL-OUTER
;MESH:obj_2_Hexaeder.stl
G1 X-26.627 Y26.627 Z21.75 E1202.0981
G1 X-26.627 Y-26.627 Z22 E1227.14181
G1 X26.627 Y-26.627 Z22.25 E1252.18552
G1 X26.627 Y26.627 Z22.5 E1277.22923
;TIME_ELAPSED:252.437294
;LAYER:22
;TYPE:WALL-OUTER
;MESH:obj_2_Hexaeder.stl
G1 X-26.627 Y26.627 Z22.75 E1302.27294
G1 X-26.627 Y-26.627 Z23 E1327.31665
G1 X26.627 Y-26.627 Z23.25 E1352.36036
G1 X26.627 Y26.627 Z23.5 E1377.40407
;TIME_ELAPSED:257.784671
;LAYER:23
;TYPE:WALL-OUTER
;MESH:obj_2_Hexaeder.stl
G1 X-26.627 Y26.627 Z23.75 E1402.44778
G1 X-26.627 Y-26.627 Z24 E1427.49149
G1 X26.627 Y-26.627 Z24.25 E1452.5352
G1 X26.627 Y26.627 Z24.5 E1477.57891
;TIME_ELAPSED:263.132048
;LAYER:24
;TYPE:WALL-OUTER
;MESH:obj_2_Hexaeder.stl
G1 X-26.627 Y26.627 Z24.75 E1502.62262
G1 X-26.627 Y-26.627 Z25 E1527.66633
G1 X26.627 Y-26.627 Z25.25 E1552.71004
G1 X26.627 Y26.627 Z25.5 E1577.75375
;TIME_ELAPSED:268.479426
;LAYER:25
;TYPE:WALL-OUTER
;MESH:obj_2_Hexaeder.stl
G92 E0
G1 X-26.627 Y26.627 Z25.75 E25.04371
G1 X-26.627 Y-26.627 Z26 E50.08742
G1 X26.627 Y-26.627 Z26.25 E75.13113
G1 X26.627 Y26.627 Z26.5 E100.17484
;TIME_ELAPSED:273.826928
;LAYER:26
;TYPE:WALL-OUTER
;MESH:obj_2_Hexaeder.stl
G1 X-26.627 Y26.627 Z26.75 E125.21855
G1 X-26.627 Y-26.627 Z27 E150.26226
G1 X26.627 Y-26.627 Z27.25 E175.30597
G1 X26.627 Y26.627 Z27.5 E200.34968
;TIME_ELAPSED:279.174305
;LAYER:27
;TYPE:WALL-OUTER
;MESH:obj_2_Hexaeder.stl
G1 X-26.627 Y26.627 Z27.75 E225.39339
G1 X-26.627 Y-26.627 Z28 E250.4371
G1 X26.627 Y-26.627 Z28.25 E275.48081
G1 X26.627 Y26.627 Z28.5 E300.52452
;TIME_ELAPSED:284.521683
;LAYER:28
;TYPE:WALL-OUTER
;MESH:obj_2_Hexaeder.stl
G1 X-26.627 Y26.627 Z28.75 E325.56823
G1 X-26.627 Y-26.627 Z29 E350.61195
G1 X26.627 Y-26.627 Z29.25 E375.65566
G1 X26.627 Y26.627 Z29.5 E400.69937
;TIME_ELAPSED:289.869060
;LAYER:29
;TYPE:WALL-OUTER
;MESH:obj_2_Hexaeder.stl
G1 X-26.627 Y26.627 Z29.75 E425.74308
G1 X-26.627 Y-26.627 Z30 E450.78679
G1 X26.627 Y-26.627 Z30.25 E475.8305
G1 X26.627 Y26.627 Z30.5 E500.87421
;TIME_ELAPSED:295.216437
;LAYER:30
;TYPE:WALL-OUTER
;MESH:obj_2_Hexaeder.stl
G1 X-26.627 Y26.627 Z30.75 E525.91792
G1 X-26.627 Y-26.627 Z31 E550.96163
G1 X26.627 Y-26.627 Z31.25 E576.00534
G1 X26.627 Y26.627 Z31.5 E601.04905
;TIME_ELAPSED:300.563814
;LAYER:31
;TYPE:WALL-OUTER
;MESH:obj_2_Hexaeder.stl
G1 X-26.627 Y26.627 Z31.75 E626.09276
G1 X-26.627 Y-26.627 Z32 E651.13647
G1 X26.627 Y-26.627 Z32.25 E676.18018
G1 X26.627 Y26.627 Z32.5 E701.22389
;TIME_ELAPSED:305.911192
;LAYER:32
;TYPE:WALL-OUTER
;MESH:obj_2_Hexaeder.stl
G1 X-26.627 Y26.627 Z32.75 E726.2676
G1 X-26.627 Y-26.627 Z33 E751.31131
G1 X26.627 Y-26.627 Z33.25 E776.35502
G1 X26.627 Y26.627 Z33.5 E801.39873
;TIME_ELAPSED:311.258569
;LAYER:33
;TYPE:WALL-OUTER
;MESH:obj_2_Hexaeder.stl
G1 X-26.627 Y26.627 Z33.75 E826.44244
G1 X-26.627 Y-26.627 Z34 E851.48615
G1 X26.627 Y-26.627 Z34.25 E876.52986
G1 X26.627 Y26.627 Z34.5 E901.57357
;TIME_ELAPSED:316.605946
;LAYER:34
;TYPE:WALL-OUTER
;MESH:obj_2_Hexaeder.stl
G1 X-26.627 Y26.627 Z34.75 E926.61728
G1 X-26.627 Y-26.627 Z35 E951.66099
G1 X26.627 Y-26.627 Z35.25 E976.7047
G1 X26.627 Y26.627 Z35.5 E1001.74842
;TIME_ELAPSED:321.953323
;LAYER:35
;TYPE:WALL-OUTER
;MESH:obj_2_Hexaeder.stl
G1 X-26.627 Y26.627 Z35.75 E1026.79213
G1 X-26.627 Y-26.627 Z36 E1051.83584
G1 X26.627 Y-26.627 Z36.25 E1076.87955
G1 X26.627 Y26.627 Z36.5 E1101.92326
;TIME_ELAPSED:327.300700
;LAYER:36
;TYPE:WALL-OUTER
;MESH:obj_2_Hexaeder.stl
G1 X-26.627 Y26.627 Z36.75 E1126.96697
G1 X-26.627 Y-26.627 Z37 E1152.01068
G1 X26.627 Y-26.627 Z37.25 E1177.05439
G1 X26.627 Y26.627 Z37.5 E1202.0981
;TIME_ELAPSED:332.648078
;LAYER:37
;TYPE:WALL-OUTER
;MESH:obj_2_Hexaeder.stl
G1 X-26.627 Y26.627 Z37.75 E1227.14181
G1 X-26.627 Y-26.627 Z38 E1252.18552
G1 X26.627 Y-26.627 Z38.25 E1277.22923
G1 X26.627 Y26.627 Z38.5 E1302.27294
;TIME_ELAPSED:337.995455
;LAYER:38
;TYPE:WALL-OUTER
;MESH:obj_2_Hexaeder.stl
G1 X-26.627 Y26.627 Z38.75 E1327.31665
G1 X-26.627 Y-26.627 Z39 E1352.36036
G1 X26.627 Y-26.627 Z39.25 E1377.40407
G1 X26.627 Y26.627 Z39.5 E1402.44778
;TIME_ELAPSED:343.342832
;LAYER:39
;TYPE:WALL-OUTER
;MESH:obj_2_Hexaeder.stl
G1 X-26.627 Y26.627 Z39.75 E1427.49149
G1 X-26.627 Y-26.627 Z40 E1452.5352
G1 X26.627 Y-26.627 Z40.25 E1477.57891
G1 X26.627 Y26.627 Z40.5 E1502.62262
;TIME_ELAPSED:348.690209
;LAYER:40
;TYPE:WALL-OUTER
;MESH:obj_2_Hexaeder.stl
G1 X-26.627 Y26.627 Z40.75 E1527.66633
G1 X-26.627 Y-26.627 Z41 E1552.71004
G1 X26.627 Y-26.627 Z41.25 E1577.75375
G92 E0
G1 X26.627 Y26.627 Z41.5 E25.04371
;TIME_ELAPSED:354.037356
;LAYER:41
;TYPE:WALL-OUTER
;MESH:obj_2_Hexaeder.stl
G1 X-26.627 Y26.627 Z41.75 E50.08742
G1 X-26.627 Y-26.627 Z42 E75.13113
G1 X26.627 Y-26.627 Z42.25 E100.17484
G1 X26.627 Y26.627 Z42.5 E125.21855
;TIME_ELAPSED:359.384733
;LAYER:42
;TYPE:WALL-OUTER
;MESH:obj_2_Hexaeder.stl
G1 X-26.627 Y26.627 Z42.75 E150.26226
G1 X-26.627 Y-26.627 Z43 E175.30597
G1 X26.627 Y-26.627 Z43.25 E200.34968
G1 X26.627 Y26.627 Z43.5 E225.39339
;TIME_ELAPSED:364.732111
;LAYER:43
;TYPE:WALL-OUTER
;MESH:obj_2_Hexaeder.stl
G1 X-26.627 Y26.627 Z43.75 E250.4371
G1 X-26.627 Y-26.627 Z44 E275.48081
G1 X26.627 Y-26.627 Z44.25 E300.52452
G1 X26.627 Y26.627 Z44.5 E325.56823
;TIME_ELAPSED:370.079488
;LAYER:44
;TYPE:WALL-OUTER
;MESH:obj_2_Hexaeder.stl
G1 X-26.627 Y26.627 Z44.75 E350.61195
G1 X-26.627 Y-26.627 Z45 E375.65566
G1 X26.627 Y-26.627 Z45.25 E400.69937
G1 X26.627 Y26.627 Z45.5 E425.74308
;TIME_ELAPSED:375.426865
;LAYER:45
;TYPE:WALL-OUTER
;MESH:obj_2_Hexaeder.stl
G1 X-26.627 Y26.627 Z45.75 E450.78679
G1 X-26.627 Y-26.627 Z46 E475.8305
G1 X26.627 Y-26.627 Z46.25 E500.87421
G1 X26.627 Y26.627 Z46.5 E525.91792
;TIME_ELAPSED:380.774242
;LAYER:46
;TYPE:WALL-OUTER
;MESH:obj_2_Hexaeder.stl
G1 X-26.627 Y26.627 Z46.75 E550.96163
G1 X-26.627 Y-26.627 Z47 E576.00534
G1 X26.627 Y-26.627 Z47.25 E601.04905
G1 X26.627 Y26.627 Z47.5 E626.09276
;TIME_ELAPSED:386.121619
;LAYER:47
;TYPE:WALL-OUTER
;MESH:obj_2_Hexaeder.stl
G1 X-26.627 Y26.627 Z47.75 E651.13647
G1 X-26.627 Y-26.627 Z48 E676.18018
G1 X26.627 Y-26.627 Z48.25 E701.22389
G1 X26.627 Y26.627 Z48.5 E726.2676
;TIME_ELAPSED:391.468997
;LAYER:48
;TYPE:WALL-OUTER
;MESH:obj_2_Hexaeder.stl
G1 X-26.627 Y26.627 Z48.75 E751.31131
G1 X-26.627 Y-26.627 Z49 E776.35502
G1 X26.627 Y-26.627 Z49.25 E801.39873
G1 X26.627 Y26.627 Z49.5 E826.44244
;TIME_ELAPSED:396.816374
;LAYER:49
;TYPE:WALL-OUTER
;MESH:obj_2_Hexaeder.stl
G1 X-26.627 Y26.627 Z49.75 E851.48615
G1 X-26.627 Y-26.627 Z50 E876.52986
G1 X26.627 Y-26.627 Z50.25 E901.57357
G1 X26.627 Y26.627 Z50.5 E926.61728
;TIME_ELAPSED:402.163751
;LAYER:50
;TYPE:WALL-OUTER
;MESH:obj_2_Hexaeder.stl
G1 X-26.627 Y26.627 Z50.75 E951.66099
G1 X-26.627 Y-26.627 Z51 E976.7047
G1 X26.627 Y-26.627 Z51.25 E1001.74842
G1 X26.627 Y26.627 Z51.5 E1026.79213
;TIME_ELAPSED:407.511128
;LAYER:51
;TYPE:WALL-OUTER
;MESH:obj_2_Hexaeder.stl
G1 X-26.627 Y26.627 Z51.75 E1051.83584
G1 X-26.627 Y-26.627 Z52 E1076.87955
G1 X26.627 Y-26.627 Z52.25 E1101.92326
G1 X26.627 Y26.627 Z52.5 E1126.96697
;TIME_ELAPSED:412.858505
;LAYER:52
;TYPE:WALL-OUTER
;MESH:obj_2_Hexaeder.stl
G1 X-26.627 Y26.627 Z52.75 E1152.01068
G1 X-26.627 Y-26.627 Z53 E1177.05439
G1 X26.627 Y-26.627 Z53.25 E1202.0981
G1 X26.627 Y26.627 Z53.5 E1227.14181
;TIME_ELAPSED:418.205883
;LAYER:53
;TYPE:WALL-OUTER
;MESH:obj_2_Hexaeder.stl
G1 X-26.627 Y26.627 Z53.75 E1252.18552
G1 X-26.627 Y-26.627 Z54 E1277.22923
G1 X26.627 Y-26.627 Z54.25 E1302.27294
G1 X26.627 Y26.627 Z54.5 E1327.31665
;TIME_ELAPSED:423.553260
;LAYER:54
;TYPE:WALL-OUTER
;MESH:obj_2_Hexaeder.stl
G1 X-26.627 Y26.627 Z54.75 E1352.36036
G1 X-26.627 Y-26.627 Z55 E1377.40407
G1 X26.627 Y-26.627 Z55.25 E1402.44778
G1 X26.627 Y26.627 Z55.5 E1427.49149
;TIME_ELAPSED:428.900637
;LAYER:55
;TYPE:WALL-OUTER
;MESH:obj_2_Hexaeder.stl
G1 X-26.627 Y26.627 Z55.75 E1452.5352
G1 X-26.627 Y-26.627 Z56 E1477.57891
G1 X26.627 Y-26.627 Z56.25 E1502.62262
G1 X26.627 Y26.627 Z56.5 E1527.66633
;TIME_ELAPSED:434.248014
;LAYER:56
;TYPE:WALL-OUTER
;MESH:obj_2_Hexaeder.stl
G1 X-26.627 Y26.627 Z56.625 E1552.70984
G1 X-26.627 Y-26.627 Z56.75 E1577.75334
G92 E0
G1 X26.627 Y-26.627 Z56.875 E25.0435
G1 X26.627 Y26.627 Z57 E50.08701
G1 X-26.627 Y26.627 Z57.5 E68.87041
G1 X-26.627 Y-26.627 E81.39213
G1 X26.627 Y-26.627 E87.65299
G1 X26.627 Y26.627
;TIME_ELAPSED:444.943046
G1 F1500 E81.15299
M140 S0
M107
M104 S0
M140 S0
;Retract the filament
G92 E1
G1 E-1 F300
G28 X0 Y0
M84
M82 ;absolute extrusion mode
M104 S0
;End of Gcode
;SETTING_3 {"global_quality": "[general]\\nversion = 4\\nname = CuraProfile_3mm_
;SETTING_3 2laybase_40sec\\ndefinition = custom\\n\\n[metadata]\\ntype = quality
;SETTING_3 _changes\\nquality_type = extra coarse\\nsetting_version = 25\\n\\n[v
;SETTING_3 alues]\\nadhesion_type = none\\njerk_enabled = False\\nlayer_height =
;SETTING_3  1\\nlayer_height_0 = 0.5\\nmagic_spiralize = True\\n\\n", "extruder_
;SETTING_3 quality": ["[general]\\nversion = 4\\nname = CuraProfile_3mm_2laybase
;SETTING_3 _40sec\\ndefinition = custom\\n\\n[metadata]\\ntype = quality_changes
;SETTING_3 \\nquality_type = extra coarse\\nintent_category = default\\nposition
;SETTING_3  = 0\\nsetting_version = 25\\n\\n[values]\\nbottom_layers = 2\\nbotto
;SETTING_3 m_thickness = 1.3\\ninfill_sparse_density = 0\\nline_width = 3\\nmesh
;SETTING_3 fix_maximum_resolution = 1\\nretraction_hop = 1.0\\nretraction_hop_en
;SETTING_3 abled = True\\nspeed_layer_0 = 15.0\\nspeed_print = 40.0\\nspeed_trav
;SETTING_3 el = 30.0\\nspeed_wall = 40.0\\nspeed_wall_x = 30\\ntop_bottom_thickn
;SETTING_3 ess = 0\\ntop_layers = 0\\ntravel_avoid_other_parts = False\\nwall_li
;SETTING_3 ne_count = 3\\nwall_thickness = 3.0\\n\\n"]}
