;FLAVOR:Marlin
;TIME:494
;Filament used: 8.06631m
;Layer height: 1
;MINX:-39.766
;MINY:-45.749
;MINZ:0.5
;MAXX:39.602
;MAXY:45.682
;MAXZ:78.5
;TARGET_MACHINE.NAME:Unknown
;Generated with Cura_SteamEngine 5.11.0
M140 S60
M105
M190 S60
M104 S200
M105
M109 S200
G28 ;Home
M302 S0 ;Set cold extrusion
M92 E400 ;E Steps at 400 steps/mm M92 E-400 reverse
G1 Z15.0 F6000 ;Move the platform down 15mm
;Prime the extruder
G92 E0
G1 F200 E3
G92 E0
M82 ;absolute extrusion mode
G92 E0
G92 E0
G1 F1500 E-6.5
;LAYER_COUNT:78
;LAYER:0
M107
G1 F600 Z1.5
;MESH:obj_3_Ikosaeder.stl
G0 F675 X0.00 Y0.000 Z1.5
G0 X-0.002 Y15.03
;TYPE:WALL-INNER
G1 F600 Z0.5
G1 F1500 E0
G1 F900 X13.016 Y-7.512 E6.12071
G1 X-13.018 Y-7.512 E12.24213
G1 X-0.002 Y15.03 E18.3626
G0 F675 X0.00 Y17.911
G0 X-0.002 Y21.029
G1 F900 X18.213 Y-10.512 E26.92677
G1 X-18.214 Y-10.512 E35.49192
G1 X-0.002 Y21.029 E44.05574
G0 F675 X-0.042 Y17.885
G0 X0.00 Y23.911
G0 X-0.002 Y27.028
;TYPE:WALL-OUTER
G1 F900 X23.41 Y-13.512 E55.06336
G1 X-23.41 Y-13.512 E66.07224
G1 X-0.002 Y27.028 E77.07939
G0 F675 X0.748 Y25.73
G0 X0.00 Y23.911
G0 X-0.001 Y9.331
;TYPE:SKIN
G1 F900 X-8.078 Y-4.66 E80.87796
G1 X8.075 Y-4.66 E84.67605
G1 X-0.001 Y9.331 E88.4745
G0 F675 X0.764 Y5.006
G1 F900 X-2.854 Y1.389 E89.67742
G0 F675 X-3.16 Y-3.16
G1 F900 X2.316 Y2.316 E91.49834
G0 F675 X3.869 Y-.374
G1 F900 X1.083 Y-3.16 E92.42476
;MESH:NONMESH
G0 F600 X1.083 Y-3.16 Z1.5
G0 F675 X0.001 Y3.853
;TIME_ELAPSED:35.669851
;LAYER:1
M106 S255
;TYPE:WALL-INNER
;MESH:obj_3_Ikosaeder.stl
G1 F1051.7 X3.337 Y-1.924 E96.4518
G1 X-3.335 Y-1.924 E100.47944
G1 X0.001 Y3.853 E104.50648
G0 F1237.5 X0.001 Y10.703
G1 F1350 X9.271 Y-5.35 E113.22391
G1 X-9.269 Y-5.349 E121.9426
G1 X0.001 Y10.703 E130.65962
G0 F1237.5 X0.001 Y16.702
G1 F1350 X14.468 Y-8.35 E144.26397
G1 X-14.466 Y-8.349 E157.87058
G1 X0.001 Y16.702 E171.47452
G0 F1237.5 X0.00 Y19.589
G0 X0.001 Y22.702
G1 F1350 X19.665 Y-11.351 E189.9666
G1 X-19.663 Y-11.349 E208.46114
G1 X0.001 Y22.702 E226.9524
G0 F1237.5 X-0.042 Y19.564
G0 X0.00 Y25.589
G0 X0.357 Y28.085
;TYPE:WALL-OUTER
G1 F1650 X24.501 Y-13.726 E249.65739
G1 X24.448 Y-14.114 E249.84155
G1 X24.142 Y-14.352 E250.02385
G1 X-24.141 Y-14.348 E272.7296
G1 X-24.448 Y-14.111 E272.91199
G1 X-24.5 Y-13.727 E273.09422
G1 X-.356 Y28.082 E295.7984
G1 X0.003 Y28.23 E295.98101
G1 X0.357 Y28.085 E296.1609
G0 F1237.5 X1.107 Y26.787
;MESH:NONMESH
G0 F600 X1.107 Y26.787 Z2.5
G0 F1237.5 X0.00 Y25.589
G0 X-22.16 Y-12.791
G0 X-24.781 Y-14.306
;TIME_ELAPSED:57.885753
;LAYER:2
;TYPE:WALL-OUTER
;MESH:obj_3_Ikosaeder.stl
G1 F2400 X-23.278 Y-15.469 E297.0546
G1 X23.278 Y-15.47 E318.94821
G1 X24.78 Y-14.305 E319.84211
G1 X25.037 Y-12.423 E320.73536
G1 X1.759 Y27.896 E342.6291
G1 X0.00 Y28.616 E343.52291
G1 X-1.759 Y27.896 E344.41671
G1 X-25.038 Y-12.422 E366.31028
G1 X-24.781 Y-14.306 E367.20446
G0 F1800 X-24.45 Y-14.114
G1 F2400 X-23.278 Y-14.364 Z2.508 E367.76802
G1 X23.278 Y-14.709 Z2.821 E389.66273
G1 X24.56 Y-14.178 Z2.83 E390.31529
G1 X24.403 Y-12.789 Z2.84 E390.97266
G1 X1.424 Y27.702 Z3.152 E412.86723
G1 X0.00 Y28.488 Z3.163 E413.63215
G1 X-1.448 Y27.717 Z3.174 E414.40362
G1 X-25.026 Y-12.429 Z3.487 E436.29854
G1 X-24.781 Y-14.306 Z3.5 E437.18873
;TIME_ELAPSED:65.426380
;LAYER:3
;note -- min layer time used
;TYPE:WALL-OUTER
;MESH:obj_3_Ikosaeder.stl
G1 F1830.9 X-22.412 Y-15.493 Z3.517 E438.43484
G1 X22.411 Y-15.816 Z3.811 E459.51448
G1 X24.89 Y-14.368 Z3.83 E460.86459
G1 X24.947 Y-11.475 Z3.849 E462.22536
G1 X2.816 Y27.506 Z4.143 E483.30549
G1 X-0.001 Y28.871 Z4.163 E484.77758
G1 X-2.858 Y27.531 Z4.184 E486.2616
G1 X-25.552 Y-11.125 Z4.478 E507.34176
G1 X-25.111 Y-14.496 Z4.5 E508.94056
;TIME_ELAPSED:70.434770
;LAYER:4
;note -- min layer time used
;TYPE:WALL-OUTER
;MESH:obj_3_Ikosaeder.stl
G1 F1877.1 X-21.545 Y-16.62 Z4.527 E510.89249
G1 X21.546 Y-16.924 Z4.802 E531.15755
G1 X25.22 Y-14.559 Z4.83 E533.21235
G1 X25.492 Y-10.162 Z4.858 E535.2841
G1 X4.208 Y27.31 Z5.134 E555.55043
G1 X-0.001 Y29.252 Z5.163 E557.73034
G1 X-4.268 Y27.344 Z5.193 E559.92847
G1 X-26.078 Y-9.822 Z5.469 E580.19387
G1 X-25.441 Y-14.688 Z5.5 E582.50174
;TIME_ELAPSED:75.443703
;LAYER:5
;note -- min layer time used
;TYPE:WALL-OUTER
;MESH:obj_3_Ikosaeder.stl
G1 F1923.4 X-20.679 Y-17.747 Z5.535 E585.16343
G1 X20.679 Y-18.032 Z5.793 E604.61344
G1 X25.55 Y-14.749 Z5.83 E607.37586
G1 X26.034 Y-8.848 Z5.867 E610.16026
G1 X5.601 Y27.114 Z6.125 E629.61146
G1 X-0.001 Y29.634 Z6.163 E632.5002
G1 X-5.677 Y27.158 Z6.202 E635.41239
G1 X-26.605 Y-8.518 Z6.46 E654.8635
G1 X-25.772 Y-14.879 Z6.5 E657.88045
;TIME_ELAPSED:80.452265
;LAYER:6
;note -- min layer time used
;TYPE:WALL-OUTER
;MESH:obj_3_Ikosaeder.stl
G1 F1970 X-19.813 Y-18.874 Z6.544 E661.2543
G1 X19.813 Y-19.141 Z6.785 E679.88974
G1 X25.881 Y-14.94 Z6.83 E683.3605
G1 X26.578 Y-7.535 Z6.875 E686.85826
G1 X6.993 Y26.919 Z7.117 E705.49584
G1 X-0.001 Y30.016 Z7.163 E709.09296
G1 X-7.086 Y26.971 Z7.21 E712.71953
G1 X-27.132 Y-7.215 Z7.452 E731.35637
G1 X-26.102 Y-15.07 Z7.5 E735.08198
;TIME_ELAPSED:85.461646
;LAYER:7
;note -- min layer time used
;TYPE:WALL-OUTER
;MESH:obj_3_Ikosaeder.stl
G1 F2016.5 X-18.947 Y-20 Z7.552 E739.16818
G1 X18.947 Y-20.249 Z7.777 E756.98906
G1 X26.211 Y-15.13 Z7.83 E761.16813
G1 X27.12 Y-6.222 Z7.883 E765.37907
G1 X8.386 Y26.723 Z8.109 E783.20193
G1 X-0.002 Y30.397 Z8.163 E787.50837
G1 X-8.495 Y26.784 Z8.218 E791.84878
G1 X-27.659 Y-5.91 Z8.444 E809.67052
G1 X-26.433 Y-15.261 Z8.5 E814.10567
;TIME_ELAPSED:90.471382
;LAYER:8
;note -- min layer time used
;TYPE:WALL-OUTER
;MESH:obj_3_Ikosaeder.stl
G1 F2063 X-18.081 Y-21.127 Z8.559 E818.90535
G1 X18.082 Y-21.359 Z8.77 E835.91214
G1 X26.541 Y-15.321 Z8.83 E840.79962
G1 X27.662 Y-4.909 Z8.891 E845.72439
G1 X9.78 Y26.528 Z9.101 E862.73271
G1 X-0.002 Y30.779 Z9.163 E867.74851
G1 X-9.903 Y26.596 Z9.226 E872.80317
G1 X-28.187 Y-4.606 Z9.436 E889.8103
G1 X-26.763 Y-15.452 Z9.5 E894.95465
;TIME_ELAPSED:95.481012
;LAYER:9
;note -- min layer time used
;TYPE:WALL-OUTER
;MESH:obj_3_Ikosaeder.stl
G1 F2109.6 X-17.214 Y-22.252 Z9.567 E900.46753
G1 X17.216 Y-22.468 Z9.763 E916.6593
G1 X26.871 Y-15.511 Z9.83 E922.25571
G1 X28.205 Y-3.597 Z9.898 E927.89353
G1 X11.174 Y26.333 Z10.094 E944.08795
G1 X-0.002 Y31.161 Z10.164 E949.81316
G1 X-11.311 Y26.409 Z10.233 E955.5819
G1 X-28.715 Y-3.301 Z10.429 E971.77443
G1 X-27.093 Y-15.643 Z10.5 E977.62843
;TIME_ELAPSED:100.491726
;LAYER:10
;note -- min layer time used
;TYPE:WALL-OUTER
;MESH:obj_3_Ikosaeder.stl
G1 F2156.2 X-16.348 Y-23.377 Z10.574 E983.85432
G1 X16.35 Y-23.578 Z10.756 E999.23154
G1 X27.201 Y-15.702 Z10.83 E1005.53696
G1 X28.746 Y-2.284 Z10.905 E1011.88875
G1 X12.568 Y26.138 Z11.087 E1027.2684
G1 X-0.002 Y31.542 Z11.164 E1033.70284
G1 X-12.719 Y26.221 Z11.24 E1040.18568
G1 X-29.243 Y-1.996 Z11.422 E1055.5632
G1 X-27.424 Y-15.834 Z11.5 E1062.12679
;TIME_ELAPSED:105.503042
;LAYER:11
;note -- min layer time used
;TYPE:WALL-OUTER
;MESH:obj_3_Ikosaeder.stl
G1 F2202.8 X-15.482 Y-24.502 Z11.58 E1069.06621
G1 X15.484 Y-24.689 Z11.749 E1083.62888
G1 X27.531 Y-15.893 Z11.83 E1090.64364
G1 X29.288 Y-.972 Z11.912 E1097.70903
G1 X13.962 Y25.944 Z12.081 E1112.27497
G1 X-0.003 Y31.924 Z12.164 E1119.41909
G1 X-14.126 Y26.033 Z12.247 E1126.61535
G1 X-29.772 Y-.692 Z12.416 E1141.17875
G1 X-27.754 Y-16.025 Z12.5 E1148.45159
;TIME_ELAPSED:110.514466
;LAYER:12
;note -- min layer time used
;TYPE:WALL-OUTER
;MESH:obj_3_Ikosaeder.stl
G1 F2249.3 X-14.616 Y-25.627 Z12.587 E1156.10423
G1 X14.618 Y-25.799 Z12.743 E1169.85236
G1 X27.862 Y-16.083 Z12.83 E1177.57689
G1 X29.828 Y0.34 Z12.919 E1185.35529
G1 X15.357 Y25.749 Z13.075 E1199.1064
G1 X-0.003 Y32.305 Z13.164 E1206.96021
G1 X-15.533 Y25.845 Z13.253 E1214.87016
G1 X-30.301 Y0.614 Z13.409 E1228.61862
G1 X-28.085 Y-16.216 Z13.5 E1236.60159
;TIME_ELAPSED:115.527158
;LAYER:13
;note -- min layer time used
;TYPE:WALL-OUTER
;MESH:obj_3_Ikosaeder.stl
G1 F2295.9 X-13.749 Y-26.751 Z13.593 E1244.968
G1 X13.752 Y-26.91 Z13.737 E1257.90112
G1 X28.192 Y-16.274 Z13.83 E1266.33508
G1 X30.369 Y1.653 Z13.925 E1274.82755
G1 X16.753 Y25.554 Z14.069 E1287.76343
G1 X-0.003 Y32.687 Z14.164 E1296.32756
G1 X-16.94 Y25.657 Z14.26 E1304.95139
G1 X-30.83 Y1.919 Z14.403 E1317.88531
G1 X-28.415 Y-16.407 Z14.5 E1326.578
;TIME_ELAPSED:120.540611
;LAYER:14
;note -- min layer time used
;TYPE:WALL-OUTER
;MESH:obj_3_Ikosaeder.stl
G1 F2342.6 X-12.883 Y-27.875 Z14.599 E1335.65748
G1 X12.887 Y-28.021 Z14.731 E1347.77653
G1 X28.522 Y-16.465 Z14.831 E1356.91956
G1 X30.91 Y2.964 Z14.931 E1366.12519
G1 X18.148 Y25.36 Z15.063 E1378.2473
G1 X-0.003 Y33.069 Z15.164 E1387.52114
G1 X-18.346 Y25.469 Z15.266 E1396.85841
G1 X-31.36 Y3.224 Z15.398 E1408.97828
G1 X-28.745 Y-16.599 Z15.5 E1418.38121
;TIME_ELAPSED:125.554869
;LAYER:15
;note -- min layer time used
;TYPE:WALL-OUTER
;MESH:obj_3_Ikosaeder.stl
G1 F2389.1 X-12.017 Y-28.999 Z15.605 E1428.17351
G1 X12.021 Y-29.132 Z15.725 E1439.47803
G1 X28.852 Y-16.655 Z15.831 E1449.33081
G1 X31.45 Y4.276 Z15.936 E1459.24956
G1 X19.543 Y25.166 Z16.057 E1470.55726
G1 X-0.004 Y33.45 Z16.164 E1480.54106
G1 X-19.753 Y25.281 Z16.271 E1490.59159
G1 X-31.889 Y4.53 Z16.392 E1501.89653
G1 X-29.076 Y-16.79 Z16.5 E1512.00958
;TIME_ELAPSED:130.569969
;LAYER:16
;TYPE:WALL-OUTER
;MESH:obj_3_Ikosaeder.stl
G1 F2400 X-11.15 Y-30.122 Z16.61 E1522.51549
G1 X11.155 Y-30.244 Z16.72 E1533.00501
G1 X29.182 Y-16.846 Z16.831 E1543.56755
G1 X31.991 Y5.587 Z16.942 E1554.19949
G1 X20.938 Y24.972 Z17.052 E1564.69343
G1 X-0.004 Y33.832 Z17.164 E1575.38694
G92 E0
G1 X-21.158 Y25.093 Z17.277 E10.76354
G1 X-32.418 Y5.835 Z17.387 E21.25444
G1 X-29.406 Y-16.981 Z17.5 E32.0772
;TIME_ELAPSED:135.671420
;LAYER:17
;TYPE:WALL-OUTER
;MESH:obj_3_Ikosaeder.stl
G1 X-10.284 Y-31.246 Z17.615 E43.29627
G1 X10.289 Y-31.356 Z17.715 E52.97126
G1 X29.512 Y-17.037 Z17.831 E64.24358
G1 X32.53 Y6.899 Z17.947 E75.58907
G1 X22.334 Y24.778 Z18.047 E85.26814
G1 X-0.004 Y34.214 Z18.164 E96.6718
G1 X-22.564 Y24.903 Z18.282 E108.14915
G1 X-32.948 Y7.141 Z18.381 E117.82478
G1 X-29.737 Y-17.172 Z18.5 E129.35772
;TIME_ELAPSED:140.857707
;LAYER:18
;TYPE:WALL-OUTER
;MESH:obj_3_Ikosaeder.stl
G1 X-9.418 Y-32.369 Z18.62 E141.29006
G1 X9.423 Y-32.468 Z18.71 E150.15053
G1 X29.842 Y-17.227 Z18.831 E162.13293
G1 X33.07 Y8.211 Z18.952 E174.19156
G1 X23.73 Y24.584 Z19.042 E183.05599
G1 X-0.004 Y34.595 Z19.164 E195.16963
G1 X-23.97 Y24.715 Z19.287 E207.36025
G1 X-33.478 Y8.447 Z19.376 E216.22142
G1 X-30.067 Y-17.363 Z19.5 E228.46461
;TIME_ELAPSED:146.141092
;LAYER:19
;TYPE:WALL-OUTER
;MESH:obj_3_Ikosaeder.stl
G1 X-8.551 Y-33.492 Z19.625 E241.11024
G1 X8.547 Y-33.58 Z19.705 E249.151
G1 X30.173 Y-17.418 Z19.831 E261.84735
G1 X33.61 Y9.521 Z19.957 E274.61861
G1 X25.126 Y24.39 Z20.037 E282.66922
G1 X-0.005 Y34.977 Z20.164 E295.49345
G1 X-25.375 Y24.526 Z20.292 E308.39683
G1 X-34.009 Y9.753 Z20.372 E316.44362
G1 X-30.398 Y-17.554 Z20.5 E329.39705
;TIME_ELAPSED:151.521531
;LAYER:20
;TYPE:WALL-OUTER
;MESH:obj_3_Ikosaeder.stl
G1 X-7.685 Y-34.615 Z20.63 E342.75598
G1 X7.682 Y-34.693 Z20.7 E349.98269
G1 X30.503 Y-17.608 Z20.831 E363.38903
G1 X34.149 Y10.833 Z20.962 E376.8734
G1 X26.523 Y24.197 Z21.032 E384.10931
G1 X-0.005 Y35.359 Z21.164 E397.64395
G1 X-26.781 Y24.338 Z21.297 E411.26078
G1 X-34.539 Y11.058 Z21.367 E418.49352
G1 X-30.728 Y-17.745 Z21.5 E432.15673
;TIME_ELAPSED:156.999114
;LAYER:21
;TYPE:WALL-OUTER
;MESH:obj_3_Ikosaeder.stl
G1 X-6.819 Y-35.737 Z21.635 E446.22831
G1 X6.814 Y-35.805 Z21.696 E452.63957
G1 X30.833 Y-17.799 Z21.831 E466.75647
G1 X34.689 Y12.143 Z21.967 E480.95354
G1 X27.92 Y24.003 Z22.028 E487.3754
G1 X-0.005 Y35.74 Z22.164 E501.62045
G1 X-28.186 Y24.148 Z22.301 E515.95048
G1 X-35.07 Y12.365 Z22.363 E522.36803
G1 X-31.058 Y-17.936 Z22.5 E536.742
;TIME_ELAPSED:162.573752
;LAYER:22
;TYPE:WALL-OUTER
;MESH:obj_3_Ikosaeder.stl
G1 X-5.953 Y-36.859 Z22.639 E551.52625
G1 X5.949 Y-36.918 Z22.692 E557.12345
G1 X31.163 Y-17.99 Z22.831 E571.95008
G1 X35.227 Y13.455 Z22.971 E586.86066
G1 X29.316 Y23.81 Z23.024 E592.46783
G1 X-0.005 Y36.122 Z23.164 E607.42286
G1 X-29.591 Y23.959 Z23.306 E622.46609
G1 X-35.601 Y13.671 Z23.358 E628.06926
G1 X-31.389 Y-18.127 Z23.5 E643.15347
;TIME_ELAPSED:168.245477
;LAYER:23
;TYPE:WALL-OUTER
;MESH:obj_3_Ikosaeder.stl
G1 X-5.086 Y-37.981 Z23.643 E658.65114
G1 X5.083 Y-38.03 Z23.687 E663.43336
G1 X31.493 Y-18.18 Z23.831 E678.97009
G1 X35.765 Y14.766 Z23.975 E694.59326
G1 X30.713 Y23.617 Z24.02 E699.38591
G1 X-0.006 Y36.504 Z24.164 E715.05179
G1 X-30.996 Y23.77 Z24.31 E730.80778
G1 X-36.132 Y14.977 Z24.354 E735.59657
G1 X-31.719 Y-18.318 Z24.5 E751.39108
;TIME_ELAPSED:174.014286
;LAYER:24
;TYPE:WALL-OUTER
;MESH:obj_3_Ikosaeder.stl
G1 X-4.219 Y-39.104 Z24.647 E767.60209
G1 X4.216 Y-39.144 Z24.683 E771.56885
G1 X31.823 Y-18.371 Z24.831 E787.81636
G1 X36.305 Y16.076 Z24.979 E804.15223
G1 X32.109 Y23.423 Z25.016 E808.13107
G1 X-0.006 Y36.885 Z25.164 E824.50693
G1 X-32.401 Y23.581 Z25.314 E840.97594
G1 X-36.663 Y16.284 Z25.35 E844.94994
G1 X-32.05 Y-18.509 Z25.5 E861.45516
;TIME_ELAPSED:179.880196
;LAYER:25
;TYPE:WALL-OUTER
;MESH:obj_3_Ikosaeder.stl
G1 X-3.353 Y-40.226 Z25.651 E878.37923
G1 X3.351 Y-40.257 Z25.679 E881.53194
G1 X32.154 Y-18.562 Z25.831 E898.48956
G1 X36.843 Y17.387 Z25.983 E915.53843
G1 X33.506 Y23.23 Z26.012 E918.70276
G1 X-0.006 Y37.267 Z26.164 E935.78903
G1 X-33.806 Y23.391 Z26.318 E952.97142
G1 X-37.194 Y17.59 Z26.346 E956.13063
G1 X-32.38 Y-18.7 Z26.5 E973.34616
;TIME_ELAPSED:185.843231
;LAYER:26
;TYPE:WALL-OUTER
;MESH:obj_3_Ikosaeder.stl
G1 X-2.486 Y-41.347 Z26.655 E990.98301
G1 X2.483 Y-41.37 Z26.676 E993.3198
G1 X32.484 Y-18.752 Z26.831 E1010.98857
G1 X37.382 Y18.698 Z26.987 E1028.75009
G1 X34.904 Y23.037 Z27.008 E1031.0999
G1 X-0.006 Y37.649 Z27.164 E1048.89703
G1 X-35.211 Y23.202 Z27.322 E1066.79262
G1 X-37.725 Y18.896 Z27.342 E1069.13745
G1 X-32.71 Y-18.891 Z27.5 E1087.06328
;TIME_ELAPSED:191.903347
;LAYER:27
;TYPE:WALL-OUTER
;MESH:obj_3_Ikosaeder.stl
G1 X-1.62 Y-42.469 Z27.659 E1105.41283
G1 X1.617 Y-42.484 Z27.672 E1106.9351
G1 X32.814 Y-18.943 Z27.831 E1125.31428
G1 X37.92 Y20.009 Z27.991 E1143.78886
G1 X36.301 Y22.844 Z28.004 E1145.32415
G1 X-0.007 Y38.03 Z28.164 E1163.83196
G1 X-36.615 Y23.012 Z28.325 E1182.43986
G1 X-38.256 Y20.203 Z28.339 E1183.96975
G1 X-33.041 Y-19.082 Z28.5 E1202.60628
;TIME_ELAPSED:198.060533
;LAYER:28
;TYPE:WALL-OUTER
;MESH:obj_3_Ikosaeder.stl
G1 X-.754 Y-43.59 Z28.662 E1221.66862
G1 X0.751 Y-43.597 Z28.668 E1222.37638
G1 X33.144 Y-19.133 Z28.831 E1241.46597
G1 X38.459 Y21.32 Z28.995 E1260.65321
G1 X37.698 Y22.651 Z29.001 E1261.37422
G1 X-0.007 Y38.412 Z29.164 E1280.59244
G1 X-38.02 Y22.823 Z29.329 E1299.91355
G1 X-38.787 Y21.509 Z29.335 E1300.62905
G1 X-33.371 Y-19.273 Z29.5 E1319.97589
;TIME_ELAPSED:204.314826
;LAYER:29
;TYPE:WALL-OUTER
;MESH:obj_3_Ikosaeder.stl
G1 X-0.001 Y-44.697 Z29.666 E1339.70437
G1 X33.474 Y-19.324 Z29.831 E1359.45765
G1 X39.013 Y22.525 Z29.998 E1379.30951
G1 X-0.007 Y38.793 Z30.165 E1399.19025
G1 X-39.312 Y22.691 Z30.332 E1419.16504
G1 X-33.702 Y-19.464 Z30.5 E1439.16395
;TIME_ELAPSED:210.673266
;LAYER:30
;TYPE:WALL-OUTER
;MESH:obj_3_Ikosaeder.stl
G1 X-.218 Y-45.461 Z30.665 E1459.0992
G1 X-0.001 Y-45.606 Z30.666 E1459.22193
G1 X0.211 Y-45.466 Z30.667 E1459.3414
G1 X33.805 Y-19.515 Z30.832 E1479.30431
G1 X39.602 Y22.5 Z30.998 E1499.24978
G1 X39.59 Y22.858 Z30.999 E1499.41823
G1 X39.285 Y23.05 Z31 E1499.58771
G1 X-0.008 Y39.175 Z31.166 E1519.56138
G1 X-39.304 Y23.159 Z31.331 E1539.51695
G1 X-39.676 Y22.888 Z31.333 E1539.73339
G1 X-39.72 Y22.481 Z31.334 E1539.92591
G1 X-34.032 Y-19.655 Z31.5 E1559.92082
;TIME_ELAPSED:217.111228
;LAYER:31
;TYPE:WALL-OUTER
;MESH:obj_3_Ikosaeder.stl
G1 X-2.487 Y-44.146 Z31.655 E1578.7015
G92 E0
G1 X-.112 Y-45.749 Z31.666 E1.34748
G1 X2.479 Y-44.16 Z31.678 E2.77683
G1 X34.136 Y-19.706 Z31.833 E21.58849
G1 X39.597 Y19.885 Z31.988 E40.38313
G1 X39.494 Y22.88 Z32 E41.79242
G1 X37.019 Y24.361 Z32.011 E43.14879
G1 X-0.009 Y39.558 Z32.167 E61.97137
G1 X-37.037 Y24.465 Z32.322 E80.77544
G1 X-39.423 Y22.767 Z32.333 E82.15262
G1 X-39.723 Y19.862 Z32.344 E83.52601
G1 X-34.362 Y-19.847 Z32.5 E102.36928
;TIME_ELAPSED:223.581262
;LAYER:32
;TYPE:WALL-OUTER
;MESH:obj_3_Ikosaeder.stl
G1 X-4.758 Y-42.832 Z32.646 E119.99463
G1 X-.112 Y-45.367 Z32.666 E122.48357
G1 X4.749 Y-42.853 Z32.687 E125.05716
G1 X34.466 Y-19.897 Z32.833 E142.71617
G1 X39.593 Y17.269 Z32.979 E160.35965
G1 X39.163 Y22.689 Z33 E162.91651
G1 X34.752 Y25.673 Z33.021 E165.42093
G1 X-0.009 Y39.939 Z33.166 E183.09101
G1 X-34.773 Y25.77 Z33.312 E200.74513
G1 X-39.091 Y22.577 Z33.333 E203.27062
G1 X-39.726 Y17.244 Z33.354 E205.79627
G1 X-34.693 Y-20.038 Z33.5 E223.48782
;TIME_ELAPSED:230.037148
;LAYER:33
;TYPE:WALL-OUTER
;MESH:obj_3_Ikosaeder.stl
G1 X-7.027 Y-41.516 Z33.636 E239.95868
G1 X-.114 Y-44.984 Z33.666 E243.59579
G1 X7.017 Y-41.547 Z33.697 E247.31846
G1 X34.796 Y-20.088 Z33.833 E263.82586
G1 X39.588 Y14.654 Z33.969 E280.31857
G1 X38.831 Y22.498 Z34 E284.02449
G1 X32.485 Y26.985 Z34.03 E287.67944
G1 X-0.009 Y40.321 Z34.166 E304.1972
G1 X-32.507 Y27.075 Z34.303 E320.70068
G1 X-38.759 Y22.387 Z34.333 E324.37554
G1 X-39.728 Y14.626 Z34.363 E328.05362
G1 X-35.023 Y-20.229 Z34.5 E344.59346
;TIME_ELAPSED:236.491785
;LAYER:34
;TYPE:WALL-OUTER
;MESH:obj_3_Ikosaeder.stl
G1 X-9.297 Y-40.201 Z34.626 E359.90937
G1 X-.113 Y-44.602 Z34.666 E364.69859
G1 X9.285 Y-40.24 Z34.706 E369.57101
G1 X35.126 Y-20.278 Z34.833 E384.9268
G1 X39.584 Y12.038 Z34.96 E400.26789
G1 X38.567 Y22.19 Z34.999 E405.06594
G1 X30.219 Y28.296 Z35.04 E409.9298
G1 X-0.009 Y40.703 Z35.166 E425.29586
G1 X-30.24 Y28.38 Z35.293 E440.64827
G1 X-38.428 Y22.197 Z35.333 E445.47333
G1 X-39.731 Y12.007 Z35.373 E450.30438
G1 X-35.354 Y-20.42 Z35.5 E465.69203
;TIME_ELAPSED:242.945741
;LAYER:35
;TYPE:WALL-OUTER
;MESH:obj_3_Ikosaeder.stl
G1 X-11.567 Y-38.887 Z35.617 E479.85365
G1 X-.115 Y-44.218 Z35.666 E485.79408
G1 X11.553 Y-38.933 Z35.716 E491.81779
G1 X35.456 Y-20.469 Z35.833 E506.02168
G1 X39.579 Y9.425 Z35.95 E520.21293
G1 X38.169 Y22.115 Z36 E526.21735
G1 X27.952 Y29.608 Z36.049 E532.1757
G1 X-0.01 Y41.084 Z36.166 E546.3897
G1 X-27.973 Y29.686 Z36.284 E560.59025
G1 X-38.119 Y21.967 Z36.333 E566.58546
G1 X-39.734 Y9.389 Z36.382 E572.54904
G1 X-35.684 Y-20.611 Z36.5 E586.78504
;TIME_ELAPSED:249.399209
;LAYER:36
;TYPE:WALL-OUTER
;MESH:obj_3_Ikosaeder.stl
G1 X-13.839 Y-37.571 Z36.607 E599.79068
G1 X-.114 Y-43.836 Z36.666 E606.88574
G1 X13.822 Y-37.627 Z36.725 E614.06042
G1 X35.786 Y-20.66 Z36.833 E627.11232
G1 X39.574 Y6.808 Z36.941 E640.15188
G1 X37.837 Y21.924 Z37 E647.30722
G1 X25.685 Y30.92 Z37.059 E654.41743
G1 X-0.01 Y41.466 Z37.166 E667.47911
G1 X-25.707 Y30.991 Z37.274 E680.52903
G1 X-37.787 Y21.776 Z37.333 E687.67404
G1 X-39.736 Y6.769 Z37.392 E694.79061
G1 X-36.014 Y-20.802 Z37.5 E707.87397
;TIME_ELAPSED:255.852329
;LAYER:37
;TYPE:WALL-OUTER
;MESH:obj_3_Ikosaeder.stl
G1 X-16.109 Y-36.256 Z37.598 E719.72466
G1 X-.116 Y-43.453 Z37.666 E727.9721
G1 X16.09 Y-36.32 Z37.735 E736.29881
G1 X36.117 Y-20.85 Z37.833 E748.19947
G1 X39.57 Y4.194 Z37.931 E760.08827
G1 X37.573 Y21.615 Z37.999 E768.33445
G1 X23.418 Y32.232 Z38.068 E776.65545
G1 X-0.01 Y41.848 Z38.166 E788.56482
G1 X-23.44 Y32.297 Z38.265 E800.46348
G1 X-37.432 Y21.625 Z38.333 E808.73896
G1 X-39.739 Y4.151 Z38.401 E817.02772
G1 X-36.345 Y-20.993 Z38.5 E828.95936
;TIME_ELAPSED:262.305166
;LAYER:38
;TYPE:WALL-OUTER
;MESH:obj_3_Ikosaeder.stl
G1 X-18.378 Y-34.942 Z38.588 E839.65614
G1 X-.115 Y-43.071 Z38.666 E849.05699
G1 X18.358 Y-35.014 Z38.744 E858.53457
G1 X36.447 Y-21.041 Z38.833 E869.28362
G1 X39.566 Y1.578 Z38.922 E880.02125
G1 X37.175 Y21.54 Z39 E889.47583
G1 X21.153 Y33.543 Z39.078 E898.8903
G1 X-0.01 Y42.229 Z39.166 E909.64822
G1 X-21.174 Y33.602 Z39.255 E920.39607
G1 X-37.123 Y21.395 Z39.333 E929.84109
G1 X-39.742 Y1.532 Z39.411 E939.26286
G1 X-36.675 Y-21.184 Z39.5 E950.04238
;TIME_ELAPSED:268.757804
;LAYER:39
;TYPE:WALL-OUTER
;MESH:obj_3_Ikosaeder.stl
G1 X-20.648 Y-33.627 Z39.579 E959.58421
G1 X-.116 Y-42.688 Z39.666 E970.13818
G1 X20.627 Y-33.706 Z39.754 E980.76818
G1 X36.777 Y-21.231 Z39.833 E990.36496
G1 X39.561 Y-1.036 Z39.912 E999.95183
G1 X36.843 Y21.35 Z40 E1010.55655
G1 X18.886 Y34.855 Z40.087 E1021.12281
G1 X-0.011 Y42.611 Z40.166 E1030.72884
G1 X-18.907 Y34.908 Z40.246 E1040.32501
G1 X-36.791 Y21.204 Z40.333 E1050.92051
G1 X-39.744 Y-1.086 Z40.42 E1061.49436
G1 X-37.006 Y-21.375 Z40.5 E1071.1221
;TIME_ELAPSED:275.210211
;LAYER:40
;TYPE:WALL-OUTER
;MESH:obj_3_Ikosaeder.stl
G1 X-22.918 Y-32.312 Z40.569 E1079.50936
G1 X-.115 Y-42.306 Z40.666 E1091.21757
G1 X22.895 Y-32.399 Z40.763 E1102.99877
G1 X37.107 Y-21.422 Z40.833 E1111.44364
G1 X39.557 Y-3.651 Z40.903 E1119.87981
G1 X36.579 Y21.041 Z40.999 E1131.5758
G1 X16.617 Y36.168 Z41.097 E1143.35418
G1 X-0.011 Y42.993 Z41.166 E1151.80684
G1 X-16.641 Y36.213 Z41.236 E1160.25237
G1 X-36.437 Y21.053 Z41.333 E1171.97805
G1 X-39.747 Y-3.705 Z41.43 E1183.72452
G1 X-37.336 Y-21.566 Z41.5 E1192.20015
;TIME_ELAPSED:281.662484
;LAYER:41
;TYPE:WALL-OUTER
;MESH:obj_3_Ikosaeder.stl
G1 X-25.188 Y-30.998 Z41.56 E1199.43274
G1 X-.117 Y-41.923 Z41.666 E1212.2936
G1 X25.163 Y-31.094 Z41.773 E1225.22677
G1 X37.437 Y-21.613 Z41.833 E1232.52032
G1 X39.553 Y-6.266 Z41.893 E1239.80579
G1 X36.181 Y20.966 Z42 E1252.70992
G1 X14.353 Y37.478 Z42.106 E1265.58106
G1 X-0.011 Y43.374 Z42.166 E1272.8829
G1 X-14.374 Y37.519 Z42.227 E1280.177
G1 X-36.128 Y20.823 Z42.333 E1293.0729
G1 X-39.75 Y-6.324 Z42.44 E1305.95238
G1 X-37.667 Y-21.757 Z42.5 E1313.27583
;TIME_ELAPSED:288.114593
;LAYER:42
;TYPE:WALL-OUTER
;MESH:obj_3_Ikosaeder.stl
G1 X-27.459 Y-29.683 Z42.55 E1319.35347
G1 X-.116 Y-41.541 Z42.666 E1333.36911
G1 X27.431 Y-29.787 Z42.782 E1347.45355
G1 X37.767 Y-21.803 Z42.833 E1353.59549
G1 X39.548 Y-8.881 Z42.884 E1359.72974
G1 X35.849 Y20.776 Z43 E1373.78452
G1 X12.086 Y38.79 Z43.116 E1387.80752
G1 X-0.011 Y43.756 Z43.166 E1393.95704
G1 X-12.108 Y38.825 Z43.217 E1400.10032
G1 X-35.773 Y20.672 Z43.333 E1414.12631
G1 X-39.752 Y-8.943 Z43.449 E1428.17842
G1 X-37.997 Y-21.948 Z43.5 E1434.34969
;TIME_ELAPSED:294.566574
;LAYER:43
;TYPE:WALL-OUTER
;MESH:obj_3_Ikosaeder.stl
G1 X-29.728 Y-28.367 Z43.541 E1439.27247
G1 X-.117 Y-41.158 Z43.666 E1454.44121
G1 X29.702 Y-28.479 Z43.792 E1469.67911
G1 X38.098 Y-21.994 Z43.833 E1474.66811
G1 X39.544 Y-11.497 Z43.874 E1479.65112
G1 X35.518 Y20.585 Z44 E1494.85658
G1 X9.82 Y40.101 Z44.125 E1510.03144
G1 X-0.012 Y44.137 Z44.166 E1515.02951
G1 X-9.842 Y40.13 Z44.208 E1520.02155
G1 X-35.464 Y20.442 Z44.333 E1535.21712
G1 X-39.755 Y-11.561 Z44.459 E1550.40177
G1 X-38.327 Y-22.139 Z44.5 E1555.42138
;TIME_ELAPSED:301.018413
;LAYER:44
;TYPE:WALL-OUTER
;MESH:obj_3_Ikosaeder.stl
G1 X-31.998 Y-27.053 Z44.531 E1559.1895
G1 X-.116 Y-40.776 Z44.666 E1575.51247
G92 E0
G1 X31.969 Y-27.174 Z44.801 E16.38841
G1 X38.428 Y-22.185 Z44.833 E20.22646
G1 X39.54 Y-14.111 Z44.865 E24.05924
G1 X35.254 Y20.276 Z44.999 E40.35546
G1 X7.551 Y41.414 Z45.135 E56.74258
G1 X-0.012 Y44.519 Z45.166 E60.58729
G1 X-7.575 Y41.436 Z45.198 E64.42808
G1 X-35.11 Y20.291 Z45.333 E80.75447
G1 X-39.758 Y-14.179 Z45.468 E97.11129
G1 X-38.658 Y-22.33 Z45.5 E100.97919
;TIME_ELAPSED:307.482756
;LAYER:45
;TYPE:WALL-OUTER
;MESH:obj_3_Ikosaeder.stl
G1 X-34.268 Y-25.738 Z45.522 E103.59273
G1 X-.118 Y-40.393 Z45.666 E121.06867
G1 X34.237 Y-25.867 Z45.811 E138.60952
G1 X38.758 Y-22.375 Z45.833 E141.29596
G1 X39.535 Y-16.727 Z45.855 E143.97705
G1 X34.855 Y20.202 Z46 E161.48246
G1 X5.287 Y42.725 Z46.144 E178.96194
G1 X-0.012 Y44.901 Z46.166 E181.65581
G1 X-5.308 Y42.741 Z46.189 E184.34553
G1 X-34.801 Y20.061 Z46.333 E201.84188
G1 X-39.76 Y-16.798 Z46.478 E219.33164
G1 X-38.988 Y-22.521 Z46.5 E222.04735
;TIME_ELAPSED:313.934369
;LAYER:46
;TYPE:WALL-OUTER
;MESH:obj_3_Ikosaeder.stl
G1 X-36.538 Y-24.423 Z46.512 E223.50595
G1 X-.117 Y-40.011 Z46.666 E242.13635
G1 X36.507 Y-24.559 Z46.82 E260.82959
G1 X39.088 Y-22.566 Z46.833 E262.3631
G1 X39.532 Y-19.341 Z46.846 E263.89402
G1 X34.524 Y20.011 Z47 E282.54924
G1 X3.02 Y44.037 Z47.154 E301.18127
G1 X-0.012 Y45.282 Z47.166 E302.72265
G1 X-3.042 Y44.046 Z47.179 E304.26155
G1 X-34.446 Y19.91 Z47.333 E322.88769
G1 X-39.762 Y-19.418 Z47.487 E341.55056
G1 X-39.319 Y-22.712 Z47.5 E343.11357
;TIME_ELAPSED:320.385860
;LAYER:47
;TYPE:WALL-OUTER
;MESH:obj_3_Ikosaeder.stl
G1 X-38.806 Y-23.111 Z47.503 E343.4192
G1 X-.118 Y-39.628 Z47.666 E363.2016
G1 X38.774 Y-23.254 Z47.83 E383.04609
G1 X39.418 Y-22.757 Z47.833 E383.42864
G1 X39.528 Y-21.956 Z47.836 E383.80886
G1 X34.26 Y19.702 Z47.999 E403.55528
G1 X0.751 Y45.35 Z48.163 E423.39964
G1 X-0.012 Y45.664 Z48.166 E423.78765
G1 X-.776 Y45.352 Z48.17 E424.17574
G1 X-34.137 Y19.68 Z48.333 E443.97175
G1 X-39.766 Y-22.036 Z48.497 E463.76722
G1 X-39.649 Y-22.902 Z48.5 E464.17817
;TIME_ELAPSED:326.837259
;LAYER:48
;TYPE:WALL-OUTER
;MESH:obj_3_Ikosaeder.stl
G1 X-.117 Y-39.245 Z48.667 E484.29481
G1 X39.569 Y-22.882 Z48.834 E504.48198
G1 X33.86 Y19.627 Z49.001 E524.65205
G1 X0.006 Y45.682 Z49.167 E544.74165
G1 X-33.804 Y19.488 Z49.334 E564.85482
G1 X-39.513 Y-22.8 Z49.5 E584.92189
;TIME_ELAPSED:333.276082
;LAYER:49
;TYPE:WALL-OUTER
;MESH:obj_3_Ikosaeder.stl
G1 X-.118 Y-38.862 Z49.667 E604.92875
G1 X38.502 Y-23.101 Z49.831 E624.54467
G1 X39.257 Y-21.793 Z49.837 E625.2549
G1 X33.53 Y19.436 Z50.001 E644.82972
G1 X0.682 Y44.803 Z50.164 E664.3471
G1 X-.704 Y44.802 Z50.169 E664.99889
G1 X-33.45 Y19.337 Z50.332 E684.50659
G1 X-39.019 Y-21.786 Z50.495 E704.02193
G1 X-38.389 Y-22.877 Z50.5 E704.61439
;TIME_ELAPSED:339.654550
;LAYER:50
;TYPE:WALL-OUTER
;MESH:obj_3_Ikosaeder.stl
G1 X-.118 Y-38.481 Z50.665 E724.05047
G1 X37.102 Y-23.293 Z50.825 E742.95501
G1 X38.72 Y-20.482 Z50.838 E744.48028
G1 X33.199 Y19.246 Z50.998 E763.34262
G1 X1.551 Y43.686 Z51.157 E782.14691
G1 X-1.571 Y43.682 Z51.169 E783.61509
G1 X-33.142 Y19.107 Z51.329 E802.42967
G1 X-34.268 Y10.811 Z51.362 E806.36678
G1 X-38.486 Y-20.474 Z51.488 E821.21222
G1 X-36.989 Y-23.068 Z51.5 E822.62066
;TIME_ELAPSED:345.943369
;LAYER:51
;TYPE:WALL-OUTER
;MESH:obj_3_Ikosaeder.stl
G1 X-.119 Y-38.1 Z51.661 E841.3451
G1 X35.701 Y-23.487 Z51.818 E859.53791
G1 X38.184 Y-19.171 Z51.838 E861.8795
G1 X32.868 Y19.056 Z51.994 E880.02942
G1 X2.419 Y42.569 Z52.15 E898.121
G1 X-2.437 Y42.563 Z52.17 E900.40462
G1 X-32.788 Y18.958 Z52.325 E918.48627
G1 X-33.997 Y10.186 Z52.361 E922.65046
G1 X-37.953 Y-19.165 Z52.481 E936.5781
G1 X-35.589 Y-23.259 Z52.5 E938.80129
;TIME_ELAPSED:352.135124
;LAYER:52
;TYPE:WALL-OUTER
;MESH:obj_3_Ikosaeder.stl
G1 X-.119 Y-37.718 Z52.658 E956.81436
G1 X34.3 Y-23.68 Z52.81 E974.295
G1 X37.648 Y-17.86 Z52.838 E977.45251
G1 X32.538 Y18.865 Z52.99 E994.88948
G1 X3.288 Y41.452 Z53.142 E1012.26863
G1 X-3.303 Y41.444 Z53.17 E1015.36817
G1 X-32.481 Y18.727 Z53.322 E1032.75802
G1 X-33.724 Y9.562 Z53.36 E1037.10748
G1 X-37.419 Y-17.855 Z53.473 E1050.11738
G1 X-34.189 Y-23.45 Z53.5 E1053.15551
;TIME_ELAPSED:358.229794
;LAYER:53
;TYPE:WALL-OUTER
;MESH:obj_3_Ikosaeder.stl
G1 X-.121 Y-37.337 Z53.654 E1070.4565
G1 X32.899 Y-23.873 Z53.803 E1087.22602
G1 X37.112 Y-16.549 Z53.838 E1091.19944
G1 X32.207 Y18.676 Z53.987 E1107.92446
G1 X4.155 Y40.335 Z54.135 E1124.59098
G1 X-4.169 Y40.325 Z54.17 E1128.5055
G1 X-32.126 Y18.579 Z54.318 E1145.16177
G1 X-36.886 Y-16.544 Z54.466 E1161.82998
G1 X-32.789 Y-23.64 Z54.5 E1165.68327
;TIME_ELAPSED:364.227372
;LAYER:54
;TYPE:WALL-OUTER
;MESH:obj_3_Ikosaeder.stl
G1 X-.121 Y-36.956 Z54.65 E1182.27324
G1 X31.498 Y-24.066 Z54.795 E1198.33077
G1 X36.576 Y-15.238 Z54.838 E1203.12011
G1 X31.946 Y18.363 Z54.982 E1219.0709
G1 X5.023 Y39.218 Z55.127 E1235.08613
G1 X-5.035 Y39.205 Z55.17 E1239.81609
G1 X-31.821 Y18.346 Z55.314 E1255.78159
G1 X-33.18 Y8.313 Z55.357 E1260.54288
G1 X-36.353 Y-15.234 Z55.458 E1271.71637
G1 X-31.389 Y-23.831 Z55.5 E1276.38482
;TIME_ELAPSED:370.127862
;LAYER:55
;TYPE:WALL-OUTER
;MESH:obj_3_Ikosaeder.stl
G1 X-.122 Y-36.575 Z55.646 E1292.26315
G1 X30.097 Y-24.26 Z55.787 E1307.60894
G1 X36.04 Y-13.926 Z55.838 E1313.21502
G1 X31.546 Y18.294 Z55.979 E1328.51374
G1 X5.892 Y38.101 Z56.119 E1343.75541
G1 X-5.901 Y38.086 Z56.17 E1349.30128
G1 X-31.49 Y18.155 Z56.31 E1364.55453
G1 X-32.91 Y7.688 Z56.355 E1369.52191
G1 X-35.82 Y-13.924 Z56.45 E1379.77707
G1 X-29.989 Y-24.022 Z56.5 E1385.26069
;TIME_ELAPSED:375.931294
;LAYER:56
;TYPE:WALL-OUTER
;MESH:obj_3_Ikosaeder.stl
G1 X-.122 Y-36.193 Z56.642 E1400.42764
G1 X28.697 Y-24.453 Z56.778 E1415.0617
G1 X35.504 Y-12.615 Z56.838 E1421.48346
G1 X31.216 Y18.104 Z56.975 E1436.0697
G1 X6.759 Y36.985 Z57.11 E1450.59968
G1 X-6.767 Y36.967 Z57.17 E1456.96054
G1 X-31.133 Y18.011 Z57.305 E1471.4783
G1 X-32.637 Y7.064 Z57.354 E1476.67468
G1 X-35.287 Y-12.613 Z57.441 E1486.0117
G1 X-28.588 Y-24.213 Z57.5 E1492.31113
;TIME_ELAPSED:381.637674
;LAYER:57
;TYPE:WALL-OUTER
;MESH:obj_3_Ikosaeder.stl
G1 X-.124 Y-35.812 Z57.637 E1506.76557
G1 X27.296 Y-24.647 Z57.77 E1520.68833
G1 X34.968 Y-11.304 Z57.838 E1527.92642
G1 X30.885 Y17.915 Z57.97 E1541.8007
G1 X7.629 Y35.867 Z58.102 E1555.61665
G1 X-7.633 Y35.847 Z58.17 E1562.79389
G1 X-30.829 Y17.775 Z58.301 E1576.62212
G92 E0
G1 X-32.366 Y6.439 Z58.352 E5.37974
G1 X-34.754 Y-11.303 Z58.432 E13.79848
G1 X-27.188 Y-24.404 Z58.5 E20.91308
;TIME_ELAPSED:387.259804
;LAYER:58
;TYPE:WALL-OUTER
;MESH:obj_3_Ikosaeder.stl
G1 X-.124 Y-35.431 Z58.633 E34.65632
G1 X25.896 Y-24.84 Z58.761 E47.86752
G1 X34.432 Y-9.993 Z58.839 E55.9213
G1 X30.627 Y17.6 Z58.965 E69.02022
G1 X8.498 Y34.751 Z59.093 E82.18649
G1 X-8.499 Y34.728 Z59.17 E90.17965
G1 X-30.472 Y17.632 Z59.297 E103.27211
G1 X-32.094 Y5.815 Z59.351 E108.88138
G1 X-34.221 Y-9.992 Z59.423 E116.38191
G1 X-25.788 Y-24.594 Z59.5 E124.31168
;TIME_ELAPSED:392.772045
;LAYER:59
;TYPE:WALL-OUTER
;MESH:obj_3_Ikosaeder.stl
G1 X-.125 Y-35.051 Z59.628 E137.34363
G1 X24.493 Y-25.035 Z59.751 E149.84223
G1 X33.895 Y-8.681 Z59.839 E158.71339
G1 X30.224 Y17.535 Z59.961 E171.16224
G1 X9.366 Y33.635 Z60.083 E183.55332
G1 X-9.365 Y33.609 Z60.17 E192.36194
G1 X-30.169 Y17.394 Z60.292 E204.76611
G1 X-33.689 Y-8.682 Z60.414 E217.14006
G1 X-24.388 Y-24.785 Z60.5 E225.88523
;TIME_ELAPSED:398.187279
;LAYER:60
;TYPE:WALL-OUTER
;MESH:obj_3_Ikosaeder.stl
G1 X-.126 Y-34.67 Z60.624 E238.20555
G1 X23.092 Y-25.229 Z60.742 E249.99241
G1 X33.358 Y-7.37 Z60.839 E259.67967
G1 X29.894 Y17.345 Z60.956 E271.41597
G1 X10.235 Y32.518 Z61.074 E283.09434
G1 X-10.231 Y32.489 Z61.17 E292.71888
G1 X-29.81 Y17.254 Z61.287 E304.38537
G1 X-33.157 Y-7.371 Z61.404 E316.07222
G1 X-22.988 Y-24.976 Z61.5 E325.63321
;TIME_ELAPSED:403.505462
;LAYER:61
;TYPE:WALL-OUTER
;MESH:obj_3_Ikosaeder.stl
G1 X-.127 Y-34.288 Z61.619 E337.2417
G1 X21.693 Y-25.422 Z61.732 E348.3177
G1 X32.822 Y-6.059 Z61.839 E358.82041
G1 X29.638 Y17.025 Z61.951 E369.77889
G1 X11.102 Y31.402 Z62.063 E380.8105
G1 X-11.096 Y31.37 Z62.17 E391.24955
G1 X-29.509 Y17.014 Z62.282 E402.22944
G1 X-32.623 Y-6.061 Z62.394 E413.17928
G1 X-21.588 Y-25.167 Z62.5 E423.5552
;TIME_ELAPSED:408.726571
;LAYER:62
;TYPE:WALL-OUTER
;MESH:obj_3_Ikosaeder.stl
G1 X-.129 Y-33.909 Z62.613 E434.45197
G1 X20.292 Y-25.616 Z62.721 E444.81703
G1 X32.286 Y-4.748 Z62.839 E456.13607
G1 X29.232 Y16.963 Z62.946 E466.44661
G1 X11.97 Y30.286 Z63.053 E476.70106
G1 X-11.962 Y30.251 Z63.17 E487.95557
G1 X-29.149 Y16.875 Z63.277 E498.19741
G1 X-32.092 Y-4.751 Z63.384 E508.4612
G1 X-20.188 Y-25.358 Z63.5 E519.65276
;TIME_ELAPSED:413.850692
;LAYER:63
;TYPE:WALL-OUTER
;MESH:obj_3_Ikosaeder.stl
G1 X-.128 Y-33.528 Z63.608 E529.83877
G1 X18.893 Y-25.809 Z63.71 E539.49227
G1 X31.75 Y-3.438 Z63.839 E551.62636
G1 X28.903 Y16.773 Z63.941 E561.22482
G1 X12.84 Y29.17 Z64.042 E570.76684
G1 X-12.829 Y29.131 Z64.17 E582.83821
G1 X-28.849 Y16.633 Z64.272 E592.39337
G1 X-31.559 Y-3.44 Z64.373 E601.91874
G1 X-18.787 Y-25.548 Z64.5 E613.92571
;TIME_ELAPSED:418.877812
;LAYER:64
;note -- min layer time used
;TYPE:WALL-OUTER
;MESH:obj_3_Ikosaeder.stl
G1 F2359 X-.13 Y-33.147 Z64.602 E623.39938
G1 X17.493 Y-26.004 Z64.699 E632.34184
G1 X31.214 Y-2.127 Z64.839 E645.29244
G1 X28.649 Y16.452 Z64.935 E654.11246
G1 X13.708 Y28.055 Z65.031 E663.00869
G1 X-13.695 Y28.011 Z65.17 E675.89551
G1 X-28.519 Y16.443 Z65.266 E684.73821
G1 X-31.027 Y-2.129 Z65.361 E693.55134
G1 X-17.387 Y-25.739 Z65.5 E706.37413
;TIME_ELAPSED:423.892501
;LAYER:65
;note -- min layer time used
;TYPE:WALL-OUTER
;MESH:obj_3_Ikosaeder.stl
G1 F2312.5 X-.131 Y-32.765 Z65.597 E715.13599
G1 X16.09 Y-26.2 Z65.687 E723.36531
G1 X30.678 Y-.814 Z65.839 E737.13434
G1 X28.242 Y16.394 Z65.93 E745.30744
G1 X14.578 Y26.938 Z66.019 E753.42394
G1 X-14.561 Y26.893 Z66.17 E767.12716
G1 X-28.157 Y16.308 Z66.26 E775.2302
G1 X-30.495 Y-.819 Z66.35 E783.35922
G1 X-15.987 Y-25.93 Z66.5 E796.99741
;TIME_ELAPSED:428.906880
;LAYER:66
;note -- min layer time used
;TYPE:WALL-OUTER
;MESH:obj_3_Ikosaeder.stl
G1 F2265.9 X-.133 Y-32.386 Z66.591 E805.04755
G1 X14.692 Y-26.393 Z66.675 E812.56742
G1 X30.142 Y0.497 Z66.84 E827.15168
G1 X27.912 Y16.204 Z66.924 E834.61229
G1 X15.447 Y25.822 Z67.007 E842.01636
G1 X-15.428 Y25.773 Z67.17 E856.53597
G1 X-27.86 Y16.062 Z67.254 E863.95461
G1 X-29.963 Y0.492 Z67.337 E871.3432
G1 X-14.587 Y-26.121 Z67.5 E885.79722
;TIME_ELAPSED:433.920429
;LAYER:67
;note -- min layer time used
;TYPE:WALL-OUTER
;MESH:obj_3_Ikosaeder.stl
G1 F2219.4 X-.133 Y-32.005 Z67.584 E893.13615
G1 X13.29 Y-26.588 Z67.663 E899.94324
G1 X29.606 Y1.808 Z67.84 E915.34448
G1 X27.583 Y16.015 Z67.917 E922.09301
G1 X16.316 Y24.706 Z67.994 E928.78473
G1 X-16.293 Y24.654 Z68.171 E944.11981
G1 X-27.497 Y15.931 Z68.247 E950.79733
G1 X-29.431 Y1.802 Z68.324 E957.50375
G1 X-13.186 Y-26.312 Z68.5 E972.77341
;TIME_ELAPSED:438.932634
;LAYER:68
;note -- min layer time used
;TYPE:WALL-OUTER
;MESH:obj_3_Ikosaeder.stl
G1 F2172.9 X-.134 Y-31.625 Z68.578 E979.40044
G1 X11.891 Y-26.784 Z68.649 E985.4965
G1 X29.07 Y3.119 Z68.84 E1001.71443
G1 X27.253 Y15.825 Z68.911 E1007.75048
G1 X17.185 Y23.592 Z68.981 E1013.73034
G1 X-17.16 Y23.534 Z69.171 E1029.88183
G1 X-27.201 Y15.682 Z69.241 E1035.87618
G1 X-28.898 Y3.113 Z69.311 E1041.84065
G1 X-11.786 Y-26.503 Z69.5 E1057.9259
;TIME_ELAPSED:443.944642
;LAYER:69
;note -- min layer time used
;TYPE:WALL-OUTER
;MESH:obj_3_Ikosaeder.stl
G1 F2126.3 X-.135 Y-31.244 Z69.571 E1063.84129
G1 X10.492 Y-26.978 Z69.636 E1069.2265
G1 X28.534 Y4.429 Z69.84 E1086.25989
G1 X26.923 Y15.636 Z69.904 E1091.5844
G1 X18.055 Y22.476 Z69.967 E1096.85116
G1 X-18.025 Y22.415 Z70.171 E1113.81858
G1 X-26.836 Y15.554 Z70.234 E1119.07021
G1 X-28.366 Y4.425 Z70.297 E1124.35309
G1 X-10.385 Y-26.694 Z70.5 E1141.2548
;TIME_ELAPSED:448.955941
;LAYER:70
;note -- min layer time used
;TYPE:WALL-OUTER
;MESH:obj_3_Ikosaeder.stl
G1 F2079.8 X-.137 Y-30.865 Z70.564 E1146.45803
G1 X9.092 Y-27.173 Z70.621 E1151.13257
G1 X27.998 Y5.74 Z70.84 E1168.98248
G1 X26.593 Y15.447 Z70.897 E1173.59498
G1 X18.925 Y21.361 Z70.953 E1178.14894
G1 X-18.891 Y21.296 Z71.171 E1195.93276
G1 X-26.542 Y15.301 Z71.227 E1200.50379
G1 X-27.833 Y5.738 Z71.283 E1205.0418
G1 X-8.985 Y-26.885 Z71.5 E1222.75992
;TIME_ELAPSED:453.966578
;LAYER:71
;note -- min layer time used
;TYPE:WALL-OUTER
;MESH:obj_3_Ikosaeder.stl
G1 F2033.3 X-.137 Y-30.484 Z71.556 E1227.25194
G1 X7.693 Y-27.369 Z71.606 E1231.21486
G1 X27.462 Y7.051 Z71.84 E1249.88146
G1 X26.264 Y15.258 Z71.889 E1253.78189
G1 X19.794 Y20.247 Z71.938 E1257.62407
G1 X-19.758 Y20.175 Z72.171 E1276.2243
G1 X-26.175 Y15.177 Z72.219 E1280.04938
G1 X-27.301 Y7.049 Z72.267 E1283.90825
G1 X-7.585 Y-27.076 Z72.5 E1302.44221
;TIME_ELAPSED:458.976048
;LAYER:72
;note -- min layer time used
;TYPE:WALL-OUTER
;MESH:obj_3_Ikosaeder.stl
G1 F1986.7 X-.14 Y-30.104 Z72.549 E1306.22189
G1 X6.293 Y-27.565 Z72.59 E1309.47425
G1 X26.926 Y8.363 Z72.841 E1328.9582
G1 X25.934 Y15.068 Z72.882 E1332.1457
G1 X20.665 Y19.132 Z72.922 E1335.27499
G1 X-20.623 Y19.056 Z73.171 E1354.69163
G1 X-25.885 Y14.921 Z73.211 E1357.83883
G1 X-26.769 Y8.361 Z73.251 E1360.9517
G1 X-6.185 Y-27.266 Z73.5 E1380.30148
;TIME_ELAPSED:463.985504
;LAYER:73
;note -- min layer time used
;TYPE:WALL-OUTER
;MESH:obj_3_Ikosaeder.stl
G1 F1940.2 X-.141 Y-29.724 Z73.54 E1383.36987
G1 X4.892 Y-27.76 Z73.574 E1385.91058
G1 X26.39 Y9.674 Z73.841 E1406.21128
G1 X25.604 Y14.879 Z73.873 E1408.6868
G1 X21.534 Y18.018 Z73.905 E1411.10394
G1 X-21.489 Y17.937 Z74.171 E1431.33653
G1 X-25.556 Y14.731 Z74.203 E1433.77193
G1 X-26.237 Y9.673 Z74.235 E1436.17204
G1 X-4.785 Y-27.457 Z74.5 E1456.33805
;TIME_ELAPSED:468.993897
;LAYER:74
;note -- min layer time used
;TYPE:WALL-OUTER
;MESH:obj_3_Ikosaeder.stl
G1 F1893.7 X-.143 Y-29.344 Z74.532 E1458.69454
G1 X3.493 Y-27.957 Z74.556 E1460.52464
G1 X25.854 Y10.986 Z74.841 E1481.64285
G1 X25.274 Y14.691 Z74.865 E1483.40644
G1 X22.406 Y16.903 Z74.888 E1485.10973
G1 X-22.356 Y16.817 Z75.171 E1506.16014
G1 X-25.185 Y14.612 Z75.194 E1507.84693
G1 X-25.706 Y10.985 Z75.217 E1509.57012
G1 X-3.385 Y-27.648 Z75.5 E1530.55262
;TIME_ELAPSED:474.002374
;LAYER:75
;note -- min layer time used
;TYPE:WALL-OUTER
;MESH:obj_3_Ikosaeder.stl
G1 F1847.3 X-.143 Y-28.964 Z75.523 E1532.19807
G1 X2.093 Y-28.154 Z75.538 E1533.31647
G1 X25.318 Y12.297 Z75.841 E1555.25203
G1 X25.032 Y14.351 Z75.855 E1556.22729
G1 X23.276 Y15.789 Z75.869 E1557.29465
G1 X-23.22 Y15.698 Z76.171 E1579.16055
G92 E0
G1 X-24.898 Y14.351 Z76.185 E1.01192
G1 X-25.175 Y12.297 Z76.199 E1.98661
G1 X-1.985 Y-27.839 Z76.5 E23.78559
;TIME_ELAPSED:479.021079
;LAYER:76
;note -- min layer time used
;TYPE:WALL-OUTER
;MESH:obj_3_Ikosaeder.stl
G1 F1800.9 X-.144 Y-28.586 Z76.513 E24.71992
G1 X0.694 Y-28.35 Z76.519 E25.12934
G1 X24.782 Y13.608 Z76.841 E47.8816
G1 X24.616 Y14.313 Z76.846 E48.22221
G1 X24.147 Y14.675 Z76.85 E48.50083
G1 X-24.086 Y14.579 Z77.172 E71.18362
G1 X-24.526 Y14.236 Z77.175 E71.44598
G1 X-24.645 Y13.609 Z77.18 E71.74611
G1 X-.584 Y-28.029 Z77.5 E94.36164
;TIME_ELAPSED:484.028290
;LAYER:77
;TYPE:WALL-OUTER
;MESH:obj_3_Ikosaeder.stl
G1 F1677.6 X-23.753 Y12.997 Z77.669 E116.51882
G1 X-.333 Y-26.968 Z77.835 E138.30237
G1 X23.141 Y13.374 Z78.002 E160.25183
G1 X-23.109 Y13.367 Z78.5 E174.38996
G1 X-0.011 Y-26.783 E180.92474
G1 X23.141 Y13.374
;TIME_ELAPSED:494.027079
G1 F1500 E174.42474
M140 S0
M107
M104 S0
M140 S0
;Retract the filament
G92 E1
G1 E-1 F300
G28 X0 Y0
M84
M82 ;absolute extrusion mode
M104 S0
;End of Gcode
;SETTING_3 {"global_quality": "[general]\\nversion = 4\\nname = CuraProfile_3mm_
;SETTING_3 2laybase_40sec\\ndefinition = custom\\n\\n[metadata]\\ntype = quality
;SETTING_3 _changes\\nquality_type = extra coarse\\nsetting_version = 25\\n\\n[v
;SETTING_3 alues]\\nadhesion_type = none\\njerk_enabled = False\\nlayer_height =
;SETTING_3  1\\nlayer_height_0 = 0.5\\nmagic_spiralize = True\\n\\n", "extruder_
;SETTING_3 quality": ["[general]\\nversion = 4\\nname = CuraProfile_3mm_2laybase
;SETTING_3 _40sec\\ndefinition = custom\\n\\n[metadata]\\ntype = quality_changes
;SETTING_3 \\nquality_type = extra coarse\\nintent_category = default\\nposition
;SETTING_3  = 0\\nsetting_version = 25\\n\\n[values]\\nbottom_layers = 2\\nbotto
;SETTING_3 m_thickness = 1.3\\ninfill_sparse_density = 0\\nline_width = 3\\nmesh
;SETTING_3 fix_maximum_resolution = 1\\nretraction_hop = 1.0\\nretraction_hop_en
;SETTING_3 abled = True\\nspeed_layer_0 = 15.0\\nspeed_print = 40.0\\nspeed_trav
;SETTING_3 el = 30.0\\nspeed_wall = 40.0\\nspeed_wall_x = 30\\ntop_bottom_thickn
;SETTING_3 ess = 0\\ntop_layers = 0\\ntravel_avoid_other_parts = False\\nwall_li
;SETTING_3 ne_count = 3\\nwall_thickness = 3.0\\n\\n"]}
