;FLAVOR:Marlin
;TIME:472
;Filament used: 7.18703m
;Layer height: 1
;MINX:-36.964
;MINY:-42.445
;MINZ:0.5
;MAXX:36.964
;MAXY:42.474
;MAXZ:64.5
;TARGET_MACHINE.NAME:Unknown
;Generated with Cura_SteamEngine 5.11.0
M140 S60
M105
M190 S60
M104 S200
M105
M109 S200
G28 ;Home
M302 S0 ;Set cold extrusion
M92 E400 ;E Steps at 400 steps/mm M92 E-400 reverse
G1 Z15.0 F6000 ;Move the platform down 15mm
;Prime the extruder
G92 E0
G1 F200 E3
G92 E0
M82 ;absolute extrusion mode
G92 E0
G92 E0
G1 F1500 E-6.5
;LAYER_COUNT:64
;LAYER:0
M107
G1 F600 Z1.5
;MESH:obj_5_Oktaeder.stl
G0 F675 X0.00 Y0.000 Z1.5
G0 X0.00 Y29.859
;TYPE:WALL-INNER
G1 F600 Z0.5
G1 F1500 E0
G1 F900 X25.858 Y-14.928 E12.16001
G1 X-25.857 Y-14.928 E24.31986
G1 X0.00 Y29.859 E36.47975
G0 F675 X0.00 Y32.738
G0 X0.00 Y35.859
G1 F900 X31.054 Y-17.928 E51.0833
G1 X-31.053 Y-17.928 E65.68664
G1 X0.00 Y35.859 E80.29008
G0 F675 X0.043 Y32.714
G0 X0.00 Y38.738
G0 X0.00 Y41.859
;TYPE:WALL-OUTER
G1 F900 X36.25 Y-20.928 E97.33718
G1 X-36.249 Y-20.928 E114.38401
G1 X0.00 Y41.859 E131.43099
G0 F675 X0.75 Y40.56
G0 X0.00 Y38.738
G0 X0.00 Y24.155
;TYPE:SKIN
G1 F900 X-20.921 Y-12.076 E141.26832
G1 X20.921 Y-12.076 E151.10671
G1 X0.00 Y24.155 E160.94403
G0 F675 X1.532 Y18.503
G1 F900 X-5.719 Y11.251 E163.35535
G1 X-6.249 Y10.721
G0 F675 X3.085 Y15.813
G1 F900 X-11.517 Y1.211 E168.21091
G1 X-12.047 Y0.681
G0 F675 X-17.315 Y-8.83
G1 F900 X4.639 Y13.124 E175.5112
G0 F675 X6.191 Y10.434
G1 F900 X-14.819 Y-10.576 E182.49759
G0 F675 X-10.576 Y-10.576
G1 F900 X7.744 Y7.744 E188.58948
G0 F675 X9.298 Y5.055
G1 F900 X-6.334 Y-10.576 E193.78737
G0 F675 X-2.091 Y-10.576
G1 F900 X10.851 Y2.365 E198.09077
G0 F675 X12.404 Y-.324
G1 F900 X2.152 Y-10.576 E201.49983
G0 F675 X6.394 Y-10.576
G1 F900 X13.957 Y-3.014 E204.01457
G0 F675 X15.51 Y-5.704
G1 F900 X10.637 Y-10.576 E205.63481
G0 F675 X14.88 Y-10.576
G1 F900 X17.063 Y-8.393 E206.36071
;MESH:NONMESH
G0 F600 X17.063 Y-8.393 Z1.5
G0 F675 X0.422 Y0.002
;TIME_ELAPSED:74.395244
;LAYER:1
M106 S255
;TYPE:WALL-INNER
;MESH:obj_5_Oktaeder.stl
G1 F1195.4 X0.21 Y-.364 E206.58534
G1 X-.213 Y-.364 E206.80999
G1 X-.424 Y0.002 E207.03436
G1 X-.212 Y0.368 E207.25899
G1 X0.211 Y0.368 E207.48364
G1 X0.422 Y0.002 E207.708
G0 F1237.5 X-0.001 Y6.389
G1 F1350 X5.531 Y-3.192 E212.91071
G1 X-5.533 Y-3.192 E218.11371
G1 X-0.001 Y6.389 E223.31643
G0 F1237.5 X-0.001 Y12.388
G1 F1350 X10.727 Y-6.192 E233.40582
G1 X-10.729 Y-6.192 E243.4958
G1 X-0.001 Y12.388 E253.5852
G0 F1237.5 X-0.001 Y18.388
G1 F1350 X15.924 Y-9.192 E268.56192
G1 X-15.926 Y-9.192 E283.53983
G1 X-0.001 Y18.388 E298.51655
G0 F1237.5 X-0.001 Y24.387
G1 F1350 X21.12 Y-12.192 E318.37995
G1 X-21.122 Y-12.192 E338.24484
G1 X-0.001 Y24.387 E358.10824
G0 F1237.5 X-0.001 Y30.387
G1 F1350 X26.317 Y-15.192 E382.85897
G1 X-26.319 Y-15.192 E407.61178
G1 X-0.001 Y30.387 E432.36251
G0 F1237.5 X0.00 Y33.268
G0 X-0.001 Y36.386
G1 F1350 X31.513 Y-18.192 E461.99992
G1 X-31.515 Y-18.192 E491.63972
G1 X-0.001 Y36.386 E521.27713
G0 F1237.5 X0.043 Y33.244
G0 X0.00 Y39.268
G0 X-0.001 Y42.386
;TYPE:WALL-OUTER
G1 F1650 X36.709 Y-21.192 E555.80163
G1 X-36.712 Y-21.192 E590.32888
G1 X-0.001 Y42.386 E624.85362
G0 F1237.5 X0.749 Y41.087
;MESH:NONMESH
G0 F600 X0.749 Y41.087 Z2.5
G0 F1237.5 X0.00 Y39.268
G0 X-34.009 Y-19.634
G0 X-36.964 Y-20.926
;TIME_ELAPSED:118.393064
;LAYER:2
;TYPE:WALL-OUTER
;MESH:obj_5_Oktaeder.stl
G1 F2400 X-36.605 Y-21.548 E625.19134
G1 X36.604 Y-21.549 E659.61889
G1 X36.964 Y-20.927 E659.95686
G1 X0.36 Y42.473 E694.38394
G1 X-.359 Y42.474 E694.72206
G1 X-36.964 Y-20.926 E729.14938
G0 F1800 X-36.711 Y-21.194
G1 F2400 X-36.605 Y-21.195 E729.19923
G1 X36.604 Y-21.312 Z2.832 E763.62718
G1 X36.761 Y-21.045 Z2.834 E763.77285
G1 X0.258 Y42.414 Z3.166 E798.20061
G1 X-.258 Y42.416 Z3.168 E798.44327
G1 X-36.964 Y-20.926 Z3.5 E832.87111
;TIME_ELAPSED:129.505266
;LAYER:3
;TYPE:WALL-OUTER
;MESH:obj_5_Oktaeder.stl
G1 X-35.993 Y-21.55 Z3.505 E833.41391
G1 X35.992 Y-21.665 Z3.832 E867.26625
G1 X36.762 Y-20.337 Z3.839 E867.98815
G1 X0.87 Y42.061 Z4.165 E901.84014
G1 X-.871 Y42.064 Z4.173 E902.65888
G1 X-36.964 Y-20.219 Z4.5 E936.51129
;TIME_ELAPSED:135.034451
;LAYER:4
;TYPE:WALL-OUTER
;MESH:obj_5_Oktaeder.stl
G1 X-35.381 Y-21.905 Z4.51 E937.59887
G1 X35.38 Y-22.019 Z4.832 E970.8756
G1 X36.764 Y-19.629 Z4.844 E972.17439
G1 X1.482 Y41.707 Z5.165 E1005.45043
G1 X-1.485 Y41.711 Z5.179 E1006.84572
G1 X-36.964 Y-19.512 Z5.5 E1040.12206
;TIME_ELAPSED:140.563316
;LAYER:5
;TYPE:WALL-OUTER
;MESH:obj_5_Oktaeder.stl
G1 X-34.768 Y-22.261 Z5.516 E1041.77668
G1 X34.767 Y-22.372 Z5.832 E1074.47686
G1 X36.766 Y-18.921 Z5.85 E1076.35236
G1 X2.095 Y41.354 Z6.165 E1109.05263
G1 X-2.099 Y41.358 Z6.184 E1111.02494
G1 X-36.964 Y-18.805 Z6.5 E1143.7252
;TIME_ELAPSED:146.092194
;LAYER:6
;TYPE:WALL-OUTER
;MESH:obj_5_Oktaeder.stl
G1 X-34.156 Y-22.616 Z6.521 E1145.95135
G1 X34.155 Y-22.726 Z6.832 E1178.07592
G1 X36.767 Y-18.213 Z6.855 E1180.52808
G1 X2.707 Y41 Z7.165 E1212.65216
G1 X-2.713 Y41.006 Z7.19 E1215.20102
G1 X-36.964 Y-18.098 Z7.5 E1247.32562
;TIME_ELAPSED:151.621122
;LAYER:7
;TYPE:WALL-OUTER
;MESH:obj_5_Oktaeder.stl
G1 X-33.544 Y-22.972 Z7.527 E1250.12569
G1 X33.543 Y-23.08 Z7.832 E1281.67465
G1 X36.769 Y-17.504 Z7.861 E1284.7041
G1 X3.319 Y40.646 Z8.165 E1316.25183
G1 X-3.327 Y40.653 Z8.195 E1319.37723
G1 X-36.964 Y-17.39 Z8.5 E1350.92535
;TIME_ELAPSED:157.150126
;LAYER:8
;TYPE:WALL-OUTER
;MESH:obj_5_Oktaeder.stl
G1 X-32.931 Y-23.328 Z8.533 E1354.30099
G1 X32.93 Y-23.433 Z8.832 E1385.2734
G1 X36.771 Y-16.796 Z8.866 E1388.87956
G1 X3.932 Y40.293 Z9.165 E1419.85151
G1 X-3.942 Y40.3 Z9.201 E1423.55441
G1 X-36.964 Y-16.683 Z9.5 E1454.52622
;TIME_ELAPSED:162.679263
;LAYER:9
;TYPE:WALL-OUTER
;MESH:obj_5_Oktaeder.stl
G1 X-32.319 Y-23.683 Z9.538 E1458.47693
G1 X32.318 Y-23.787 Z9.832 E1488.87373
G1 X36.772 Y-16.088 Z9.872 E1493.05655
G1 X4.544 Y39.939 Z10.165 E1523.45232
G1 X-4.556 Y39.948 Z10.207 E1527.73177
G1 X-36.964 Y-15.976 Z10.5 E1558.12791
;TIME_ELAPSED:168.208493
;LAYER:10
;TYPE:WALL-OUTER
;MESH:obj_5_Oktaeder.stl
G1 X-31.706 Y-24.039 Z10.544 E1562.65469
G1 X31.705 Y-24.14 Z10.832 E1592.47494
G92 E0
G1 X36.774 Y-15.38 Z10.877 E4.75954
G1 X5.157 Y39.586 Z11.165 E34.57953
G1 X-5.17 Y39.595 Z11.212 E39.436
G1 X-36.964 Y-15.269 Z11.5 E69.25607
;TIME_ELAPSED:173.746813
;LAYER:11
;TYPE:WALL-OUTER
;MESH:obj_5_Oktaeder.stl
G1 X-31.094 Y-24.394 Z11.549 E74.35848
G1 X31.093 Y-24.494 Z11.832 E103.60313
G1 X36.776 Y-14.672 Z11.883 E108.93955
G1 X5.769 Y39.232 Z12.165 E138.18359
G1 X-5.784 Y39.243 Z12.218 E143.61661
G1 X-36.964 Y-14.562 Z12.5 E172.86102
;TIME_ELAPSED:179.276283
;LAYER:12
;TYPE:WALL-OUTER
;MESH:obj_5_Oktaeder.stl
G1 X-30.482 Y-24.75 Z12.555 E178.53963
G1 X30.481 Y-24.847 Z12.832 E207.20866
G1 X36.777 Y-13.964 Z12.889 E213.12133
G1 X6.381 Y38.879 Z13.165 E241.7896
G1 X-6.397 Y38.89 Z13.223 E247.7987
G1 X-36.964 Y-13.855 Z13.5 E276.46726
;TIME_ELAPSED:184.805844
;LAYER:13
;TYPE:WALL-OUTER
;MESH:obj_5_Oktaeder.stl
G1 X-29.869 Y-25.105 Z13.56 E282.72204
G1 X29.868 Y-25.201 Z13.832 E310.81452
G1 X36.779 Y-13.256 Z13.894 E317.30432
G1 X6.994 Y38.525 Z14.165 E345.3964
G1 X-7.012 Y38.537 Z14.229 E351.98299
G1 X-36.964 Y-13.148 Z14.5 E380.07525
;TIME_ELAPSED:190.335515
;LAYER:14
;TYPE:WALL-OUTER
;MESH:obj_5_Oktaeder.stl
G1 X-29.257 Y-25.461 Z14.566 E386.90642
G1 X29.256 Y-25.554 Z14.832 E414.42329
G1 X36.781 Y-12.548 Z14.9 E421.48957
G1 X7.606 Y38.172 Z15.165 E449.00611
G1 X-7.626 Y38.185 Z15.234 E456.16925
G1 X-36.964 Y-12.441 Z15.5 E483.68584
;TIME_ELAPSED:195.865341
;LAYER:15
;TYPE:WALL-OUTER
;MESH:obj_5_Oktaeder.stl
G1 X-28.644 Y-25.816 Z15.571 E491.09332
G1 X28.643 Y-25.908 Z15.832 E518.03365
G1 X36.782 Y-11.839 Z15.905 E525.67721
G1 X8.219 Y37.818 Z16.165 E552.61693
G1 X-8.24 Y37.832 Z16.24 E560.35709
G1 X-36.964 Y-11.733 Z16.5 E587.2972
;TIME_ELAPSED:201.395220
;LAYER:16
;TYPE:WALL-OUTER
;MESH:obj_5_Oktaeder.stl
G1 X-28.032 Y-26.172 Z16.577 E595.2816
G1 X28.031 Y-26.261 Z16.832 E621.64631
G1 X36.784 Y-11.131 Z16.911 E629.86636
G1 X8.831 Y37.465 Z17.165 E656.23054
G1 X-8.854 Y37.48 Z17.246 E664.54725
G1 X-36.964 Y-11.026 Z17.5 E690.91169
;TIME_ELAPSED:206.925277
;LAYER:17
;TYPE:WALL-OUTER
;MESH:obj_5_Oktaeder.stl
G1 X-27.42 Y-26.527 Z17.583 E699.47225
G1 X27.419 Y-26.615 Z17.832 E725.26135
G1 X36.786 Y-10.423 Z17.916 E734.05829
G1 X9.443 Y37.111 Z18.165 E759.84652
G1 X-9.468 Y37.127 Z18.251 E768.73977
G1 X-36.964 Y-10.319 Z18.5 E794.52814
;TIME_ELAPSED:212.455447
;LAYER:18
;TYPE:WALL-OUTER
;MESH:obj_5_Oktaeder.stl
G1 X-26.807 Y-26.883 Z18.588 E803.66554
G1 X26.806 Y-26.969 Z18.832 E828.87809
G1 X36.788 Y-9.715 Z18.922 E838.25215
G1 X10.056 Y36.757 Z19.165 E863.4642
G1 X-10.083 Y36.774 Z19.257 E872.93494
G1 X-36.964 Y-9.612 Z19.5 E898.147
;TIME_ELAPSED:217.985754
;LAYER:19
;TYPE:WALL-OUTER
;MESH:obj_5_Oktaeder.stl
G1 X-26.195 Y-27.238 Z19.594 E907.86061
G1 X26.194 Y-27.322 Z19.832 E932.49755
G1 X36.789 Y-9.007 Z19.928 E942.44786
G1 X10.668 Y36.404 Z20.165 E967.08413
G1 X-10.696 Y36.422 Z20.262 E977.13096
G1 X-36.964 Y-8.905 Z20.5 E1001.76759
;TIME_ELAPSED:223.516159
;LAYER:20
;TYPE:WALL-OUTER
;MESH:obj_5_Oktaeder.stl
G1 X-25.583 Y-27.593 Z20.599 E1012.05743
G1 X25.582 Y-27.676 Z20.832 E1036.11877
G1 X36.791 Y-8.299 Z20.933 E1046.64596
G1 X11.28 Y36.05 Z21.165 E1070.70628
G1 X-11.31 Y36.069 Z21.268 E1081.32966
G1 X-36.964 Y-8.198 Z21.5 E1105.39021
;TIME_ELAPSED:229.046680
;LAYER:21
;TYPE:WALL-OUTER
;MESH:obj_5_Oktaeder.stl
G1 X-24.97 Y-27.949 Z21.605 E1116.25696
G1 X24.969 Y-28.029 Z21.831 E1139.74174
G1 X36.793 Y-7.591 Z21.939 E1150.84565
G1 X11.893 Y35.697 Z22.165 E1174.3302
G1 X-11.925 Y35.717 Z22.273 E1185.53107
G1 X-36.964 Y-7.491 Z22.5 E1209.01572
;TIME_ELAPSED:234.577359
;LAYER:22
;TYPE:WALL-OUTER
;MESH:obj_5_Oktaeder.stl
G1 X-24.358 Y-28.304 Z22.61 E1220.45874
G1 X24.357 Y-28.383 Z22.831 E1243.36792
G1 X36.794 Y-6.883 Z22.944 E1255.04848
G1 X12.505 Y35.343 Z23.165 E1277.95685
G1 X-12.539 Y35.364 Z23.279 E1289.73426
G1 X-36.964 Y-6.784 Z23.5 E1312.64284
;TIME_ELAPSED:240.108129
;LAYER:23
;TYPE:WALL-OUTER
;MESH:obj_5_Oktaeder.stl
G1 X-23.745 Y-28.66 Z23.616 E1324.6628
G1 X23.744 Y-28.736 Z23.831 E1346.99542
G1 X36.796 Y-6.175 Z23.95 E1359.2527
G1 X13.118 Y34.99 Z24.165 E1381.58529
G1 X-13.153 Y35.012 Z24.284 E1393.93972
G1 X-36.964 Y-6.077 Z24.5 E1416.27263
;TIME_ELAPSED:245.639046
;LAYER:24
;TYPE:WALL-OUTER
;MESH:obj_5_Oktaeder.stl
G1 X-23.133 Y-29.015 Z24.622 E1428.86889
G1 X23.132 Y-29.09 Z24.831 E1450.6259
G1 X36.798 Y-5.466 Z24.955 E1463.46047
G1 X13.73 Y34.636 Z25.165 E1485.21671
G1 X-13.767 Y34.659 Z25.29 E1498.14769
G1 X-36.964 Y-5.369 Z25.5 E1519.90413
;TIME_ELAPSED:251.170057
;LAYER:25
;TYPE:WALL-OUTER
;MESH:obj_5_Oktaeder.stl
G1 X-22.521 Y-29.371 Z25.627 E1533.0775
G1 X22.52 Y-29.443 Z25.832 E1554.2589
G1 X36.799 Y-4.758 Z25.961 E1567.66972
G92 E0
G1 X14.342 Y34.283 Z26.165 E21.18046
G1 X-14.38 Y34.307 Z26.296 E34.68753
G1 X-36.964 Y-4.662 Z26.5 E55.86853
;TIME_ELAPSED:256.710112
;LAYER:26
;TYPE:WALL-OUTER
;MESH:obj_5_Oktaeder.stl
G1 X-21.908 Y-29.726 Z26.633 E69.61846
G1 X21.907 Y-29.797 Z26.831 E90.22331
G1 X36.801 Y-4.05 Z26.966 E104.21125
G1 X14.955 Y33.929 Z27.165 E124.81553
G1 X-14.995 Y33.954 Z27.301 E138.90008
G1 X-36.964 Y-3.955 Z27.5 E159.50477
;TIME_ELAPSED:262.241383
;LAYER:27
;TYPE:WALL-OUTER
;MESH:obj_5_Oktaeder.stl
G1 X-21.296 Y-30.082 Z27.638 E173.83143
G1 X21.295 Y-30.15 Z27.831 E193.86068
G1 X36.803 Y-3.342 Z27.972 E208.4251
G1 X15.567 Y33.576 Z28.165 E228.45383
G1 X-15.609 Y33.602 Z28.307 E243.11494
G1 X-36.964 Y-3.248 Z28.5 E263.14396
;TIME_ELAPSED:267.772814
;LAYER:28
;TYPE:WALL-OUTER
;MESH:obj_5_Oktaeder.stl
G1 X-20.683 Y-30.437 Z28.644 E278.0472
G1 X20.682 Y-30.504 Z28.831 E297.49989
G1 X36.804 Y-2.634 Z28.978 E312.6412
G1 X16.18 Y33.222 Z29.165 E332.09352
G1 X-16.224 Y33.249 Z29.312 E347.33211
G1 X-36.964 Y-2.541 Z29.5 E366.78483
;TIME_ELAPSED:273.304338
;LAYER:29
;TYPE:WALL-OUTER
;MESH:obj_5_Oktaeder.stl
G1 X-20.071 Y-30.793 Z29.649 E382.26481
G1 X20.07 Y-30.857 Z29.831 E401.14189
G1 X36.806 Y-1.926 Z29.983 E416.85968
G1 X16.792 Y32.869 Z30.165 E435.73646
G1 X-16.837 Y32.897 Z30.318 E451.55113
G1 X-36.964 Y-1.834 Z30.5 E470.42842
;TIME_ELAPSED:278.836008
;LAYER:30
;TYPE:WALL-OUTER
;MESH:obj_5_Oktaeder.stl
G1 X-19.459 Y-31.148 Z30.655 E486.48474
G1 X19.458 Y-31.211 Z30.831 E504.78621
G1 X36.808 Y-1.218 Z30.989 E521.08089
G1 X17.404 Y32.515 Z31.165 E539.38172
G1 X-17.451 Y32.544 Z31.323 E555.77294
G1 X-36.964 Y-1.127 Z31.5 E574.07416
;TIME_ELAPSED:284.367796
;LAYER:31
;TYPE:WALL-OUTER
;MESH:obj_5_Oktaeder.stl
G1 X-18.846 Y-31.504 Z31.66 E590.70748
G1 X18.845 Y-31.565 Z31.831 E608.4324
G1 X36.81 Y-.51 Z31.994 E625.3042
G1 X18.017 Y32.161 Z32.165 E643.02885
G1 X-18.066 Y32.191 Z32.329 E659.99756
G1 X-36.964 Y-.42 Z32.5 E677.72246
;TIME_ELAPSED:289.899722
;LAYER:32
;TYPE:WALL-OUTER
;MESH:obj_5_Oktaeder.stl
G1 X-18.234 Y-31.86 Z32.666 E694.93254
G1 X18.233 Y-31.918 Z32.831 E712.08185
G1 X36.811 Y0.198 Z33 E729.5299
G1 X18.629 Y31.808 Z33.165 E746.67877
G1 X-18.679 Y31.839 Z33.335 E764.22356
G1 X-36.964 Y0.287 Z33.5 E781.37303
;TIME_ELAPSED:295.431771
;LAYER:33
;TYPE:WALL-OUTER
;MESH:obj_5_Oktaeder.stl
G1 X-17.622 Y-32.215 Z33.672 E799.15947
G1 X17.621 Y-32.272 Z33.831 E815.73317
G1 X36.813 Y0.907 Z34.005 E833.75851
G1 X19.241 Y31.454 Z34.165 E850.33103
G1 X-19.293 Y31.486 Z34.34 E868.45237
G1 X-36.964 Y0.995 Z34.5 E885.02536
;TIME_ELAPSED:300.963916
;LAYER:34
;TYPE:WALL-OUTER
;MESH:obj_5_Oktaeder.stl
G1 X-17.009 Y-32.571 Z34.677 E903.38921
G1 X17.008 Y-32.625 Z34.831 E919.38636
G1 X36.815 Y1.615 Z35.011 E937.98842
G1 X19.854 Y31.101 Z35.165 E953.98516
G1 X-19.908 Y31.134 Z35.346 E972.684
G1 X-36.964 Y1.702 Z35.5 E988.68108
;TIME_ELAPSED:306.496243
;LAYER:35
;TYPE:WALL-OUTER
;MESH:obj_5_Oktaeder.stl
G1 X-16.397 Y-32.926 Z35.683 E1007.6213
G1 X16.396 Y-32.979 Z35.831 E1023.04284
G1 X36.816 Y2.323 Z36.017 E1042.22155
G1 X20.466 Y30.747 Z36.165 E1057.64211
G1 X-20.522 Y30.781 Z36.351 E1076.91749
G1 X-36.964 Y2.409 Z36.5 E1092.3385
;TIME_ELAPSED:312.028662
;LAYER:36
;TYPE:WALL-OUTER
;MESH:obj_5_Oktaeder.stl
G1 X-15.784 Y-33.282 Z36.688 E1111.85573
G1 X15.783 Y-33.332 Z36.831 E1126.70072
G1 X36.818 Y3.031 Z37.022 E1146.45615
G1 X21.079 Y30.394 Z37.165 E1161.30093
G1 X-21.136 Y30.429 Z37.357 E1181.15333
G1 X-36.964 Y3.116 Z37.5 E1195.99868
;TIME_ELAPSED:317.561229
;LAYER:37
;TYPE:WALL-OUTER
;MESH:obj_5_Oktaeder.stl
G1 X-15.172 Y-33.637 Z37.694 E1216.09228
G1 X15.171 Y-33.686 Z37.831 E1230.36166
G1 X36.82 Y3.739 Z38.028 E1250.69398
G1 X21.691 Y30.04 Z38.165 E1264.96281
G1 X-21.75 Y30.076 Z38.362 E1285.39176
G1 X-36.964 Y3.823 Z38.5 E1299.66104
;TIME_ELAPSED:323.093914
;LAYER:38
;TYPE:WALL-OUTER
;MESH:obj_5_Oktaeder.stl
G1 X-14.56 Y-33.993 Z38.699 E1320.33142
G1 X14.559 Y-34.039 Z38.831 E1334.02519
G1 X36.821 Y4.447 Z39.033 E1354.93375
G1 X22.303 Y29.687 Z39.165 E1368.62681
G1 X-22.364 Y29.724 Z39.368 E1389.63231
G1 X-36.964 Y4.53 Z39.5 E1403.32591
;TIME_ELAPSED:328.626734
;LAYER:39
;TYPE:WALL-OUTER
;MESH:obj_5_Oktaeder.stl
G1 X-13.947 Y-34.348 Z39.705 E1424.57291
G1 X13.946 Y-34.393 Z39.831 E1437.69013
G1 X36.823 Y5.155 Z40.039 E1459.17581
G1 X22.916 Y29.333 Z40.165 E1472.29269
G1 X-22.978 Y29.371 Z40.373 E1493.87521
G1 X-36.964 Y5.237 Z40.5 E1506.99274
;TIME_ELAPSED:334.159660
;LAYER:40
;TYPE:WALL-OUTER
;MESH:obj_5_Oktaeder.stl
G1 X-13.335 Y-34.703 Z40.711 E1528.81612
G1 X13.334 Y-34.746 Z40.831 E1541.35773
G1 X36.825 Y5.862 Z41.044 E1563.41949
G1 X23.528 Y28.98 Z41.165 E1575.96123
G92 E0
G1 X-23.592 Y29.019 Z41.379 E22.15907
G1 X-36.964 Y5.944 Z41.5 E34.70094
;TIME_ELAPSED:339.701620
;LAYER:41
;TYPE:WALL-OUTER
;MESH:obj_5_Oktaeder.stl
G1 X-12.722 Y-35.059 Z41.716 E57.10134
G1 X12.721 Y-35.1 Z41.831 E69.0664
G1 X36.827 Y6.571 Z42.05 E91.70569
G1 X24.141 Y28.626 Z42.165 E103.67084
G1 X-24.207 Y28.666 Z42.385 E126.4074
G1 X-36.964 Y6.652 Z42.5 E138.37255
;TIME_ELAPSED:345.234803
;LAYER:42
;TYPE:WALL-OUTER
;MESH:obj_5_Oktaeder.stl
G1 X-12.11 Y-35.415 Z42.722 E161.35014
G1 X12.109 Y-35.454 Z42.831 E172.73959
G1 X36.828 Y7.279 Z43.055 E195.95553
G1 X24.753 Y28.272 Z43.165 E207.3445
G1 X-24.82 Y28.313 Z43.39 E230.65714
G1 X-36.964 Y7.359 Z43.5 E242.04645
;TIME_ELAPSED:350.768108
;LAYER:43
;TYPE:WALL-OUTER
;MESH:obj_5_Oktaeder.stl
G1 X-11.498 Y-35.77 Z43.727 E265.60043
G1 X11.497 Y-35.807 Z43.831 E276.41427
G1 X36.83 Y7.987 Z44.061 E300.20669
G1 X25.365 Y27.919 Z44.165 E311.02012
G1 X-25.434 Y27.961 Z44.396 E334.90931
G1 X-36.964 Y8.066 Z44.5 E345.72295
;TIME_ELAPSED:356.301553
;LAYER:44
;TYPE:WALL-OUTER
;MESH:obj_5_Oktaeder.stl
G1 X-10.885 Y-36.126 Z44.733 E369.85396
G1 X10.884 Y-36.161 Z44.831 E380.09125
G1 X36.832 Y8.695 Z45.067 E404.4608
G1 X25.978 Y27.565 Z45.165 E414.69804
G1 X-26.049 Y27.608 Z45.401 E439.16472
G1 X-36.964 Y8.773 Z45.5 E449.40206
;TIME_ELAPSED:361.835137
;LAYER:45
;TYPE:WALL-OUTER
;MESH:obj_5_Oktaeder.stl
G1 X-10.273 Y-36.481 Z45.738 E474.10945
G1 X10.272 Y-36.514 Z45.831 E483.77113
G1 X36.833 Y9.403 Z46.072 E508.71692
G1 X26.59 Y27.212 Z46.165 E518.37839
G1 X-26.662 Y27.256 Z46.407 E543.42115
G1 X-36.964 Y9.48 Z46.5 E553.08306
;TIME_ELAPSED:367.368823
;LAYER:46
;TYPE:WALL-OUTER
;MESH:obj_5_Oktaeder.stl
G1 X-9.661 Y-36.836 Z46.744 E578.36684
G1 X9.66 Y-36.868 Z46.831 E587.45291
G1 X36.835 Y10.111 Z47.078 E612.97559
G1 X27.202 Y26.858 Z47.165 E622.06111
G1 X-27.276 Y26.903 Z47.412 E647.68042
G1 X-36.964 Y10.187 Z47.5 E656.76625
;TIME_ELAPSED:372.902626
;LAYER:47
;TYPE:WALL-OUTER
;MESH:obj_5_Oktaeder.stl
G1 X-9.048 Y-37.192 Z47.749 E682.62707
G1 X9.047 Y-37.221 Z47.831 E691.13659
G1 X36.837 Y10.819 Z48.083 E717.23598
G1 X27.815 Y26.505 Z48.165 E725.74573
G1 X-27.891 Y26.551 Z48.418 E751.94253
G1 X-36.964 Y10.894 Z48.5 E760.45246
;TIME_ELAPSED:378.436591
;LAYER:48
;TYPE:WALL-OUTER
;MESH:obj_5_Oktaeder.stl
G1 X-8.436 Y-37.547 Z48.755 E786.88966
G1 X8.435 Y-37.575 Z48.831 E794.82358
G1 X36.838 Y11.527 Z49.089 E821.49962
G1 X28.427 Y26.151 Z49.165 E829.43318
G1 X-28.505 Y26.198 Z49.423 E856.20653
G1 X-36.964 Y11.601 Z49.5 E864.14039
;TIME_ELAPSED:383.970649
;LAYER:49
;TYPE:WALL-OUTER
;MESH:obj_5_Oktaeder.stl
G1 X-7.823 Y-37.903 Z49.761 E891.15463
G1 X7.822 Y-37.928 Z49.831 E898.512
G1 X36.84 Y12.235 Z50.094 E925.76475
G1 X29.04 Y25.798 Z50.165 E933.12254
G1 X-29.119 Y25.845 Z50.429 E960.47291
G1 X-36.964 Y12.308 Z50.5 E967.83069
;TIME_ELAPSED:389.504833
;LAYER:50
;TYPE:WALL-OUTER
;MESH:obj_5_Oktaeder.stl
G1 X-7.211 Y-38.258 Z50.766 E995.42133
G1 X7.21 Y-38.282 Z50.831 E1002.20308
G1 X36.842 Y12.944 Z51.1 E1030.03314
G1 X29.652 Y25.444 Z51.165 E1036.81457
G1 X-29.733 Y25.493 Z51.435 E1064.74149
G1 X-36.964 Y13.016 Z51.5 E1071.5232
;TIME_ELAPSED:395.039135
;LAYER:51
;TYPE:WALL-OUTER
;MESH:obj_5_Oktaeder.stl
G1 X-6.599 Y-38.614 Z51.772 E1099.69104
G1 X6.598 Y-38.635 Z51.831 E1105.89718
G1 X36.843 Y13.652 Z52.105 E1134.30348
G1 X30.264 Y25.091 Z52.165 E1140.50914
G1 X-30.347 Y25.14 Z52.44 E1169.01261
G1 X-36.964 Y13.723 Z52.5 E1175.21824
;TIME_ELAPSED:400.573573
;LAYER:52
;TYPE:WALL-OUTER
;MESH:obj_5_Oktaeder.stl
G1 X-5.986 Y-38.969 Z52.777 E1203.96272
G1 X5.985 Y-38.989 Z52.831 E1209.59231
G1 X36.845 Y14.36 Z53.111 E1238.57573
G1 X30.877 Y24.737 Z53.165 E1244.20521
G1 X-30.961 Y24.787 Z53.446 E1273.2857
G1 X-36.964 Y14.43 Z53.5 E1278.91526
;TIME_ELAPSED:406.108116
;LAYER:53
;TYPE:WALL-OUTER
;MESH:obj_5_Oktaeder.stl
G1 X-5.374 Y-39.325 Z53.783 E1308.23654
G1 X5.373 Y-39.343 Z53.831 E1313.29052
G1 X36.847 Y15.068 Z54.117 E1342.85083
G1 X31.489 Y24.383 Z54.165 E1347.90436
G1 X-31.575 Y24.434 Z54.451 E1377.56139
G1 X-36.964 Y15.137 Z54.5 E1382.61488
;TIME_ELAPSED:411.642799
;LAYER:54
;TYPE:WALL-OUTER
;MESH:obj_5_Oktaeder.stl
G1 X-4.761 Y-39.681 Z54.788 E1412.5132
G1 X4.76 Y-39.696 Z54.831 E1416.99063
G1 X36.849 Y15.776 Z55.122 E1447.12766
G1 X32.102 Y24.03 Z55.165 E1451.60541
G1 X-32.19 Y24.082 Z55.457 E1481.83994
G1 X-36.964 Y15.844 Z55.5 E1486.31752
;TIME_ELAPSED:417.177643
;LAYER:55
;TYPE:WALL-OUTER
;MESH:obj_5_Oktaeder.stl
G1 X-4.149 Y-40.036 Z55.794 E1516.79224
G1 X4.148 Y-40.05 Z55.831 E1520.69406
G1 X36.85 Y16.484 Z56.128 E1551.40774
G1 X32.714 Y23.676 Z56.165 E1555.30931
G1 X-32.804 Y23.729 Z56.462 E1586.12039
G92 E0
G1 X-36.964 Y16.551 Z56.5 E3.90151
;TIME_ELAPSED:422.714082
;LAYER:56
;TYPE:WALL-OUTER
;MESH:obj_5_Oktaeder.stl
G1 X-3.537 Y-40.392 Z56.799 E34.95303
G1 X3.536 Y-40.403 Z56.831 E38.27925
G1 X36.852 Y17.192 Z57.133 E69.5694
G1 X33.326 Y23.323 Z57.165 E72.89543
G1 X-33.417 Y23.377 Z57.468 E104.28259
G1 X-36.964 Y17.258 Z57.5 E107.60867
;TIME_ELAPSED:428.249167
;LAYER:57
;TYPE:WALL-OUTER
;MESH:obj_5_Oktaeder.stl
G1 X-2.924 Y-40.747 Z57.805 E139.23683
G1 X2.923 Y-40.757 Z57.831 E141.98649
G1 X36.854 Y17.9 Z58.139 E173.85377
G1 X33.939 Y22.969 Z58.165 E176.60362
G1 X-34.032 Y23.024 Z58.473 E208.56826
G1 X-36.964 Y17.965 Z58.5 E211.31803
;TIME_ELAPSED:433.784370
;LAYER:58
;TYPE:WALL-OUTER
;MESH:obj_5_Oktaeder.stl
G1 X-2.312 Y-41.103 Z58.811 E243.523
G1 X2.311 Y-41.11 Z58.831 E245.69705
G1 X36.855 Y18.609 Z59.144 E278.14098
G1 X34.551 Y22.616 Z59.165 E280.31465
G1 X-34.646 Y22.672 Z59.479 E312.85584
G1 X-36.964 Y18.673 Z59.5 E315.02954
;TIME_ELAPSED:439.319688
;LAYER:59
;TYPE:WALL-OUTER
;MESH:obj_5_Oktaeder.stl
G1 X-1.7 Y-41.458 Z59.816 E347.81131
G1 X1.699 Y-41.464 Z59.831 E349.40975
G1 X36.857 Y19.317 Z60.15 E382.43057
G1 X35.163 Y22.262 Z60.165 E384.02829
G1 X-35.259 Y22.319 Z60.485 E417.14557
G1 X-36.964 Y19.38 Z60.5 E418.74342
;TIME_ELAPSED:444.855131
;LAYER:60
;TYPE:WALL-OUTER
;MESH:obj_5_Oktaeder.stl
G1 X-1.087 Y-41.814 Z60.822 E452.10224
G1 X1.086 Y-41.817 Z60.831 E453.12413
G1 X36.859 Y20.025 Z61.155 E486.72167
G1 X35.776 Y21.909 Z61.165 E487.74361
G1 X-35.874 Y21.967 Z61.49 E521.43837
G1 X-36.964 Y20.087 Z61.5 E522.46033
;TIME_ELAPSED:450.390737
;LAYER:61
;TYPE:WALL-OUTER
;MESH:obj_5_Oktaeder.stl
G1 X-.475 Y-42.169 Z61.827 E556.39554
G1 X0.474 Y-42.171 Z61.831 E556.84183
G1 X36.86 Y20.733 Z62.161 E591.01602
G1 X36.388 Y21.555 Z62.165 E591.46178
G1 X-36.488 Y21.614 Z62.496 E625.73309
G1 X-36.964 Y20.794 Z62.5 E626.17897
;TIME_ELAPSED:455.926433
;LAYER:62
;TYPE:WALL-OUTER
;MESH:obj_5_Oktaeder.stl
G1 X0.00 Y-42.445 Z62.832 E660.62599
G1 X36.793 Y21.242 Z63.166 E695.21475
G1 X-36.826 Y21.262 Z63.5 E729.83547
;TIME_ELAPSED:461.456477
;LAYER:63
;TYPE:WALL-OUTER
;MESH:obj_5_Oktaeder.stl
G1 X0.203 Y-41.933 Z63.668 E764.2798
G1 X36.315 Y20.848 Z63.835 E798.33924
G1 X-36.213 Y20.908 Z64.001 E832.44664
G1 X0.00 Y-41.815 Z64.5 E854.5858
G1 X36.213 Y20.907 E864.80351
G1 X-36.213 Y20.908
;TIME_ELAPSED:472.378111
G1 F1500 E858.30351
M140 S0
M107
M104 S0
M140 S0
;Retract the filament
G92 E1
G1 E-1 F300
G28 X0 Y0
M84
M82 ;absolute extrusion mode
M104 S0
;End of Gcode
;SETTING_3 {"global_quality": "[general]\\nversion = 4\\nname = CuraProfile_3mm_
;SETTING_3 2laybase_40sec\\ndefinition = custom\\n\\n[metadata]\\ntype = quality
;SETTING_3 _changes\\nquality_type = extra coarse\\nsetting_version = 25\\n\\n[v
;SETTING_3 alues]\\nadhesion_type = none\\njerk_enabled = False\\nlayer_height =
;SETTING_3  1\\nlayer_height_0 = 0.5\\nmagic_spiralize = True\\n\\n", "extruder_
;SETTING_3 quality": ["[general]\\nversion = 4\\nname = CuraProfile_3mm_2laybase
;SETTING_3 _40sec\\ndefinition = custom\\n\\n[metadata]\\ntype = quality_changes
;SETTING_3 \\nquality_type = extra coarse\\nintent_category = default\\nposition
;SETTING_3  = 0\\nsetting_version = 25\\n\\n[values]\\nbottom_layers = 2\\nbotto
;SETTING_3 m_thickness = 1.3\\ninfill_sparse_density = 0\\nline_width = 3\\nmesh
;SETTING_3 fix_maximum_resolution = 1\\nretraction_hop = 1.0\\nretraction_hop_en
;SETTING_3 abled = True\\nspeed_layer_0 = 15.0\\nspeed_print = 40.0\\nspeed_trav
;SETTING_3 el = 30.0\\nspeed_wall = 40.0\\nspeed_wall_x = 30\\ntop_bottom_thickn
;SETTING_3 ess = 0\\ntop_layers = 0\\ntravel_avoid_other_parts = False\\nwall_li
;SETTING_3 ne_count = 3\\nwall_thickness = 3.0\\n\\n"]}
