;FLAVOR:Marlin
;TIME:484
;Filament used: 7.6714m
;Layer height: 1
;MINX:-40.612
;MINY:-42.645
;MINZ:0.5
;MAXX:40.766
;MAXY:42.911
;MAXZ:73.5
;TARGET_MACHINE.NAME:Unknown
;Generated with Cura_SteamEngine 5.11.0
M140 S60
M105
M190 S60
M104 S200
M105
M109 S200
G28 ;Home
M302 S0 ;Set cold extrusion
M92 E400 ;E Steps at 400 steps/mm M92 E-400 reverse
G1 Z15.0 F6000 ;Move the platform down 15mm
;Prime the extruder
G92 E0
G1 F200 E3
G92 E0
M82 ;absolute extrusion mode
G92 E0
G92 E0
G1 F1500 E-6.5
;LAYER_COUNT:73
;LAYER:0
M107
G1 F600 Z1.5
;MESH:obj_1_Dodekaeder.stl
G0 F675 X0.00 Y0.000 Z1.5
G0 X0.00 Y18.461
;TYPE:WALL-INNER
G1 F600 Z0.5
G1 F1500 E0
G1 F900 X17.558 Y5.703 E5.10323
G1 X10.85 Y-14.935 E10.20578
G1 X-10.85 Y-14.935 E15.30814
G1 X-17.558 Y5.703 E20.41069
G1 X0.00 Y18.461 E25.51392
G0 F675 X0.001 Y20.205
G0 X0.00 Y22.169
G1 F900 X21.085 Y6.849 E31.64216
G1 X13.03 Y-17.935 E37.76973
G1 X-13.03 Y-17.935 E43.89727
G1 X-21.085 Y6.849 E50.02484
G1 X0.00 Y22.169 E56.15308
G0 F675 X-0.009 Y20.19
G0 X0.00 Y23.913
G0 X0.00 Y25.877
;TYPE:WALL-OUTER
G1 F900 X24.612 Y7.995 E63.30633
G1 X15.21 Y-20.935 E70.45892
G1 X-15.21 Y-20.935 E77.61163
G1 X-24.612 Y7.995 E84.76421
G1 X0.00 Y25.877 E91.91747
G0 F675 X1.213 Y24.996
G0 X0.269 Y23.695
G0 X0.00 Y14.937
;TYPE:SKIN
G1 F900 X-14.204 Y4.615 E96.04601
G1 X-8.778 Y-12.083 E100.17433
G1 X8.778 Y-12.083 E104.30231
G1 X14.204 Y4.615 E108.43063
G1 X0.00 Y14.937 E112.55917
G0 F675 X-11.52 Y1.208
G1 F900 X0.205 Y12.933 E116.45805
G0 F675 X2.662 Y11.148
G1 F900 X-10.48 Y-1.995 E120.82828
G0 F675 X-9.439 Y-5.197
G1 F900 X5.119 Y9.362 E125.66937
G0 F675 X7.577 Y7.577
G1 F900 X-8.399 Y-8.399 E130.98182
G0 F675 X-6.341 Y-10.583
G1 F900 X10.033 Y5.79 E136.42645
G0 F675 X12.4 Y3.915
G1 F900 X-2.098 Y-10.583 E141.24742
G0 F675 X2.145 Y-10.583
G1 F900 X10.358 Y-2.37 E143.97846
G1 X10.888 Y-1.84
G0 F675 X8.315 Y-8.656
G1 F900 X6.387 Y-10.583 E144.61941
;MESH:NONMESH
G0 F600 X6.387 Y-10.583 Z1.5
G0 F675 X0.452 Y0.00
;TIME_ELAPSED:53.027716
;LAYER:1
M106 S255
;TYPE:WALL-INNER
;MESH:obj_1_Dodekaeder.stl
G1 F1118.2 X0.226 Y-.391 E144.87582
G1 X-.226 Y-.391 E145.13245
G1 X-.452 Y0.00 E145.38886
G1 X-.226 Y0.391 E145.64527
G1 X0.226 Y0.391 E145.9019
G1 X0.452 Y0.00 E146.15832
G0 F1237.5 X0.00 Y4.092
G1 F1350 X3.892 Y1.264 E148.42073
G1 X2.405 Y-3.311 E150.68298
G1 X-2.405 Y-3.31 E152.94495
G1 X-3.892 Y1.264 E155.20675
G1 X0.00 Y4.092 E157.46917
G0 F1237.5 X0.00 Y7.8
G1 F1350 X7.419 Y2.41 E161.78161
G1 X4.584 Y-6.311 E166.09404
G1 X-4.584 Y-6.31 E170.40542
G1 X-7.419 Y2.41 E174.7174
G1 X0.00 Y7.8 E179.02984
G0 F1237.5 X0.00 Y11.509
G1 F1350 X10.945 Y3.556 E185.3922
G1 X6.764 Y-9.311 E191.75452
G1 X-6.764 Y-9.309 E198.11625
G1 X-10.945 Y3.556 E204.47767
G1 X0.00 Y11.509 E210.84003
G0 F1237.5 X0.00 Y15.217
G1 F1350 X14.472 Y4.701 E219.2527
G1 X8.943 Y-12.311 E227.66474
G1 X-8.943 Y-12.309 E236.07589
G1 X-14.472 Y4.701 E244.48704
G1 X0.00 Y15.217 E252.8997
G0 F1237.5 X0.00 Y18.925
G1 F1350 X17.999 Y5.847 E263.3624
G1 X11.123 Y-15.311 E273.82448
G1 X-11.123 Y-15.308 E284.28597
G1 X-17.999 Y5.847 E294.74671
G1 X0.00 Y18.925 E305.2094
G0 F1237.5 X0.001 Y20.669
G0 X0.00 Y22.633
G1 F1350 X21.525 Y6.993 E317.72173
G1 X13.302 Y-18.311 E330.23385
G1 X-13.302 Y-18.308 E342.74475
G1 X-21.525 Y6.993 E355.25552
G1 X0.00 Y22.633 E367.76786
G0 F1237.5 X-0.009 Y20.654
G0 X0.00 Y24.377
G0 X0.00 Y26.341
;TYPE:WALL-OUTER
G1 F1650 X25.052 Y8.139 E382.33022
G1 X15.482 Y-21.311 E396.89237
G1 X-15.482 Y-21.308 E411.45362
G1 X-25.052 Y8.139 E426.01443
G1 X0.00 Y26.341 E440.57679
G0 F1237.5 X1.213 Y25.46
;MESH:NONMESH
G0 F600 X1.213 Y25.46 Z2.5
G0 F1237.5 X0.269 Y24.159
G0 X0.00 Y26.96
;TIME_ELAPSED:81.740539
;LAYER:2
;TYPE:WALL-OUTER
;MESH:obj_1_Dodekaeder.stl
G1 F2400 X-25.64 Y8.331 E455.48089
G1 X-15.846 Y-21.811 E470.38508
G1 X15.847 Y-21.812 E485.28916
G1 X25.641 Y8.332 E500.19425
G1 X0.00 Y26.96 E515.09845
G0 F1800 X0.00 Y26.342
G1 F2400 X-25.169 Y8.178 Z2.698 E529.69519
G1 X-15.628 Y-21.51 Z2.897 E544.35994
G1 X15.701 Y-21.612 Z3.097 E559.09322
G1 X25.523 Y8.294 Z3.298 E573.89631
G1 X0.00 Y26.96 Z3.5 E588.7665
;TIME_ELAPSED:89.684433
;LAYER:3
;note -- min layer time used
;TYPE:WALL-OUTER
;MESH:obj_1_Dodekaeder.stl
G1 F1923.4 X-25.757 Y8.369 Z3.698 E603.70497
G1 X-15.991 Y-22.01 Z3.897 E618.71146
G1 X16.065 Y-22.112 Z4.097 E633.78661
G1 X26.111 Y8.485 Z4.298 E648.93129
G1 X0.00 Y27.578 Z4.5 E664.1432
;TIME_ELAPSED:94.698991
;LAYER:4
;note -- min layer time used
;TYPE:WALL-OUTER
;MESH:obj_1_Dodekaeder.stl
G1 F1967 X-26.345 Y8.56 Z4.698 E679.42339
G1 X-16.355 Y-22.51 Z4.897 E694.77147
G1 X16.428 Y-22.612 Z5.097 E710.1885
G1 X26.699 Y8.676 Z5.298 E725.67492
G1 X0.00 Y28.196 Z5.5 E741.22856
;TIME_ELAPSED:99.714252
;LAYER:5
;note -- min layer time used
;TYPE:WALL-OUTER
;MESH:obj_1_Dodekaeder.stl
G1 F2010.6 X-26.933 Y8.751 Z5.698 E756.85048
G1 X-16.718 Y-23.01 Z5.897 E772.5403
G1 X16.791 Y-23.112 Z6.097 E788.29872
G1 X27.287 Y8.867 Z6.298 E804.12688
G1 X0.00 Y28.814 Z6.5 E820.02224
;TIME_ELAPSED:104.730226
;LAYER:6
;note -- min layer time used
;TYPE:WALL-OUTER
;MESH:obj_1_Dodekaeder.stl
G1 F2054.2 X-27.52 Y8.942 Z6.698 E835.98551
G1 X-17.081 Y-23.51 Z6.897 E852.01692
G1 X17.155 Y-23.612 Z7.097 E868.11722
G1 X27.874 Y9.058 Z7.298 E884.28682
G1 X0.00 Y29.432 Z7.5 E900.52354
;TIME_ELAPSED:109.746920
;LAYER:7
;note -- min layer time used
;TYPE:WALL-OUTER
;MESH:obj_1_Dodekaeder.stl
G1 F2097.8 X-28.108 Y9.133 Z7.698 E916.82853
G1 X-17.445 Y-24.01 Z7.897 E933.20154
G1 X17.519 Y-24.112 Z8.098 E949.64418
G1 X28.462 Y9.249 Z8.298 E966.15538
G1 X0.00 Y30.05 Z8.5 E982.73381
;TIME_ELAPSED:114.764342
;LAYER:8
;note -- min layer time used
;TYPE:WALL-OUTER
;MESH:obj_1_Dodekaeder.stl
G1 F2141.4 X-28.696 Y9.324 Z8.698 E999.38054
G1 X-17.808 Y-24.51 Z8.898 E1016.09528
G1 X17.882 Y-24.612 Z9.098 E1032.87933
G1 X29.05 Y9.44 Z9.298 E1049.73226
G1 X0.00 Y30.668 Z9.5 E1066.65243
;TIME_ELAPSED:119.782501
;LAYER:9
;note -- min layer time used
;TYPE:WALL-OUTER
;MESH:obj_1_Dodekaeder.stl
G1 F2185 X-29.284 Y9.515 Z9.698 E1083.64088
G1 X-18.171 Y-25.01 Z9.898 E1100.69736
G1 X18.245 Y-25.112 Z10.098 E1117.82282
G1 X29.638 Y9.631 Z10.298 E1135.01748
G1 X0.00 Y31.286 Z10.5 E1152.27938
;TIME_ELAPSED:124.801402
;LAYER:10
;note -- min layer time used
;TYPE:WALL-OUTER
;MESH:obj_1_Dodekaeder.stl
G1 F2228.6 X-29.872 Y9.706 Z10.698 E1169.60956
G1 X-18.534 Y-25.51 Z10.898 E1187.00778
G1 X18.608 Y-25.612 Z11.098 E1204.47464
G1 X30.226 Y9.822 Z11.298 E1222.01105
G1 X0.00 Y31.904 Z11.5 E1239.61467
;TIME_ELAPSED:129.821053
;LAYER:11
;note -- min layer time used
;TYPE:WALL-OUTER
;MESH:obj_1_Dodekaeder.stl
G1 F2272.1 X-30.46 Y9.897 Z11.698 E1257.28658
G1 X-18.898 Y-26.01 Z11.898 E1275.02639
G1 X18.972 Y-26.112 Z12.098 E1292.8356
G1 X30.813 Y10.013 Z12.298 E1310.71345
G1 X0.00 Y32.522 Z12.5 E1328.65842
;TIME_ELAPSED:134.841460
;LAYER:12
;note -- min layer time used
;TYPE:WALL-OUTER
;MESH:obj_1_Dodekaeder.stl
G1 F2315.7 X-31.047 Y10.088 Z12.698 E1346.67168
G1 X-19.261 Y-26.51 Z12.898 E1364.75309
G1 X19.335 Y-26.612 Z13.098 E1382.9037
G1 X31.401 Y10.204 Z13.298 E1401.12329
G1 X0.00 Y33.141 Z13.5 E1419.41027
;TIME_ELAPSED:139.862627
;LAYER:13
;note -- min layer time used
;TYPE:WALL-OUTER
;MESH:obj_1_Dodekaeder.stl
G1 F2359.3 X-31.635 Y10.279 Z13.699 E1437.76553
G1 X-19.624 Y-27.01 Z13.898 E1456.18867
G1 X19.698 Y-27.112 Z14.098 E1474.68069
G1 X31.989 Y10.395 Z14.299 E1493.24203
G1 X0.00 Y33.759 Z14.5 E1511.87073
;TIME_ELAPSED:144.885117
;LAYER:14
;TYPE:WALL-OUTER
;MESH:obj_1_Dodekaeder.stl
G1 F2400 X-32.223 Y10.47 Z14.699 E1530.56772
G1 X-19.988 Y-27.51 Z14.898 E1549.33246
G1 X20.062 Y-27.612 Z15.098 E1568.16683
G92 E0
G1 X32.577 Y10.586 Z15.299 E18.90293
G1 X0.00 Y34.377 Z15.5 E37.87336
;TIME_ELAPSED:149.921772
;LAYER:15
;TYPE:WALL-OUTER
;MESH:obj_1_Dodekaeder.stl
G1 X-32.811 Y10.661 Z15.699 E56.91208
G1 X-20.351 Y-28.01 Z15.898 E76.01856
G1 X20.425 Y-28.112 Z16.098 E95.19433
G1 X33.165 Y10.777 Z16.299 E114.439
G1 X0.00 Y34.995 Z16.5 E133.75116
;TIME_ELAPSED:155.041385
;LAYER:16
;TYPE:WALL-OUTER
;MESH:obj_1_Dodekaeder.stl
G1 X-33.399 Y10.852 Z16.699 E153.13161
G1 X-20.714 Y-28.51 Z16.898 E172.57983
G1 X20.788 Y-28.612 Z17.098 E192.09701
G1 X33.752 Y10.968 Z17.299 E211.68327
G1 X0.00 Y35.613 Z17.5 E231.33678
;TIME_ELAPSED:160.251789
;LAYER:17
;TYPE:WALL-OUTER
;MESH:obj_1_Dodekaeder.stl
G1 X-33.986 Y11.043 Z17.699 E251.05858
G1 X-21.077 Y-29.01 Z17.898 E270.84839
G1 X21.151 Y-29.112 Z18.098 E290.70698
G1 X34.34 Y11.159 Z18.299 E310.63498
G1 X0.00 Y36.231 Z18.5 E330.63022
;TIME_ELAPSED:165.552983
;LAYER:18
;TYPE:WALL-OUTER
;MESH:obj_1_Dodekaeder.stl
G1 X-34.574 Y11.234 Z18.699 E350.69375
G1 X-21.441 Y-29.51 Z18.898 E370.82516
G1 X21.515 Y-29.612 Z19.098 E391.02609
G1 X34.928 Y11.349 Z19.299 E411.29524
G1 X-0.001 Y36.85 Z19.5 E431.63315
;TIME_ELAPSED:170.945055
;LAYER:19
;TYPE:WALL-OUTER
;MESH:obj_1_Dodekaeder.stl
G1 X-35.162 Y11.425 Z19.699 E452.0383
G1 X-21.804 Y-30.011 Z19.898 E472.51189
G1 X21.878 Y-30.112 Z20.098 E493.05423
G1 X35.516 Y11.54 Z20.299 E513.66513
G1 X0.00 Y37.467 Z20.5 E534.3441
;TIME_ELAPSED:176.427930
;LAYER:20
;TYPE:WALL-OUTER
;MESH:obj_1_Dodekaeder.stl
G1 X-35.75 Y11.615 Z20.699 E555.09136
G1 X-22.167 Y-30.511 Z20.898 E575.90625
G1 X22.241 Y-30.612 Z21.098 E596.79
G1 X36.103 Y11.731 Z21.299 E617.74249
G1 X-0.001 Y38.086 Z21.5 E638.76347
;TIME_ELAPSED:182.001626
;LAYER:21
;TYPE:WALL-OUTER
;MESH:obj_1_Dodekaeder.stl
G1 X-36.337 Y11.807 Z21.699 E659.8517
G1 X-22.531 Y-31.011 Z21.898 E681.00849
G1 X22.605 Y-31.112 Z22.098 E702.23458
G1 X36.691 Y11.922 Z22.299 E723.52867
G1 X-0.001 Y38.704 Z22.5 E744.89138
;TIME_ELAPSED:187.666152
;LAYER:22
;TYPE:WALL-OUTER
;MESH:obj_1_Dodekaeder.stl
G1 X-36.925 Y11.998 Z22.699 E766.32134
G1 X-22.894 Y-31.511 Z22.898 E787.81987
G1 X22.968 Y-31.612 Z23.098 E809.38737
G1 X37.279 Y12.113 Z23.299 E831.02319
G1 X0.00 Y39.321 Z23.5 E852.72698
;TIME_ELAPSED:193.421461
;LAYER:23
;TYPE:WALL-OUTER
;MESH:obj_1_Dodekaeder.stl
G1 X-37.513 Y12.188 Z23.699 E874.49905
G1 X-23.257 Y-32.011 Z23.898 E896.33887
G1 X23.331 Y-32.112 Z24.098 E918.24778
G1 X37.867 Y12.304 Z24.299 E940.22535
G1 X0.00 Y39.939 Z24.5 E962.27086
;TIME_ELAPSED:199.267585
;LAYER:24
;TYPE:WALL-OUTER
;MESH:obj_1_Dodekaeder.stl
G1 X-38.101 Y12.379 Z24.699 E984.38467
G1 X-23.621 Y-32.511 Z24.898 E1006.56608
G1 X23.695 Y-32.612 Z25.098 E1028.81734
G1 X38.455 Y12.495 Z25.299 E1051.1365
G1 X0.00 Y40.557 Z25.5 E1073.52375
;TIME_ELAPSED:205.204562
;LAYER:25
;TYPE:WALL-OUTER
;MESH:obj_1_Dodekaeder.stl
G1 X-38.689 Y12.57 Z25.699 E1095.97928
G1 X-23.984 Y-33.011 Z25.898 E1118.50244
G1 X24.058 Y-33.112 Z26.098 E1141.09511
G1 X39.042 Y12.686 Z26.299 E1163.75586
G1 X0.00 Y41.175 Z26.5 E1186.48446
;TIME_ELAPSED:211.232331
;LAYER:26
;TYPE:WALL-OUTER
;MESH:obj_1_Dodekaeder.stl
G1 X-39.276 Y12.761 Z26.699 E1209.28134
G1 X-24.347 Y-33.511 Z26.898 E1232.1461
G1 X24.421 Y-33.612 Z27.098 E1255.08017
G1 X39.63 Y12.877 Z27.299 E1278.08267
G1 X0.00 Y41.793 Z27.5 E1301.15299
;TIME_ELAPSED:217.350890
;LAYER:27
;TYPE:WALL-OUTER
;MESH:obj_1_Dodekaeder.stl
G1 X-39.864 Y12.952 Z27.699 E1324.29161
G1 X-24.71 Y-34.011 Z27.898 E1347.49811
G1 X24.784 Y-34.112 Z28.098 E1370.77359
G1 X40.218 Y13.068 Z28.299 E1394.11783
G1 X-0.001 Y42.413 Z28.5 E1417.53082
;TIME_ELAPSED:223.560318
;LAYER:28
;TYPE:WALL-OUTER
;MESH:obj_1_Dodekaeder.stl
G1 X-0.001 Y42.414 E1417.53129
G1 X-40.421 Y13.168 Z28.699 E1440.99338
G1 X-40.441 Y13.106 E1441.02401
G1 X-25.099 Y-34.435 Z28.898 E1464.51634
G1 X-24.995 Y-34.512 Z28.899 E1464.57719
G1 X25.027 Y-34.612 Z29.098 E1488.10097
G1 X25.184 Y-34.498 Z29.099 E1488.19221
G1 X40.757 Y13.106 Z29.299 E1511.74628
G1 X40.677 Y13.352 Z29.3 E1511.86793
G1 X0.161 Y42.911 Z29.5 E1535.45306
;TIME_ELAPSED:229.841465
;LAYER:29
;TYPE:WALL-OUTER
;MESH:obj_1_Dodekaeder.stl
G1 X-1.408 Y42.011 Z29.507 E1536.30368
G1 X-39.573 Y14.398 Z29.696 E1558.45646
G1 X-40.486 Y11.611 Z29.708 E1559.83563
G1 X-26.018 Y-33.218 Z29.896 E1581.988
G92 E0
G1 X-23.554 Y-35.016 Z29.908 E1.43444
G1 X23.553 Y-35.11 Z30.097 E23.58738
G1 X26.119 Y-33.253 Z30.11 E25.07694
G1 X40.765 Y11.52 Z30.298 E47.23012
G1 X39.756 Y14.646 Z30.311 E48.77486
G1 X1.7 Y42.411 Z30.5 E70.92819
;TIME_ELAPSED:236.111560
;LAYER:30
;TYPE:WALL-OUTER
;MESH:obj_1_Dodekaeder.stl
G1 X-2.951 Y41.516 Z30.519 E73.15553
G1 X-38.622 Y15.707 Z30.695 E93.86079
G1 X-40.491 Y9.992 Z30.719 E96.68844
G1 X-26.97 Y-31.908 Z30.896 E117.39319
G1 X-22.014 Y-35.522 Z30.92 E120.2777
G1 X22.013 Y-35.61 Z31.097 E140.98221
G1 X27.076 Y-31.945 Z31.122 E143.92153
G1 X40.765 Y9.902 Z31.298 E164.62698
G1 X38.809 Y15.96 Z31.324 E167.62068
G1 X3.24 Y41.911 Z31.5 E188.32639
;TIME_ELAPSED:242.364941
;LAYER:31
;TYPE:WALL-OUTER
;MESH:obj_1_Dodekaeder.stl
G1 X-4.493 Y41.021 Z31.531 E191.98698
G1 X-37.671 Y17.017 Z31.695 E211.24484
G1 X-40.497 Y8.372 Z31.732 E215.52201
G1 X-27.921 Y-30.599 Z31.896 E234.77942
G1 X-20.475 Y-36.028 Z31.933 E239.11296
G1 X20.474 Y-36.11 Z32.097 E258.36999
G1 X28.034 Y-30.638 Z32.134 E262.75878
G1 X40.765 Y8.284 Z32.298 E282.01681
G1 X37.861 Y17.274 Z32.336 E286.45961
G1 X4.778 Y41.411 Z32.5 E305.71809
;TIME_ELAPSED:248.617977
;LAYER:32
;TYPE:WALL-OUTER
;MESH:obj_1_Dodekaeder.stl
G1 X-6.035 Y40.526 Z32.543 E310.8201
G1 X-36.72 Y18.326 Z32.695 E328.63083
G1 X-40.503 Y6.752 Z32.744 E334.35707
G1 X-28.872 Y-29.291 Z32.896 E352.1676
G1 X-18.938 Y-36.534 Z32.945 E357.94913
G1 X18.937 Y-36.61 Z33.097 E375.76056
G1 X28.99 Y-29.332 Z33.146 E381.59703
G1 X40.765 Y6.666 Z33.298 E399.40836
G1 X36.914 Y18.588 Z33.348 E405.30013
G1 X6.317 Y40.911 Z33.5 E423.11138
;TIME_ELAPSED:254.871147
;LAYER:33
;TYPE:WALL-OUTER
;MESH:obj_1_Dodekaeder.stl
G1 X-7.578 Y40.031 Z33.556 E429.65884
G1 X-35.769 Y19.635 Z33.695 E446.02205
G1 X-40.508 Y5.132 Z33.756 E453.19722
G1 X-29.822 Y-27.982 Z33.896 E469.56043
G1 X-17.399 Y-37.04 Z33.957 E476.7906
G1 X17.398 Y-37.11 Z34.097 E493.15454
G1 X29.946 Y-28.025 Z34.159 E500.43974
G1 X40.765 Y5.048 Z34.298 E516.80393
G1 X35.966 Y19.902 Z34.361 E524.14481
G1 X7.856 Y40.411 Z34.5 E540.50844
;TIME_ELAPSED:261.124567
;LAYER:34
;TYPE:WALL-OUTER
;MESH:obj_1_Dodekaeder.stl
G1 X-9.12 Y39.536 Z34.568 E548.5023
G1 X-34.818 Y20.944 Z34.695 E563.41839
G1 X-40.514 Y3.512 Z34.769 E572.04263
G1 X-30.774 Y-26.672 Z34.896 E586.95791
G1 X-15.859 Y-37.547 Z34.97 E595.63843
G1 X15.858 Y-37.61 Z35.097 E610.55394
G1 X30.904 Y-26.717 Z35.171 E619.28928
G1 X40.765 Y3.429 Z35.298 E634.20515
G1 X35.018 Y21.217 Z35.373 E642.99602
G1 X9.395 Y39.911 Z35.5 E657.91176
;TIME_ELAPSED:267.378359
;LAYER:35
;TYPE:WALL-OUTER
;MESH:obj_1_Dodekaeder.stl
G1 X-10.663 Y39.041 Z35.58 E667.35326
G1 X-33.867 Y22.253 Z35.695 E680.82184
G1 X-40.52 Y1.892 Z35.781 E690.89515
G1 X-31.725 Y-25.363 Z35.896 E704.3631
G1 X-14.32 Y-38.053 Z35.982 E714.49265
G1 X14.319 Y-38.11 Z36.097 E727.96068
G1 X31.861 Y-25.409 Z36.183 E738.14539
G1 X40.765 Y1.811 Z36.298 E751.61352
G1 X34.071 Y22.531 Z36.385 E761.85336
G1 X10.933 Y39.411 Z36.5 E775.32225
;TIME_ELAPSED:273.632562
;LAYER:36
;TYPE:WALL-OUTER
;MESH:obj_1_Dodekaeder.stl
G1 X-12.205 Y38.546 Z36.593 E786.21091
G1 X-32.916 Y23.562 Z36.695 E798.23235
G1 X-40.526 Y0.272 Z36.793 E809.75473
G1 X-32.676 Y-24.054 Z36.896 E821.77536
G1 X-12.781 Y-38.559 Z36.994 E833.35394
G1 X12.78 Y-38.61 Z37.097 E845.37447
G1 X32.818 Y-24.102 Z37.196 E857.00829
G1 X40.765 Y0.193 Z37.298 E869.02914
G1 X33.123 Y23.845 Z37.398 E880.71808
G1 X12.472 Y38.911 Z37.5 E892.73936
;TIME_ELAPSED:279.887140
;LAYER:37
;TYPE:WALL-OUTER
;MESH:obj_1_Dodekaeder.stl
G1 X-13.747 Y38.051 Z37.605 E905.07594
G1 X-31.965 Y24.871 Z37.695 E915.65025
G1 X-40.532 Y-1.348 Z37.806 E928.62171
G1 X-33.627 Y-22.746 Z37.896 E939.19545
G1 X-11.244 Y-39.065 Z38.007 E952.22202
G1 X11.243 Y-39.11 Z38.097 E962.79695
G1 X33.774 Y-22.796 Z38.208 E975.87845
G1 X40.765 Y-1.425 Z38.298 E986.45261
G1 X32.176 Y25.159 Z38.41 E999.59051
G1 X14.011 Y38.411 Z38.5 E1010.16456
;TIME_ELAPSED:286.142167
;LAYER:38
;TYPE:WALL-OUTER
;MESH:obj_1_Dodekaeder.stl
G1 X-15.29 Y37.556 Z38.617 E1023.94974
G1 X-31.014 Y26.18 Z38.695 E1033.07654
G1 X-40.538 Y-2.967 Z38.818 E1047.49662
G1 X-34.578 Y-21.436 Z38.896 E1056.62303
G1 X-9.704 Y-39.571 Z39.019 E1071.09929
G1 X9.703 Y-39.61 Z39.097 E1080.22579
G1 X34.731 Y-21.488 Z39.22 E1094.75705
G1 X40.765 Y-3.043 Z39.298 E1103.88348
G1 X31.228 Y26.473 Z39.422 E1118.47048
G1 X15.55 Y37.911 Z39.5 E1127.59692
;TIME_ELAPSED:292.397589
;LAYER:39
;TYPE:WALL-OUTER
;MESH:obj_1_Dodekaeder.stl
G1 X-16.832 Y37.061 Z39.63 E1142.83037
G1 X-30.063 Y27.489 Z39.695 E1150.51004
G1 X-40.543 Y-4.587 Z39.83 E1166.37905
G1 X-35.529 Y-20.127 Z39.896 E1174.05799
G1 X-8.165 Y-40.077 Z40.031 E1189.98327
G1 X8.164 Y-40.11 Z40.097 E1197.66229
G1 X35.688 Y-20.181 Z40.233 E1213.64265
G1 X40.765 Y-4.661 Z40.298 E1221.32179
G1 X30.281 Y27.787 Z40.435 E1237.35776
G1 X17.088 Y37.411 Z40.5 E1245.03734
;TIME_ELAPSED:298.653452
;LAYER:40
;TYPE:WALL-OUTER
;MESH:obj_1_Dodekaeder.stl
G1 X-18.375 Y36.565 Z40.642 E1261.71919
G1 X-29.112 Y28.798 Z40.695 E1267.95107
G1 X-40.549 Y-6.208 Z40.843 E1285.2696
G1 X-36.48 Y-18.818 Z40.896 E1291.50076
G1 X-6.626 Y-40.583 Z41.044 E1308.87508
G1 X6.625 Y-40.61 Z41.097 E1315.10661
G1 X36.645 Y-18.875 Z41.245 E1332.53579
G1 X40.765 Y-6.279 Z41.298 E1338.7681
G1 X29.334 Y29.1 Z41.447 E1356.25258
G1 X18.627 Y36.911 Z41.5 E1362.48521
;TIME_ELAPSED:304.909720
;LAYER:41
;TYPE:WALL-OUTER
;MESH:obj_1_Dodekaeder.stl
G1 X-19.918 Y36.07 Z41.654 E1380.61599
G1 X-28.16 Y30.107 Z41.695 E1385.39997
G1 X-40.555 Y-7.828 Z41.855 E1404.16772
G1 X-37.431 Y-17.509 Z41.896 E1408.95155
G1 X-5.087 Y-41.09 Z42.056 E1427.77518
G1 X5.086 Y-41.11 Z42.097 E1432.55922
G1 X37.602 Y-17.568 Z42.257 E1451.4375
G1 X40.765 Y-7.897 Z42.298 E1456.22252
G1 X28.385 Y30.415 Z42.459 E1475.1567
G1 X20.167 Y36.411 Z42.5 E1479.94068
;TIME_ELAPSED:311.166402
;LAYER:42
;TYPE:WALL-OUTER
;MESH:obj_1_Dodekaeder.stl
G1 X-21.459 Y35.576 Z42.667 E1499.51998
G1 X-27.21 Y31.415 Z42.695 E1502.85815
G1 X-40.561 Y-9.448 Z42.867 E1523.07438
G1 X-38.382 Y-16.2 Z42.896 E1526.41088
G1 X-3.549 Y-41.596 Z43.068 E1546.68315
G1 X3.548 Y-41.61 Z43.097 E1550.02065
G1 X38.559 Y-16.261 Z43.27 E1570.34765
G92 E0
G1 X40.765 Y-9.515 Z43.298 E3.33774
G1 X27.438 Y31.729 Z43.472 E23.72088
G1 X21.706 Y35.911 Z43.5 E27.05763
;TIME_ELAPSED:317.436831
;LAYER:43
;TYPE:WALL-OUTER
;MESH:obj_1_Dodekaeder.stl
G1 X-23.002 Y35.08 Z43.679 E48.08599
G1 X-26.259 Y32.724 Z43.695 E49.97637
G1 X-40.567 Y-11.068 Z43.88 E71.64167
G1 X-39.333 Y-14.891 Z43.896 E73.53084
G1 X-2.01 Y-42.102 Z44.081 E95.25214
G1 X2.009 Y-42.11 Z44.097 E97.14215
G1 X39.516 Y-14.954 Z44.282 E118.91825
G1 X40.765 Y-11.133 Z44.298 E120.80871
G1 X26.491 Y33.042 Z44.484 E142.64036
G1 X23.243 Y35.411 Z44.5 E144.53091
;TIME_ELAPSED:323.694474
;LAYER:44
;TYPE:WALL-OUTER
;MESH:obj_1_Dodekaeder.stl
G1 X-24.544 Y34.585 Z44.691 E167.00695
G1 X-25.307 Y34.034 Z44.695 E167.44954
G1 X-40.572 Y-12.688 Z44.892 E190.56436
G1 X-40.284 Y-13.582 Z44.896 E191.00606
G1 X-.47 Y-42.608 Z45.093 E214.17677
G1 X0.47 Y-42.61 Z45.097 E214.61882
G1 X40.473 Y-13.644 Z45.294 E237.84485
G1 X40.766 Y-12.752 Z45.298 E238.28638
G1 X25.543 Y34.356 Z45.496 E261.56774
G1 X24.783 Y34.911 Z45.5 E262.01029
;TIME_ELAPSED:329.952445
;LAYER:45
;TYPE:WALL-OUTER
;MESH:obj_1_Dodekaeder.stl
G1 X-25.131 Y34.591 Z45.699 E285.48372
G1 X-40.612 Y-13.194 Z45.9 E309.10533
G1 X0.00 Y-42.645 Z46.1 E332.6971
G1 X40.506 Y-13.161 Z46.3 E356.25766
G1 X25 Y34.411 Z46.5 E379.78764
;TIME_ELAPSED:336.236255
;LAYER:46
;TYPE:WALL-OUTER
;MESH:obj_1_Dodekaeder.stl
G1 X-25.017 Y34.035 Z46.702 E403.30969
G1 X-40.15 Y-12.859 Z46.901 E426.48227
G1 X-.117 Y-42.078 Z47.101 E449.78968
G1 X39.925 Y-13.034 Z47.301 E473.05209
G1 X24.637 Y33.911 Z47.5 E496.26996
;TIME_ELAPSED:342.451215
;LAYER:47
;TYPE:WALL-OUTER
;MESH:obj_1_Dodekaeder.stl
G1 X-24.654 Y33.535 Z47.702 E519.45061
G1 X-39.453 Y-13.003 Z47.902 E542.41585
G1 X-.118 Y-41.461 Z48.101 E565.24734
G1 X39.337 Y-12.843 Z48.301 E588.16868
G1 X24.274 Y33.411 Z48.5 E611.04481
;TIME_ELAPSED:348.575402
;LAYER:48
;TYPE:WALL-OUTER
;MESH:obj_1_Dodekaeder.stl
G1 X-23.911 Y33.31 Z48.7 E633.70472
G1 X-38.974 Y-12.478 Z48.901 E656.37259
G1 X-.118 Y-40.843 Z49.101 E678.99615
G1 X38.749 Y-12.652 Z49.301 E701.57576
G1 X23.911 Y32.911 Z49.5 E724.11015
;TIME_ELAPSED:354.608728
;LAYER:49
;TYPE:WALL-OUTER
;MESH:obj_1_Dodekaeder.stl
G1 X-23.927 Y32.535 Z49.702 E746.60753
G1 X-38.386 Y-12.287 Z49.901 E768.75548
G1 X-.118 Y-40.225 Z50.101 E791.03732
G1 X38.198 Y-12.349 Z50.301 E813.32022
G1 X23.547 Y32.411 Z50.5 E835.46835
;TIME_ELAPSED:360.551285
;LAYER:50
;TYPE:WALL-OUTER
;MESH:obj_1_Dodekaeder.stl
G1 X-23.564 Y32.035 Z50.702 E857.62386
G1 X-37.798 Y-12.096 Z50.901 E879.43007
G1 X-.118 Y-39.607 Z51.101 E901.37018
G1 X37.574 Y-12.27 Z51.301 E923.2667
G1 X23.184 Y31.911 Z51.5 E945.1179
;TIME_ELAPSED:366.403002
;LAYER:51
;TYPE:WALL-OUTER
;MESH:obj_1_Dodekaeder.stl
G1 X-23.201 Y31.535 Z51.702 E966.93201
G1 X-37.211 Y-11.905 Z51.901 E988.39663
G1 X-.118 Y-38.989 Z52.101 E1009.99538
G1 X36.986 Y-12.079 Z52.301 E1031.55018
G1 X22.821 Y31.411 Z52.5 E1053.05963
;TIME_ELAPSED:372.163928
;LAYER:52
;TYPE:WALL-OUTER
;MESH:obj_1_Dodekaeder.stl
G1 X-22.458 Y31.31 Z52.7 E1074.35297
G1 X-36.623 Y-11.714 Z52.901 E1095.65417
G1 X-.118 Y-38.371 Z53.101 E1116.9112
G1 X36.398 Y-11.888 Z53.301 E1138.12426
G1 X22.457 Y30.911 Z53.5 E1159.29212
;TIME_ELAPSED:377.834008
;LAYER:53
;TYPE:WALL-OUTER
;MESH:obj_1_Dodekaeder.stl
G1 X-22.474 Y30.535 Z53.702 E1180.4225
G1 X-36.035 Y-11.523 Z53.901 E1201.20378
G1 X-.118 Y-37.753 Z54.101 E1222.11908
G1 X35.81 Y-11.697 Z54.301 E1242.99041
G1 X22.094 Y30.411 Z54.5 E1263.81652
;TIME_ELAPSED:383.413263
;LAYER:54
;TYPE:WALL-OUTER
;MESH:obj_1_Dodekaeder.stl
G1 X-22.111 Y30.035 Z54.702 E1284.60551
G1 X-35.447 Y-11.332 Z54.901 E1305.04505
G1 X-.118 Y-37.135 Z55.101 E1325.61861
G1 X35.259 Y-11.394 Z55.301 E1346.19324
G1 X21.731 Y29.911 Z55.5 E1366.63296
;TIME_ELAPSED:388.901724
;LAYER:55
;TYPE:WALL-OUTER
;MESH:obj_1_Dodekaeder.stl
G1 X-21.368 Y29.81 Z55.7 E1386.90114
G1 X-34.859 Y-11.141 Z55.901 E1407.17727
G1 X-.118 Y-36.517 Z56.101 E1427.4091
G1 X34.634 Y-11.315 Z56.301 E1447.59697
G1 X21.368 Y29.411 Z56.5 E1467.73961
;TIME_ELAPSED:394.299305
;LAYER:56
;TYPE:WALL-OUTER
;MESH:obj_1_Dodekaeder.stl
G1 X-21.384 Y29.035 Z56.702 E1487.84533
G1 X-34.271 Y-10.95 Z56.901 E1507.60154
G1 X-.118 Y-35.899 Z57.101 E1527.49164
G1 X34.046 Y-11.124 Z57.301 E1547.33778
G1 X21.004 Y28.911 Z57.5 E1567.13882
;TIME_ELAPSED:399.606095
;LAYER:57
;TYPE:WALL-OUTER
;MESH:obj_1_Dodekaeder.stl
G1 X-21.021 Y28.535 Z57.702 E1586.90268
G92 E0
G1 X-33.683 Y-10.759 Z57.901 E19.41446
G1 X-.119 Y-35.281 Z58.101 E38.96246
G1 X33.458 Y-10.933 Z58.301 E58.46725
G1 X20.641 Y28.411 Z58.5 E77.92655
;TIME_ELAPSED:404.829384
;LAYER:58
;TYPE:WALL-OUTER
;MESH:obj_1_Dodekaeder.stl
G1 X-20.278 Y28.31 Z58.7 E97.16957
G1 X-33.095 Y-10.568 Z58.901 E116.42063
G1 X-.118 Y-34.662 Z59.101 E135.627
G1 X32.87 Y-10.742 Z59.301 E154.7894
G1 X20.278 Y27.911 Z59.5 E173.90696
;TIME_ELAPSED:409.954446
;LAYER:59
;TYPE:WALL-OUTER
;MESH:obj_1_Dodekaeder.stl
G1 X-20.294 Y27.535 Z59.702 E192.98756
G1 X-32.507 Y-10.377 Z59.901 E211.71869
G1 X-.118 Y-34.044 Z60.101 E230.58333
G1 X32.32 Y-10.439 Z60.301 E249.44942
G1 X19.915 Y27.411 Z60.5 E268.18072
;TIME_ELAPSED:414.988763
;LAYER:60
;note -- min layer time used
;TYPE:WALL-OUTER
;MESH:obj_1_Dodekaeder.stl
G1 F2362 X-19.931 Y27.035 Z60.702 E286.91993
G1 X-31.919 Y-10.186 Z60.901 E305.30932
G1 X-.118 Y-33.426 Z61.101 E323.83224
G1 X31.695 Y-10.36 Z61.301 E342.31156
G1 X19.551 Y26.911 Z61.5 E360.74593
;TIME_ELAPSED:420.010716
;LAYER:61
;note -- min layer time used
;TYPE:WALL-OUTER
;MESH:obj_1_Dodekaeder.stl
G1 F2318.4 X-19.568 Y26.535 Z61.702 E379.14327
G1 X-31.331 Y-9.995 Z61.901 E397.19093
G1 X-.118 Y-32.808 Z62.101 E415.37211
G1 X31.107 Y-10.169 Z62.301 E433.5097
G1 X19.188 Y26.411 Z62.5 E451.60233
;TIME_ELAPSED:425.031901
;LAYER:62
;note -- min layer time used
;TYPE:WALL-OUTER
;MESH:obj_1_Dodekaeder.stl
G1 F2274.8 X-18.825 Y26.31 Z62.701 E469.47879
G1 X-30.744 Y-9.804 Z62.901 E487.36319
G1 X-.118 Y-32.19 Z63.101 E505.20302
G1 X30.519 Y-9.978 Z63.301 E522.99889
G1 X18.825 Y25.911 Z63.5 E540.74977
;TIME_ELAPSED:430.052902
;LAYER:63
;note -- min layer time used
;TYPE:WALL-OUTER
;MESH:obj_1_Dodekaeder.stl
G1 F2231.2 X-18.841 Y25.535 Z63.703 E558.46387
G1 X-30.156 Y-9.613 Z63.901 E575.82834
G1 X0.117 Y-31.572 Z64.102 E593.41578
G1 X29.931 Y-9.788 Z64.301 E610.78029
G1 X18.462 Y25.411 Z64.5 E628.18988
;TIME_ELAPSED:435.073124
;LAYER:64
;note -- min layer time used
;TYPE:WALL-OUTER
;MESH:obj_1_Dodekaeder.stl
G1 F2187.6 X-18.478 Y25.035 Z64.703 E645.56259
G1 X-29.568 Y-9.422 Z64.901 E662.58531
G1 X-.117 Y-30.953 Z65.101 E679.7418
G1 X29.381 Y-9.485 Z65.301 E696.89868
G1 X18.098 Y24.911 Z65.5 E713.92217
;TIME_ELAPSED:440.092602
;LAYER:65
;note -- min layer time used
;TYPE:WALL-OUTER
;MESH:obj_1_Dodekaeder.stl
G1 F2144 X-17.735 Y24.81 Z65.701 E730.77347
G1 X-28.872 Y-9.566 Z65.903 E747.76675
G1 X-.118 Y-30.336 Z66.101 E764.4477
G1 X28.756 Y-9.406 Z66.301 E781.21848
G1 X17.735 Y24.411 Z66.5 E797.94488
;TIME_ELAPSED:445.111353
;LAYER:66
;note -- min layer time used
;TYPE:WALL-OUTER
;MESH:obj_1_Dodekaeder.stl
G1 F2100.5 X-17.751 Y24.035 Z66.703 E814.63388
G1 X-28.392 Y-9.041 Z66.901 E830.97372
G1 X-.118 Y-29.718 Z67.101 E847.44637
G1 X28.168 Y-9.215 Z67.301 E863.87542
G1 X17.372 Y23.911 Z67.5 E880.26008
;TIME_ELAPSED:450.129343
;LAYER:67
;note -- min layer time used
;TYPE:WALL-OUTER
;MESH:obj_1_Dodekaeder.stl
G1 F2056.9 X-17.388 Y23.535 Z67.703 E896.60769
G1 X-27.805 Y-8.849 Z67.901 E912.60549
G1 X0.117 Y-29.1 Z68.103 E928.8264
G1 X27.58 Y-9.024 Z68.301 E944.82437
G1 X17.009 Y23.411 Z68.5 E960.8673
;TIME_ELAPSED:455.146605
;LAYER:68
;note -- min layer time used
;TYPE:WALL-OUTER
;MESH:obj_1_Dodekaeder.stl
G1 F2013.3 X-16.645 Y23.31 Z68.701 E976.69392
G1 X-27.109 Y-8.993 Z68.903 E992.66227
G1 X-.118 Y-28.482 Z69.101 E1008.31841
G1 X27.03 Y-8.721 Z69.302 E1024.10942
G1 X16.645 Y22.911 Z69.5 E1039.76625
;TIME_ELAPSED:460.163175
;LAYER:69
;note -- min layer time used
;TYPE:WALL-OUTER
;MESH:obj_1_Dodekaeder.stl
G1 F1969.7 X-16.661 Y22.535 Z69.703 E1055.43015
G1 X-26.629 Y-8.468 Z69.901 E1070.74507
G1 X-.118 Y-27.864 Z70.101 E1086.19292
G1 X26.405 Y-8.642 Z70.301 E1101.59716
G1 X16.282 Y22.411 Z70.5 E1116.9569
;TIME_ELAPSED:465.179001
;LAYER:70
;note -- min layer time used
;TYPE:WALL-OUTER
;MESH:obj_1_Dodekaeder.stl
G1 F1926.1 X-16.298 Y22.035 Z70.703 E1132.27942
G1 X-26.041 Y-8.277 Z70.901 E1147.2526
G1 X-.118 Y-27.246 Z71.101 E1162.35873
G1 X25.817 Y-8.451 Z71.301 E1177.42124
G1 X15.919 Y21.911 Z71.5 E1192.43925
;TIME_ELAPSED:470.194124
;LAYER:71
;note -- min layer time used
;TYPE:WALL-OUTER
;MESH:obj_1_Dodekaeder.stl
G1 F1882.5 X-15.935 Y21.535 Z71.703 E1207.42038
G1 X-25.453 Y-8.086 Z71.901 E1222.05183
G1 X-.118 Y-26.628 Z72.102 E1236.81623
G1 X25.229 Y-8.26 Z72.301 E1251.53702
G1 X15.556 Y21.411 Z72.5 E1266.21328
;TIME_ELAPSED:475.208001
;LAYER:72
;TYPE:WALL-OUTER
;MESH:obj_1_Dodekaeder.stl
G1 F1827.5 X-15.192 Y21.31 Z72.612 E1280.67313
G1 X-24.865 Y-7.895 Z72.724 E1295.141
G1 X-.119 Y-26.01 Z72.835 E1309.56308
G1 X24.641 Y-8.069 Z72.947 E1323.94232
G1 X15.192 Y20.911 Z73.058 E1338.27678
G1 X-15.192 Y20.911 Z73.5 E1349.70879
G1 X-24.581 Y-7.988 E1358.28243
G1 X-0.001 Y-25.848 E1363.99774
G1 X24.583 Y-7.988
;TIME_ELAPSED:484.248315
G1 F1500 E1357.49774
M140 S0
M107
M104 S0
M140 S0
;Retract the filament
G92 E1
G1 E-1 F300
G28 X0 Y0
M84
M82 ;absolute extrusion mode
M104 S0
;End of Gcode
;SETTING_3 {"global_quality": "[general]\\nversion = 4\\nname = CuraProfile_3mm_
;SETTING_3 2laybase_40sec\\ndefinition = custom\\n\\n[metadata]\\ntype = quality
;SETTING_3 _changes\\nquality_type = extra coarse\\nsetting_version = 25\\n\\n[v
;SETTING_3 alues]\\nadhesion_type = none\\njerk_enabled = False\\nlayer_height =
;SETTING_3  1\\nlayer_height_0 = 0.5\\nmagic_spiralize = True\\n\\n", "extruder_
;SETTING_3 quality": ["[general]\\nversion = 4\\nname = CuraProfile_3mm_2laybase
;SETTING_3 _40sec\\ndefinition = custom\\n\\n[metadata]\\ntype = quality_changes
;SETTING_3 \\nquality_type = extra coarse\\nintent_category = default\\nposition
;SETTING_3  = 0\\nsetting_version = 25\\n\\n[values]\\nbottom_layers = 2\\nbotto
;SETTING_3 m_thickness = 1.3\\ninfill_sparse_density = 0\\nline_width = 3\\nmesh
;SETTING_3 fix_maximum_resolution = 1\\nretraction_hop = 1.0\\nretraction_hop_en
;SETTING_3 abled = True\\nspeed_layer_0 = 15.0\\nspeed_print = 40.0\\nspeed_trav
;SETTING_3 el = 30.0\\nspeed_wall = 40.0\\nspeed_wall_x = 30\\ntop_bottom_thickn
;SETTING_3 ess = 0\\ntop_layers = 0\\ntravel_avoid_other_parts = False\\nwall_li
;SETTING_3 ne_count = 3\\nwall_thickness = 3.0\\n\\n"]}
