;FLAVOR:Marlin
;TIME:758
;Filament used: 11.2082m
;Layer height: 1
;MINX:-43.265
;MINY:-42.009
;MINZ:0.5
;MAXX:43.265
;MAXY:42.256
;MAXZ:84.5
;TARGET_MACHINE.NAME:Unknown
;Generated with Cura_SteamEngine 5.11.0
M140 S60
M105
M190 S60
M104 S200
M105
M109 S200
G28 ;Home
M302 S0 ;Set cold extrusion
M92 E400 ;E Steps at 400 steps/mm M92 E-400 reverse
G1 Z15.0 F6000 ;Move the platform down 15mm
;Prime the extruder
G92 E0
G1 F200 E3
G92 E0
M82 ;absolute extrusion mode
G92 E0
G92 E0
G1 F1500 E-6.5
;LAYER_COUNT:84
;LAYER:0
M107
G1 F600 Z1.5
;MESH:vase_basic.stl
G0 F675 X0.00 Y0.000 Z1.5
G0 X-27.116 Y15.726
;TYPE:WALL-INNER
G1 F600 Z0.5
G1 F1500 E0
G1 F900 X-18.376 Y30.46 E4.02809
G1 X18.23 Y30.46 E12.63534
G1 X36.29 Y0.00 E20.96171
G1 X27.526 Y-14.787 E25.00341
G1 X27.104 Y-15.72 E25.24418
G1 X26.246 Y-17.193 E25.645
G1 X18.377 Y-30.46 E29.27194
G1 X-18.234 Y-30.46 E37.88036
G1 X-36.291 Y0.00 E46.20638
G1 X-27.395 Y15.013 E50.30961
G1 X-27.116 Y15.726 E50.48963
G0 F675 X-28.287 Y16.48
G0 X-29.823 Y17.043
G1 F900 X-20.085 Y33.46 E54.9778
G1 X19.939 Y33.46 E64.38872
G1 X39.778 Y0.00 E73.5352
G1 X30.224 Y-16.117 E77.94062
G1 X29.931 Y-16.706 E78.09531
G1 X29.819 Y-17.041 E78.17836
G1 X20.085 Y-33.46 E82.66645
G1 X-19.943 Y-33.46 E92.07831
G1 X-39.778 Y0.00 E101.22431
G1 X-30.076 Y16.366 E105.69784
G1 X-29.823 Y17.043 E105.86778
G0 F675 X-28.285 Y16.481
G0 X-32.582 Y18.272
;TYPE:WALL-OUTER
G1 F900 X-21.793 Y36.46 E110.84017
G1 X21.452 Y36.46 E121.00845
G1 X21.634 Y36.484 E121.05162
G1 X43.265 Y0.00 E131.0246
G1 X32.724 Y-17.786 E135.88595
G1 X32.582 Y-18.272 E136.005
G1 X21.794 Y-36.46 E140.97727
G1 X-21.452 Y-36.46 E151.14579
G1 X-21.637 Y-36.485 E151.18968
G1 X-43.265 Y0.00 E161.16251
G1 X-32.784 Y17.684 E165.99603
G1 X-32.582 Y18.272 E166.14222
G0 F675 X-31.817 Y19.562
G0 X-27.851 Y17.213
G0 X-24.56 Y14.44
;TYPE:SKIN
G1 F900 X-25.047 Y13.381 E166.41629
G1 X-32.976 Y0.001 E170.07328
G1 X-16.609 Y-27.608 E177.62001
G1 X16.749 Y-27.608 E185.46355
G1 X23.786 Y-15.748 E188.70614
G1 X24.541 Y-14.447 E189.05983
G1 X25.043 Y-13.385 E189.33603
G1 X32.976 Y-0.001 E192.99431
G1 X16.605 Y27.608 E200.54152
G1 X-16.749 Y27.608 E208.38411
G1 X-24.56 Y14.44 E211.98407
G0 F675 X-12.075 Y26.109
G1 F900 X-21.464 Y16.72 E215.10617
G1 X-21.994 Y16.19
G0 F675 X-27.294 Y6.647
G1 F900 X-7.833 Y26.109 E221.57764
G0 F675 X-3.59 Y26.109
G1 F900 X-30.662 Y-.963 E230.5798
G0 F675 X-29.083 Y-3.627
G1 F900 X0.653 Y26.109 E240.46782
G0 F675 X4.895 Y26.109
G1 F900 X-27.504 Y-6.29 E251.24135
G0 F675 X-25.925 Y-8.954
G1 F900 X9.138 Y26.109 E262.90074
G0 F675 X13.381 Y26.109
G1 F900 X-24.345 Y-11.617 E275.44565
G0 F675 X-22.766 Y-14.281
G1 F900 X16.448 Y24.933 E288.48535
G0 F675 X18.028 Y22.27
G1 F900 X-21.187 Y-16.944 E301.52523
G0 F675 X-19.608 Y-19.608
G1 F900 X19.607 Y19.607 E314.56526
G0 F675 X21.186 Y16.943
G1 F900 X-18.029 Y-22.272 E327.6053
G0 F675 X-16.45 Y-24.935
G1 F900 X22.765 Y14.28 E340.64534
G0 F675 X24.344 Y11.616
G1 F900 X-13.38 Y-26.108 E353.18958
G0 F675 X-9.137 Y-26.108
G1 F900 X25.924 Y8.953 E364.8483
G0 F675 X27.503 Y6.29
G1 F900 X-4.895 Y-26.108 E375.62151
G0 F675 X-.652 Y-26.108
G1 F900 X29.082 Y3.626 E385.50886
G0 F675 X30.662 Y0.963
G1 F900 X3.591 Y-26.108 E394.51069
G0 F675 X7.833 Y-26.108
G1 F900 X27.293 Y-6.648 E400.98166
G1 X27.823 Y-6.118
G0 F675 X21.467 Y-16.717
G1 F900 X12.076 Y-26.108 E404.10442
G1 X11.546 Y-26.638
;MESH:NONMESH
G0 F600 X11.546 Y-26.638 Z1.5
G0 F675 X-13.398 Y9.27
;TIME_ELAPSED:134.954642
;LAYER:1
M106 S255
;TYPE:WALL-INNER
;MESH:vase_basic.stl
G1 F1350 X-10 Y15 E407.23722
G1 X9.414 Y15 E416.36692
G1 X18.307 Y0.00 E424.56741
G1 X14.998 Y-5.579 E427.61777
G1 X14.247 Y-7.087 E428.41001
G1 X13.828 Y-8.062 E428.90906
G1 X13.385 Y-9.264 E429.51148
G1 X12.871 Y-10.158 E429.99643
G1 X10 Y-15 E432.64363
G1 X-9.414 Y-15 E441.77334
G1 X-18.307 Y0.00 E449.97382
G1 X-15.023 Y5.537 E453.0012
G1 X-14.463 Y6.632 E453.57957
G1 X-14.035 Y7.563 E454.06144
G1 X-13.625 Y8.584 E454.57884
G1 X-13.398 Y9.27 E454.91865
G0 F1237.5 X-16.139 Y10.528
G1 F1350 X-11.709 Y18 E459.00361
G1 X11.123 Y18 E469.74067
G1 X21.795 Y0.00 E479.58135
G1 X17.711 Y-6.896 E483.35033
G1 X17.161 Y-7.944 E483.90691
G1 X16.434 Y-9.636 E484.77294
G1 X16.128 Y-10.523 E485.21419
G1 X15.451 Y-11.688 E485.84783
G1 X11.709 Y-18 E489.29855
G1 X-11.123 Y-18 E500.03562
G1 X-21.795 Y0.00 E509.8763
G1 X-17.711 Y6.896 E513.64527
G1 X-17.161 Y7.944 E514.20186
G1 X-16.434 Y9.636 E515.06788
G1 X-16.139 Y10.528 E515.5097
G0 F1237.5 X-18.895 Y11.763
G1 F1350 X-13.417 Y21 E520.55997
G1 X12.832 Y21 E532.90392
G1 X25.282 Y0.00 E544.38455
G1 X20.324 Y-8.37 E548.95939
G1 X19.7 Y-9.591 E549.60422
G1 X19.123 Y-11.022 E550.32982
G1 X18.888 Y-11.76 E550.69404
G1 X18.032 Y-13.218 E551.48912
G1 X13.417 Y-21 E555.74385
G1 X-12.832 Y-21 E568.08781
G1 X-25.282 Y0.00 E579.56843
G1 X-20.324 Y8.37 E584.14328
G1 X-19.701 Y9.59 E584.78747
G1 X-19.244 Y10.688 E585.34676
G1 X-18.895 Y11.763 E585.87827
G0 F1237.5 X-22.053 Y11.741
G1 F1350 X-21.656 Y12.989 E586.49414
G1 X-15.126 Y24 E592.51431
G1 X14.541 Y24 E606.46563
G1 X28.77 Y0.00 E619.58645
G1 X22.886 Y-9.924 E625.01198
G1 X22.556 Y-10.569 E625.3527
G1 X21.954 Y-12.014 E626.08884
G1 X21.655 Y-12.988 E626.56797
G1 X20.995 Y-14.087 E627.17083
G1 X20.612 Y-14.748 E627.53008
G1 X15.126 Y-24 E632.58833
G1 X-14.541 Y-24 E646.53965
G1 X-28.77 Y0.00 E659.66048
G1 X-22.886 Y9.924 E665.08601
G1 X-22.299 Y11.128 E665.71591
G1 X-22.053 Y11.741 E666.02653
G0 F1237.5 X-24.54 Y13.806
G1 F1350 X-24.446 Y14.164 E666.20059
G1 X-16.835 Y27 E673.21825
G1 X16.25 Y27 E688.77693
G1 X32.258 Y0.00 E703.53795
G1 X25.55 Y-11.317 E709.72459
G1 X25.153 Y-12.094 E710.13491
G1 X24.679 Y-13.327 E710.75612
G1 X24.446 Y-14.164 E711.1647
G1 X16.835 Y-27 E718.18235
G1 X-16.25 Y-27 E733.74104
G1 X-32.258 Y0.00 E748.50205
G1 X-25.55 Y11.317 E754.68869
G1 X-25.153 Y12.094 E755.09902
G1 X-24.863 Y12.793 E755.4549
G1 X-24.54 Y13.806 E755.95491
G0 F1237.5 X-27.672 Y13.845
G1 F1350 X-27.241 Y15.333 E756.68342
G1 X-18.544 Y30 E764.7022
G1 X17.959 Y30 E781.86824
G1 X35.745 Y0.00 E798.26921
G1 X28.132 Y-12.839 E805.28856
G1 X27.74 Y-13.671 E805.72107
G1 X27.541 Y-14.226 E805.99834
G1 X27.241 Y-15.333 E806.5377
G1 X18.544 Y-30 E814.55647
G1 X-17.959 Y-30 E831.72252
G1 X-35.745 Y0.00 E848.12348
G1 X-28.028 Y13.014 E855.23857
G1 X-27.672 Y13.845 E855.66371
G0 F1237.5 X18.551 Y31.392
G0 X18.55 Y33.031
G1 F1350 X19.521 Y33.247 E856.13149
G1 X38.485 Y1.261 E873.61834
G1 X38.795 Y0.803 E873.87842
G1 X39.353 Y0.2 E874.26477
G1 X30.721 Y-14.355 E882.22266
G1 X30.432 Y-14.99 E882.55074
G1 X30.036 Y-16.502 E883.28577
G1 X20.253 Y-33 E892.30566
G1 X-18.012 Y-33 E910.30031
G1 X-18.55 Y-33.032 E910.55375
G1 X-19.521 Y-33.247 E911.02144
G1 X-38.485 Y-1.261 E928.50829
G1 X-38.795 Y-.803 E928.76837
G1 X-39.353 Y-.2 E929.15472
G1 X-30.717 Y14.362 E937.11639
G1 X-30.421 Y15.032 E937.46085
G1 X-30.036 Y16.502 E938.17545
G1 X-20.253 Y33 E947.19534
G1 X18.012 Y33 E965.18999
G1 X18.55 Y33.031 E965.44341
G0 F1237.5 X18.551 Y31.392
G0 X18.214 Y36
;TYPE:WALL-OUTER
G1 F1650 X20.936 Y36.743 E966.7703
G1 X41.171 Y2.612 E985.42965
G1 X43.152 Y0.725 E986.71624
G1 X33.299 Y-15.889 E995.79985
G1 X32.83 Y-17.671 E996.66639
G1 X22.581 Y-34.954 E1006.11559
G1 X22.42 Y-35.341 E1006.3127
G1 X22.248 Y-36 E1006.63299
G1 X-18.214 Y-36 E1025.66081
G1 X-20.936 Y-36.743 E1026.98769
G1 X-41.171 Y-2.612 E1045.64704
G1 X-43.152 Y-.725 E1046.93364
G1 X-33.299 Y15.889 E1056.01724
G1 X-32.83 Y17.671 E1056.88379
G1 X-22.581 Y34.954 E1066.33298
G1 X-22.42 Y35.341 E1066.53009
G1 X-22.248 Y36 E1066.85038
G1 X18.214 Y36 E1085.8782
G0 F1237.5 X19.66 Y36.394
G0 X20.083 Y34.843
G0 X-10.789 Y8.08
;TYPE:SKIN
G1 F1050 X-10.953 Y7.581 E1086.12521
G1 X-11.429 Y6.4 E1086.724
G1 X-12.138 Y4.872 E1087.51615
G1 X-12.874 Y3.572 E1088.21867
G1 X-14.992 Y0.001 E1090.17114
G1 X-7.789 Y-12.148 E1096.81305
G1 X8.373 Y-12.148 E1104.41346
G1 X10.759 Y-8.127 E1106.61223
G1 X10.938 Y-7.624 E1106.86331
G1 X11.408 Y-6.455 E1107.45581
G1 X12.137 Y-4.874 E1108.27453
G1 X12.869 Y-3.578 E1108.97449
G1 X14.992 Y0.001 E1110.9314
G1 X7.789 Y12.148 E1117.5725
G1 X-8.374 Y12.148 E1125.17337
G1 X-10.789 Y8.08 E1127.39812
G0 F1237.5 X6.322 Y10.648
G1 F1050 X7.823 Y9.147 E1128.39636
G0 F1237.5 X2.08 Y10.648
G1 F1050 X13.053 Y-.325 E1135.69399
G0 F1237.5 X11.476 Y-2.991
G1 F1050 X-2.163 Y10.648 E1144.76466
G0 F1237.5 X-6.406 Y10.648
G1 F1050 X10.054 Y-5.812 E1155.71144
G0 F1237.5 X8.684 Y-8.684
G1 F1050 X-8.685 Y8.685 E1167.26276
G0 F1237.5 X-10.052 Y5.809
G1 F1050 X6.406 Y-10.648 E1178.20788
G0 F1237.5 X2.163 Y-10.648
G1 F1050 X-11.478 Y2.993 E1187.27987
G0 F1237.5 X-13.054 Y0.326
G1 F1050 X-2.08 Y-10.648 E1194.57817
G0 F1237.5 X-6.322 Y-10.648
G1 F1050 X-7.823 Y-9.147 E1195.57642
;MESH:NONMESH
G0 F600 X-7.823 Y-9.147 Z2.5
G0 F1237.5 X20.19 Y34.893
G0 X19.989 Y37.121
;TIME_ELAPSED:221.557279
;LAYER:2
;TYPE:WALL-OUTER
;MESH:vase_basic.stl
G1 F2400 X13.634 Y35.389 E1198.67395
G1 X-23.062 Y35.388 E1215.93075
G1 X-23.756 Y32.748 E1217.21443
G1 X-33.169 Y16.871 E1225.89438
G1 X-34.104 Y13.313 E1227.62439
G1 X-43.015 Y-1.719 E1235.84214
G1 X-38.337 Y-6.172 E1238.87936
G1 X-19.988 Y-37.122 E1255.79964
G1 X-13.634 Y-35.389 E1258.89684
G1 X23.062 Y-35.388 E1276.15364
G1 X23.756 Y-32.748 E1277.43732
G1 X33.169 Y-16.87 E1286.11768
G1 X34.104 Y-13.312 E1287.84769
G1 X43.015 Y1.719 E1296.06503
G1 X38.337 Y6.172 E1299.10225
G1 X19.989 Y37.121 E1316.02188
G0 F1800 X19.239 Y35.27
G0 X20.939 Y36.745
G1 F2400 X13.634 Y35.984 Z2.529 E1319.47578
G1 X-22.558 Y35.256 Z2.671 E1336.49914
G1 X-23.84 Y32.799 Z2.682 E1337.80242
G1 X-33.082 Y16.849 Z2.754 E1346.47139
G1 X-34.498 Y13.546 Z2.768 E1348.1614
G1 X-42.731 Y-1.42 Z2.835 E1356.19408
G1 X-38.681 Y-6.376 Z2.86 E1359.20396
G1 X-20.069 Y-36.827 Z3 E1375.98711
G1 X-13.634 Y-35.679 Z3.025 E1379.06106
G1 X22.861 Y-35.336 Z3.168 E1396.22423
G1 X23.789 Y-32.768 Z3.179 E1397.50831
G1 X33.14 Y-16.863 Z3.251 E1406.18484
G1 X34.229 Y-13.386 Z3.266 E1407.89829
G1 X42.944 Y1.645 Z3.334 E1416.06907
G1 X38.412 Y6.217 Z3.359 E1419.09645
G1 X19.989 Y37.121 Z3.5 E1436.01604
;TIME_ELAPSED:234.536122
;LAYER:3
;TYPE:WALL-OUTER
;MESH:vase_basic.stl
G1 X9.052 Y35.362 Z3.543 E1441.22545
G1 X-23.369 Y34.644 Z3.671 E1456.47574
G1 X-25.118 Y30.406 Z3.689 E1458.63178
G1 X-33.417 Y16.048 Z3.754 E1466.43065
G1 X-35.296 Y10.964 Z3.775 E1468.97955
G1 X-42.592 Y-2.41 Z3.835 E1476.14393
G1 X-35.837 Y-9.928 Z3.874 E1480.8969
G1 X-19.119 Y-37.205 Z4 E1495.94198
G1 X-9.052 Y-35.057 Z4.04 E1500.78273
G1 X23.672 Y-34.724 Z4.168 E1516.17256
G1 X25.067 Y-30.375 Z4.186 E1518.32039
G1 X33.476 Y-16.062 Z4.251 E1526.12702
G1 X35.028 Y-10.804 Z4.273 E1528.70515
G1 X42.804 Y2.635 Z4.334 E1536.00677
G1 X35.569 Y9.77 Z4.373 E1540.78533
G1 X19.038 Y37.499 Z4.5 E1555.96683
;TIME_ELAPSED:240.938441
;LAYER:4
;TYPE:WALL-OUTER
;MESH:vase_basic.stl
G1 X4.47 Y34.741 Z4.558 E1562.93938
G1 X-24.18 Y34.031 Z4.671 E1576.41668
G92 E0
G1 X-26.396 Y28.014 Z4.696 E3.0154
G1 X-33.753 Y15.246 Z4.753 E9.94522
G1 X-36.095 Y8.381 Z4.782 E13.35631
G1 X-42.452 Y-3.401 Z4.834 E19.65204
G1 X-32.993 Y-13.482 Z4.889 E26.15296
G1 X-18.169 Y-37.582 Z5 E39.4588
G1 X-4.47 Y-34.436 Z5.055 E46.06869
G1 X24.483 Y-34.111 Z5.168 E59.6852
G1 X26.344 Y-27.983 Z5.193 E62.69696
G1 X33.811 Y-15.26 Z5.251 E69.63449
G1 X35.828 Y-8.221 Z5.28 E73.07793
G1 X42.665 Y3.625 Z5.333 E79.50998
G1 X32.725 Y13.323 Z5.388 E86.04069
G1 X18.088 Y37.877 Z5.5 E99.4836
;TIME_ELAPSED:247.351046
;LAYER:5
;TYPE:WALL-OUTER
;MESH:vase_basic.stl
G1 X-.111 Y34.119 Z5.573 E108.22256
G1 X-24.991 Y33.418 Z5.67 E119.92746
G1 X-27.673 Y25.621 Z5.703 E123.805
G1 X-34.088 Y14.444 Z5.753 E129.86538
G1 X-36.895 Y5.799 Z5.789 E134.13978
G1 X-42.313 Y-4.391 Z5.834 E139.56706
G1 X-30.149 Y-17.035 Z5.903 E147.818
G1 X-17.218 Y-37.959 Z5.999 E159.38528
G1 X0.111 Y-33.814 Z6.069 E167.76443
G1 X25.294 Y-33.498 Z6.168 E179.60811
G1 X27.622 Y-25.59 Z6.2 E183.48478
G1 X34.147 Y-14.459 Z6.251 E189.55242
G1 X36.628 Y-5.639 Z6.287 E193.86115
G1 X42.525 Y4.616 Z6.333 E199.42423
G1 X29.881 Y16.877 Z6.402 E207.70685
G1 X17.138 Y38.253 Z6.5 E219.40997
;TIME_ELAPSED:253.752509
;LAYER:6
;TYPE:WALL-OUTER
;MESH:vase_basic.stl
G1 X-4.693 Y33.497 Z6.588 E229.91719
G1 X-25.801 Y32.805 Z6.67 E239.84892
G1 X-28.951 Y23.23 Z6.71 E244.58914
G1 X-34.424 Y13.643 Z6.753 E249.78053
G1 X-37.695 Y3.215 Z6.796 E254.92007
G1 X-42.172 Y-5.381 Z6.834 E259.4779
G1 X-27.306 Y-20.589 Z6.918 E269.47904
G1 X-16.268 Y-38.337 Z6.999 E279.30784
G1 X4.693 Y-33.192 Z7.084 E289.45772
G1 X26.104 Y-32.885 Z7.168 E299.52765
G1 X28.9 Y-23.199 Z7.208 E304.26865
G1 X34.482 Y-13.657 Z7.251 E309.46736
G1 X37.427 Y-3.056 Z7.294 E314.64146
G1 X42.385 Y5.605 Z7.333 E319.33459
G1 X27.037 Y20.43 Z7.417 E329.36951
G1 X16.188 Y38.631 Z7.5 E339.33405
;TIME_ELAPSED:260.153901
;LAYER:7
;TYPE:WALL-OUTER
;MESH:vase_basic.stl
G1 X-9.275 Y32.875 Z7.602 E351.61061
G1 X-26.612 Y32.192 Z7.67 E359.76996
G1 X-30.229 Y20.837 Z7.717 E365.37421
G1 X-34.759 Y12.841 Z7.753 E369.69599
G1 X-38.494 Y0.633 Z7.803 E375.6997
G1 X-42.032 Y-6.371 Z7.834 E379.38983
G1 X-24.462 Y-24.142 Z7.932 E391.14194
G1 X-15.317 Y-38.714 Z7.999 E399.23237
G1 X9.275 Y-32.57 Z8.099 E411.15266
G1 X26.915 Y-32.272 Z8.168 E419.44936
G1 X30.177 Y-20.807 Z8.215 E425.05496
G1 X34.818 Y-12.856 Z8.251 E429.38442
G1 X38.226 Y-.473 Z8.301 E435.42426
G1 X42.245 Y6.595 Z8.333 E439.24788
G1 X24.194 Y23.984 Z8.431 E451.03478
G1 X15.237 Y39.008 Z8.5 E459.26041
;TIME_ELAPSED:266.555401
;LAYER:8
;TYPE:WALL-OUTER
;MESH:vase_basic.stl
G1 X-13.857 Y32.253 Z8.617 E473.30631
G1 X-27.423 Y31.579 Z8.67 E479.69382
G1 X-31.506 Y18.445 Z8.724 E486.16189
G1 X-35.095 Y12.04 Z8.753 E489.61459
G1 X-39.293 Y-1.95 Z8.81 E496.48345
G1 X-41.893 Y-7.361 Z8.834 E499.30658
G1 X-21.619 Y-27.695 Z8.946 E512.80995
G1 X-14.367 Y-39.091 Z8.999 E519.16222
G1 X13.857 Y-31.948 Z9.114 E532.85352
G1 X27.726 Y-31.659 Z9.168 E539.37708
G1 X31.455 Y-18.414 Z9.222 E545.84792
G1 X35.154 Y-12.054 Z9.251 E549.3079
G1 X39.025 Y2.109 Z9.308 E556.21259
G1 X42.106 Y7.586 Z9.333 E559.16781
G1 X21.35 Y27.536 Z9.446 E572.7064
G1 X14.286 Y39.385 Z9.5 E579.19369
;TIME_ELAPSED:272.957177
;LAYER:9
;TYPE:WALL-OUTER
;MESH:vase_basic.stl
G1 X-18.439 Y31.631 Z9.632 E595.0093
G1 X-28.234 Y30.966 Z9.67 E599.62617
G1 X-32.784 Y16.053 Z9.731 E606.95842
G1 X-35.431 Y11.238 Z9.753 E609.54237
G1 X-40.092 Y-4.532 Z9.817 E617.27563
G1 X-41.753 Y-8.352 Z9.834 E619.23452
G1 X-18.774 Y-31.248 Z9.961 E634.48933
G1 X-13.416 Y-39.468 Z9.999 E639.10362
G1 X18.439 Y-31.326 Z10.128 E654.56558
G1 X28.537 Y-31.046 Z10.168 E659.31617
G1 X32.733 Y-16.022 Z10.229 E666.65185
G1 X35.489 Y-11.253 Z10.251 E669.24212
G1 X39.825 Y4.692 Z10.316 E677.01284
G1 X41.966 Y8.576 Z10.333 E679.09848
G1 X18.506 Y31.089 Z10.46 E694.38909
G1 X13.336 Y39.763 Z10.5 E699.1378
;TIME_ELAPSED:279.359293
;LAYER:10
;TYPE:WALL-OUTER
;MESH:vase_basic.stl
G1 X-23.021 Y31.009 Z10.647 E716.72394
G1 X-29.044 Y30.353 Z10.67 E719.57311
G1 X-34.061 Y13.66 Z10.739 E727.77017
G1 X-35.766 Y10.437 Z10.753 E729.48486
G1 X-40.891 Y-7.116 Z10.825 E738.08411
G1 X-41.613 Y-9.341 Z10.834 E739.18417
G1 X-15.931 Y-34.801 Z10.976 E756.19054
G1 X-12.466 Y-39.846 Z11 E759.06873
G1 X23.021 Y-30.704 Z11.143 E776.30199
G1 X29.347 Y-30.433 Z11.168 E779.27963
G1 X34.01 Y-13.63 Z11.236 E787.48016
G1 X35.825 Y-10.451 Z11.251 E789.20164
G1 X40.624 Y7.275 Z11.323 E797.8377
G1 X41.826 Y9.565 Z11.333 E799.05394
G1 X15.662 Y34.643 Z11.475 E816.09724
G1 X12.385 Y40.14 Z11.5 E819.1068
;TIME_ELAPSED:285.762053
;LAYER:11
;TYPE:WALL-OUTER
;MESH:vase_basic.stl
G1 X-27.603 Y30.388 Z11.661 E838.46298
G1 X-29.855 Y29.74 Z11.67 E839.565
G1 X-35.34 Y11.268 Z11.746 E848.62665
G1 X-36.102 Y9.635 Z11.753 E849.47409
G1 X-41.421 Y-10.005 Z11.833 E859.04287
G1 X-41.474 Y-10.331 Z11.834 E859.19819
G1 X-13.088 Y-38.355 Z11.99 E877.95655
G1 X-11.515 Y-40.223 Z12 E879.10498
G1 X27.603 Y-30.082 Z12.158 E898.10902
G1 X30.158 Y-29.819 Z12.168 E899.3169
G1 X35.288 Y-11.237 Z12.244 E908.38231
G1 X36.161 Y-9.65 Z12.251 E909.23409
G1 X41.355 Y9.936 Z12.33 E918.76311
G1 X41.687 Y10.556 Z12.333 E919.09385
G1 X12.82 Y38.196 Z12.489 E937.88852
G1 X11.435 Y40.517 Z12.5 E939.15957
;TIME_ELAPSED:292.167367
;LAYER:12
;TYPE:WALL-OUTER
;MESH:vase_basic.stl
G1 X-30.589 Y29.411 Z12.67 E959.60058
G1 X-36.327 Y9.247 Z12.751 E969.45951
G1 X-36.332 Y9.222 E969.4715
G1 X-41.557 Y-11.1 Z12.833 E979.3391
G1 X-10.861 Y-40.671 Z12.999 E999.38314
G1 X30.886 Y-29.488 Z13.168 E1019.70757
G1 X36.384 Y-9.262 Z13.25 E1029.56435
G1 X36.385 Y-9.235 E1029.57706
G1 X41.763 Y11.317 Z13.333 E1039.56742
G1 X10.783 Y40.957 Z13.5 E1059.73027
;TIME_ELAPSED:298.598942
;LAYER:13
;TYPE:WALL-OUTER
;MESH:vase_basic.stl
G1 X7.328 Y40.007 Z13.514 E1061.41535
G1 X-31.303 Y28.788 Z13.671 E1080.33285
G1 X-31.482 Y27.939 Z13.674 E1080.74088
G1 X-36.597 Y8.424 Z13.753 E1090.22816
G1 X-36.921 Y6.655 Z13.76 E1091.0739
G1 X-41.29 Y-11.968 Z13.835 E1100.06947
G1 X-39.14 Y-13.658 Z13.845 E1101.35551
G1 X-9.977 Y-40.814 Z14.001 E1120.09512
G1 X-7.409 Y-39.71 Z14.012 E1121.40963
G1 X31.366 Y-28.804 Z14.169 E1140.35179
G1 X31.424 Y-27.923 Z14.173 E1140.767
G1 X36.543 Y-8.409 Z14.251 E1150.25429
G1 X36.618 Y-6.576 Z14.258 E1151.11701
G1 X41.337 Y12.018 Z14.333 E1160.13838
G1 X38.926 Y13.434 Z14.344 E1161.45327
G1 X9.959 Y40.883 Z14.5 E1180.22004
;TIME_ELAPSED:305.028823
;LAYER:14
;TYPE:WALL-OUTER
;MESH:vase_basic.stl
G1 X3.088 Y38.203 Z14.529 E1183.68834
G1 X-31.497 Y28.024 Z14.67 E1200.64234
G1 X-32.05 Y25.299 Z14.681 E1201.94994
G1 X-36.527 Y7.544 Z14.753 E1210.5609
G1 X-36.976 Y3.957 Z14.767 E1212.26091
G1 X-40.75 Y-12.589 Z14.834 E1220.2418
G1 X-35.417 Y-16.332 Z14.859 E1223.30579
G1 X-9.096 Y-40.733 Z15 E1240.18443
G1 X-3.168 Y-37.908 Z15.025 E1243.27254
G1 X31.81 Y-28.017 Z15.168 E1260.36657
G1 X31.991 Y-25.283 Z15.179 E1261.6551
G1 X36.587 Y-7.543 Z15.25 E1270.27307
G1 X36.673 Y-3.877 Z15.265 E1271.99755
G1 X40.895 Y12.86 Z15.333 E1280.11498
G1 X35.203 Y16.108 Z15.358 E1283.19688
G1 X8.94 Y40.997 Z15.5 E1300.21255
;TIME_ELAPSED:311.432632
;LAYER:15
;TYPE:WALL-OUTER
;MESH:vase_basic.stl
G1 X-1.152 Y36.402 Z15.543 E1305.42728
G1 X-32.108 Y27.221 Z15.67 E1320.61164
G1 X-32.617 Y22.659 Z15.688 E1322.77031
G1 X-36.628 Y6.684 Z15.753 E1330.51601
G1 X-37.03 Y1.261 Z15.774 E1333.07327
G1 X-40.342 Y-13.506 Z15.833 E1340.19023
G1 X-31.694 Y-19.007 Z15.873 E1345.01016
G1 X-8.076 Y-40.847 Z16 E1360.13784
G1 X1.072 Y-36.107 Z16.04 E1364.98305
G1 X32.422 Y-27.214 Z16.168 E1380.30762
G1 X32.559 Y-22.644 Z16.186 E1382.45771
G1 X36.688 Y-6.683 Z16.25 E1390.21074
G1 X36.727 Y-1.181 Z16.272 E1392.79822
G1 X40.487 Y13.777 Z16.332 E1400.05131
G1 X31.481 Y18.784 Z16.373 E1404.89708
G1 X7.92 Y41.111 Z16.5 E1420.1617
;TIME_ELAPSED:317.834896
;LAYER:16
;TYPE:WALL-OUTER
;MESH:vase_basic.stl
G1 X-5.393 Y34.6 Z16.558 E1427.13101
G1 X-32.72 Y26.418 Z16.67 E1440.54568
G1 X-33.185 Y20.021 Z16.695 E1443.56192
G1 X-36.729 Y5.824 Z16.752 E1450.44318
G1 X-37.084 Y-1.436 Z16.781 E1453.8614
G1 X-39.933 Y-14.423 Z16.833 E1460.114
G1 X-27.973 Y-21.682 Z16.888 E1466.69329
G1 X-7.056 Y-40.961 Z17 E1480.07073
G1 X5.312 Y-34.304 Z17.055 E1486.67599
G1 X33.033 Y-26.411 Z17.168 E1500.23041
G1 X33.127 Y-20.005 Z17.193 E1503.24327
G1 X36.789 Y-5.823 Z17.25 E1510.13135
G1 X36.781 Y1.516 Z17.279 E1513.58265
G1 X40.078 Y14.694 Z17.332 E1519.97085
G1 X27.759 Y21.458 Z17.387 E1526.5799
G1 X6.9 Y41.225 Z17.5 E1540.09411
;TIME_ELAPSED:324.236568
;LAYER:17
;TYPE:WALL-OUTER
;MESH:vase_basic.stl
G1 X-9.632 Y32.798 Z17.573 E1548.82035
G1 X-33.331 Y25.615 Z17.67 E1560.46589
G1 X-33.754 Y17.382 Z17.702 E1564.34271
G1 X-36.83 Y4.964 Z17.752 E1570.35898
G92 E0
G1 X-37.139 Y-4.133 Z17.788 E4.28049
G1 X-39.525 Y-15.34 Z17.833 E9.6689
G1 X-24.251 Y-24.356 Z17.903 E18.0098
G1 X-6.036 Y-41.075 Z17.999 E29.63703
G1 X9.552 Y-32.502 Z18.069 E38.00306
G1 X33.644 Y-25.608 Z18.168 E49.78748
G1 X33.696 Y-17.366 Z18.2 E53.6635
G1 X36.89 Y-4.963 Z18.25 E59.68652
G1 X36.837 Y4.213 Z18.286 E64.00177
G1 X39.67 Y15.611 Z18.332 E69.52497
G1 X24.037 Y24.133 Z18.402 E77.89804
G1 X5.88 Y41.338 Z18.5 E89.66121
;TIME_ELAPSED:330.652018
;LAYER:18
;TYPE:WALL-OUTER
;MESH:vase_basic.stl
G1 X-13.873 Y30.995 Z18.587 E100.14679
G1 X-33.942 Y24.812 Z18.67 E110.02234
G1 X-34.322 Y14.743 Z18.709 E114.76084
G1 X-36.931 Y4.104 Z18.752 E119.91226
G1 X-37.194 Y-6.83 Z18.795 E125.05565
G1 X-39.116 Y-16.256 Z18.833 E129.5796
G1 X-20.528 Y-27.032 Z18.917 E139.68363
G1 X-5.017 Y-41.188 Z18.999 E149.55907
G1 X13.793 Y-30.7 Z19.084 E159.68691
G1 X34.255 Y-24.805 Z19.167 E169.7009
G1 X34.263 Y-14.727 Z19.207 E174.44026
G1 X36.991 Y-4.103 Z19.25 E179.59846
G1 X36.892 Y6.91 Z19.293 E184.77772
G1 X39.261 Y16.528 Z19.332 E189.43594
G1 X20.314 Y26.808 Z19.417 E199.57309
G1 X4.861 Y41.452 Z19.5 E209.58484
;TIME_ELAPSED:337.053409
;LAYER:19
;TYPE:WALL-OUTER
;MESH:vase_basic.stl
G1 X-18.114 Y29.194 Z19.602 E221.83086
G1 X-34.552 Y24.009 Z19.67 E229.93656
G1 X-34.89 Y12.103 Z19.716 E235.53782
G1 X-37.032 Y3.244 Z19.752 E239.82397
G1 X-37.249 Y-9.527 Z19.802 E245.83062
G1 X-38.707 Y-17.174 Z19.833 E249.49154
G1 X-16.806 Y-29.706 Z19.932 E261.3578
G1 X-3.997 Y-41.302 Z19.999 E269.4832
G1 X18.033 Y-28.898 Z20.099 E281.37251
G1 X34.866 Y-24.002 Z20.167 E289.61657
G1 X34.832 Y-12.088 Z20.214 E295.21936
G1 X37.092 Y-3.243 Z20.25 E299.51251
G1 X36.947 Y9.607 Z20.3 E305.55583
G1 X38.852 Y17.445 Z20.332 E309.34909
G1 X16.592 Y29.483 Z20.431 E321.24993
G1 X3.841 Y41.566 Z20.5 E329.51096
;TIME_ELAPSED:343.454916
;LAYER:20
;TYPE:WALL-OUTER
;MESH:vase_basic.stl
G1 X-22.353 Y27.392 Z20.617 E343.51694
G1 X-35.163 Y23.206 Z20.67 E349.85455
G1 X-35.458 Y9.464 Z20.724 E356.31845
G1 X-37.133 Y2.384 Z20.752 E359.73986
G1 X-37.304 Y-12.225 Z20.809 E366.61046
G1 X-38.299 Y-18.09 Z20.833 E369.40799
G1 X-13.083 Y-32.382 Z20.946 E383.03852
G1 X-2.977 Y-41.416 Z20.999 E389.4131
G1 X22.273 Y-27.096 Z21.113 E403.06403
G1 X35.477 Y-23.199 Z21.167 E409.53824
G1 X35.4 Y-9.449 Z21.221 E416.00452
G1 X37.193 Y-2.383 Z21.25 E419.43274
G1 X37.001 Y12.304 Z21.307 E426.34015
G1 X38.444 Y18.362 Z21.332 E429.26873
G1 X12.869 Y32.157 Z21.446 E442.93389
G1 X2.821 Y41.679 Z21.5 E449.44384
;TIME_ELAPSED:349.856688
;LAYER:21
;TYPE:WALL-OUTER
;MESH:vase_basic.stl
G1 X-26.594 Y25.59 Z21.631 E465.21077
G1 X-35.774 Y22.403 Z21.67 E469.78058
G1 X-36.026 Y6.825 Z21.731 E477.10737
G1 X-37.235 Y1.523 Z21.752 E479.66473
G1 X-37.359 Y-14.921 Z21.816 E487.39803
G1 X-37.891 Y-19.007 Z21.833 E489.33576
G1 X-9.36 Y-35.056 Z21.961 E504.73003
G1 X-1.958 Y-41.529 Z21.999 E509.3542
G1 X26.514 Y-25.295 Z22.128 E524.7672
G1 X36.088 Y-22.396 Z22.167 E529.47142
G1 X35.968 Y-6.809 Z22.228 E536.80169
G1 X37.295 Y-1.522 Z22.25 E539.36512
G1 X37.056 Y15 Z22.314 E547.13569
G1 X38.035 Y19.278 Z22.332 E549.1995
G1 X9.147 Y34.833 Z22.46 E564.62882
G1 X1.802 Y41.793 Z22.5 E569.38738
;TIME_ELAPSED:356.258784
;LAYER:22
;TYPE:WALL-OUTER
;MESH:vase_basic.stl
G1 X-30.834 Y23.789 Z22.646 E586.91551
G1 X-36.385 Y21.6 Z22.669 E589.7216
G1 X-36.594 Y4.187 Z22.738 E597.91096
G1 X-37.336 Y0.663 Z22.752 E599.60452
G1 X-37.413 Y-17.618 Z22.824 E608.20156
G1 X-37.481 Y-19.924 Z22.833 E609.28647
G1 X-5.638 Y-37.731 Z22.976 E626.4436
G1 X-.938 Y-41.643 Z23 E629.31931
G1 X30.753 Y-23.492 Z23.143 E646.49392
G1 X36.699 Y-21.593 Z23.167 E649.42927
G1 X36.536 Y-4.171 Z23.235 E657.62263
G1 X37.396 Y-.662 Z23.25 E659.32164
G1 X37.111 Y17.698 Z23.322 E667.95679
G1 X37.626 Y20.195 Z23.332 E669.15576
G1 X5.425 Y37.507 Z23.475 E686.34859
G1 X0.782 Y41.907 Z23.5 E689.35674
;TIME_ELAPSED:362.661550
;LAYER:23
;TYPE:WALL-OUTER
;MESH:vase_basic.stl
G1 X-35.074 Y21.986 Z23.661 E708.6463
G1 X-36.996 Y20.797 Z23.67 E709.70913
G1 X-37.162 Y1.547 Z23.745 E718.76211
G1 X-37.437 Y-.194 Z23.752 E719.591
G1 X-37.116 Y-20.521 Z23.831 E729.15132
G1 X-37.074 Y-20.84 Z23.833 E729.30263
G1 X-1.916 Y-40.405 Z23.99 E748.22395
G1 X0.083 Y-41.757 Z24 E749.35884
G1 X34.994 Y-21.69 Z24.158 E768.29528
G1 X37.31 Y-20.79 Z24.167 E769.46377
G1 X37.104 Y-1.532 Z24.243 E778.5207
G1 X37.497 Y0.195 Z24.25 E779.35362
G1 X37.076 Y20.446 Z24.329 E788.87906
G1 X37.218 Y21.112 Z24.332 E789.1993
G1 X1.702 Y40.182 Z24.49 E808.15669
G1 X-.239 Y42.021 Z24.5 E809.4141
;TIME_ELAPSED:369.067011
;LAYER:24
;TYPE:WALL-OUTER
;MESH:vase_basic.stl
G1 X-37.609 Y20.293 Z24.669 E829.74263
G1 X-37.545 Y-.638 Z24.75 E839.58584
G1 X-37.54 Y-.692 E839.61134
G1 X-36.943 Y-21.593 Z24.832 E849.44441
G1 X0.828 Y-42.009 Z25 E869.63561
G1 X37.911 Y-20.286 Z25.167 E889.84638
G1 X37.601 Y0.639 Z25.249 E899.6878
G1 X37.588 Y0.693 E899.71392
G1 X37.078 Y21.847 Z25.332 E909.66485
G1 X-.974 Y42.256 Z25.5 E929.97084
;TIME_ELAPSED:375.497856
;LAYER:25
;TYPE:WALL-OUTER
;MESH:vase_basic.stl
G1 X-4.086 Y40.404 Z25.514 E931.67386
G1 X-38.116 Y19.498 Z25.67 E950.45574
G1 X-38.052 Y18.613 Z25.674 E950.87302
G1 X-37.567 Y-1.493 Z25.752 E960.33096
G1 X-37.389 Y-3.313 Z25.759 E961.19093
G1 X-36.432 Y-22.359 Z25.834 E970.15895
G1 X-33.826 Y-23.449 Z25.845 E971.48735
G1 X1.722 Y-41.908 Z26.001 E990.32386
G1 X3.929 Y-40.14 Z26.012 E991.65371
G1 X38.183 Y-19.496 Z26.168 E1010.46153
G1 X37.992 Y-18.614 Z26.172 E1010.88592
G1 X37.514 Y1.492 Z26.25 E1020.34379
G1 X37.075 Y3.306 Z26.257 E1021.22148
G1 X36.469 Y22.428 Z26.332 E1030.21845
G1 X33.681 Y23.179 Z26.343 E1031.57629
G1 X-1.764 Y41.978 Z26.5 E1050.44422
;TIME_ELAPSED:381.926864
;LAYER:26
;TYPE:WALL-OUTER
;MESH:vase_basic.stl
G1 X-7.671 Y37.557 Z26.529 E1053.91395
G1 X-38.096 Y18.718 Z26.669 E1070.74262
G1 X-37.868 Y15.923 Z26.68 E1072.06138
G1 X-37.262 Y-2.32 Z26.752 E1080.64521
G1 X-36.694 Y-5.925 Z26.766 E1082.36144
G1 X-35.744 Y-22.827 Z26.832 E1090.32244
G1 X-29.501 Y-25.048 Z26.858 E1093.43858
G1 X2.553 Y-41.606 Z27 E1110.40492
G1 X7.514 Y-37.291 Z27.025 E1113.49693
G1 X38.395 Y-18.624 Z27.167 E1130.46631
G1 X37.808 Y-15.924 Z27.178 E1131.76569
G1 X37.319 Y2.338 Z27.249 E1140.3568
G1 X36.381 Y5.918 Z27.264 E1142.09718
G1 X35.811 Y23.126 Z27.331 E1150.19399
G1 X29.356 Y24.777 Z27.357 E1153.32728
G1 X-2.777 Y41.82 Z27.5 E1170.43231
;TIME_ELAPSED:388.330460
;LAYER:27
;TYPE:WALL-OUTER
;MESH:vase_basic.stl
G1 X-11.255 Y34.708 Z27.543 E1175.63631
G1 X-38.462 Y17.784 Z27.669 E1190.70427
G1 X-37.684 Y13.232 Z27.687 E1192.87597
G1 X-37.121 Y-3.173 Z27.751 E1200.59525
G1 X-36.001 Y-8.536 Z27.773 E1203.17171
G1 X-35.096 Y-23.604 Z27.832 E1210.27047
G1 X-25.175 Y-26.646 Z27.873 E1215.15039
G1 X3.567 Y-41.448 Z28 E1230.35394
G1 X11.099 Y-34.443 Z28.04 E1235.19109
G1 X38.761 Y-17.69 Z28.167 E1250.39935
G1 X37.624 Y-13.233 Z28.185 E1252.56246
G1 X37.178 Y3.192 Z28.249 E1260.28945
G1 X35.687 Y8.529 Z28.271 E1262.89537
G1 X35.163 Y23.903 Z28.331 E1270.12946
G1 X25.03 Y26.375 Z28.372 E1275.03444
G1 X-3.791 Y41.662 Z28.5 E1290.37657
;TIME_ELAPSED:394.732470
;LAYER:28
;TYPE:WALL-OUTER
;MESH:vase_basic.stl
G1 X-14.84 Y31.859 Z28.558 E1297.32284
G1 X-38.829 Y16.85 Z28.669 E1310.63018
G1 X-37.5 Y10.541 Z28.694 E1313.66221
G1 X-36.981 Y-4.029 Z28.751 E1320.51835
G1 X-35.306 Y-11.148 Z28.78 E1323.95761
G1 X-34.449 Y-24.379 Z28.832 E1330.19276
G1 X-20.849 Y-28.245 Z28.887 E1336.84178
G1 X4.58 Y-41.29 Z29 E1350.28194
G1 X14.683 Y-31.594 Z29.054 E1356.86708
G1 X39.127 Y-16.756 Z29.167 E1370.31439
G1 X37.44 Y-10.542 Z29.192 E1373.34241
G1 X37.038 Y4.047 Z29.249 E1380.20575
G1 X34.992 Y11.141 Z29.278 E1383.6778
G1 X34.516 Y24.678 Z29.331 E1390.04775
G1 X20.705 Y27.974 Z29.387 E1396.72501
G1 X-4.804 Y41.504 Z29.5 E1410.30402
;TIME_ELAPSED:401.133878
;LAYER:29
;TYPE:WALL-OUTER
;MESH:vase_basic.stl
G1 X-18.424 Y29.01 Z29.572 E1418.99576
G1 X-39.195 Y15.916 Z29.669 E1430.54259
G1 X-37.317 Y7.851 Z29.701 E1434.43677
G1 X-36.84 Y-4.884 Z29.751 E1440.42983
G1 X-34.612 Y-13.76 Z29.787 E1444.73341
G1 X-33.801 Y-25.155 Z29.832 E1450.10567
G1 X-16.524 Y-29.843 Z29.902 E1458.52427
G1 X5.594 Y-41.131 Z29.999 E1470.20192
G1 X18.268 Y-28.745 Z30.069 E1478.53566
G1 X39.493 Y-15.822 Z30.166 E1490.22164
G1 X37.256 Y-7.852 Z30.199 E1494.11451
G1 X36.897 Y4.902 Z30.249 E1500.11467
G1 X34.298 Y13.753 Z30.285 E1504.45275
G1 X33.868 Y25.454 Z30.331 E1509.95906
G1 X16.379 Y29.572 Z30.401 E1518.40849
G1 X-5.818 Y41.345 Z30.5 E1530.22438
;TIME_ELAPSED:407.535043
;LAYER:30
;TYPE:WALL-OUTER
;MESH:vase_basic.stl
G1 X-22.01 Y26.161 Z30.587 E1540.6632
G1 X-39.561 Y14.982 Z30.669 E1550.44892
G1 X-37.133 Y5.16 Z30.708 E1555.20693
G1 X-36.699 Y-5.738 Z30.751 E1560.33596
G1 X-33.918 Y-16.372 Z30.794 E1565.50497
G1 X-33.154 Y-25.93 Z30.832 E1570.01412
G92 E0
G1 X-12.199 Y-31.442 Z30.917 E10.18967
G1 X6.607 Y-40.973 Z30.999 E20.10446
G1 X21.853 Y-25.896 Z31.084 E30.18791
G1 X39.859 Y-14.888 Z31.166 E40.11258
G1 X37.072 Y-5.161 Z31.206 E44.87093
G1 X36.756 Y5.757 Z31.249 E50.00746
G1 X33.604 Y16.365 Z31.292 E55.21162
G1 X33.221 Y26.229 Z31.331 E59.85384
G1 X12.054 Y31.171 Z31.416 E70.0757
G1 X-6.831 Y41.187 Z31.5 E80.12847
;TIME_ELAPSED:413.946869
;LAYER:31
;TYPE:WALL-OUTER
;MESH:vase_basic.stl
G1 X-25.594 Y23.313 Z31.602 E92.31493
G1 X-39.927 Y14.048 Z31.669 E100.34089
G1 X-36.949 Y2.469 Z31.715 E105.96332
G1 X-36.559 Y-6.594 Z31.751 E110.2293
G1 X-33.224 Y-18.983 Z31.801 E116.26284
G1 X-32.506 Y-26.707 Z31.832 E119.91085
G1 X-7.874 Y-33.04 Z31.931 E131.87121
G1 X7.621 Y-40.815 Z31.999 E140.02388
G1 X25.438 Y-23.048 Z32.098 E151.85662
G1 X40.226 Y-13.954 Z32.166 E160.02068
G1 X36.889 Y-2.47 Z32.213 E165.64462
G1 X36.616 Y6.612 Z32.249 E169.91752
G1 X32.91 Y18.976 Z32.299 E175.98748
G1 X32.573 Y27.005 Z32.331 E179.76659
G1 X7.729 Y32.769 Z32.431 E191.76023
G1 X-7.845 Y41.029 Z32.5 E200.05052
;TIME_ELAPSED:420.348154
;LAYER:32
;TYPE:WALL-OUTER
;MESH:vase_basic.stl
G1 X-29.179 Y20.463 Z32.616 E213.98584
G1 X-40.294 Y13.114 Z32.668 E220.25207
G1 X-36.765 Y-.222 Z32.723 E226.73943
G1 X-36.418 Y-7.448 Z32.751 E230.14149
G1 X-32.529 Y-21.595 Z32.808 E237.04117
G1 X-31.859 Y-27.481 Z32.832 E239.82704
G1 X-3.548 Y-34.639 Z32.946 E253.55973
G1 X8.634 Y-40.657 Z32.999 E259.94945
G1 X29.022 Y-20.198 Z33.113 E273.53229
G1 X40.592 Y-13.02 Z33.166 E279.93534
G1 X36.705 Y0.221 Z33.22 E286.42491
G1 X36.474 Y7.466 Z33.249 E289.83373
G1 X32.215 Y21.588 Z33.306 E296.77029
G1 X31.926 Y27.78 Z33.331 E299.68536
G1 X3.403 Y34.368 Z33.446 E313.45194
G1 X-8.858 Y40.871 Z33.5 E319.97869
;TIME_ELAPSED:426.749669
;LAYER:33
;TYPE:WALL-OUTER
;MESH:vase_basic.stl
G1 X-32.763 Y17.615 Z33.631 E335.66259
G1 X-40.66 Y12.18 Z33.668 E340.17083
G1 X-36.581 Y-2.912 Z33.73 E347.52277
G1 X-36.277 Y-8.303 Z33.751 E350.06201
G1 X-31.835 Y-24.207 Z33.816 E357.82738
G1 X-31.211 Y-28.258 Z33.832 E359.7549
G1 X0.777 Y-36.238 Z33.961 E375.25885
G1 X9.648 Y-40.499 Z33.999 E379.88688
G1 X32.607 Y-17.35 Z34.127 E395.21928
G1 X40.958 Y-12.086 Z34.166 E399.86158
G1 X36.521 Y2.911 Z34.227 E407.21638
G1 X36.333 Y8.321 Z34.249 E409.76206
G1 X31.522 Y24.2 Z34.314 E417.56465
G1 X31.278 Y28.556 Z34.331 E419.61635
G1 X-.923 Y35.966 Z34.46 E435.1552
G1 X-9.872 Y40.713 Z34.5 E439.91905
;TIME_ELAPSED:433.151580
;LAYER:34
;TYPE:WALL-OUTER
;MESH:vase_basic.stl
G1 X-36.348 Y14.766 Z34.645 E457.35213
G1 X-41.025 Y11.246 Z34.668 E460.10489
G1 X-36.397 Y-5.603 Z34.737 E468.32189
G1 X-36.136 Y-9.157 Z34.751 E469.99773
G1 X-31.141 Y-26.817 Z34.823 E478.62846
G1 X-30.564 Y-29.033 Z34.832 E479.70532
G1 X5.103 Y-37.836 Z34.976 E496.98167
G1 X10.661 Y-40.341 Z35 E499.84862
G1 X36.191 Y-14.501 Z35.142 E516.93096
G1 X41.324 Y-11.152 Z35.166 E519.81318
G1 X36.337 Y5.602 Z35.234 E528.03368
G1 X36.193 Y9.176 Z35.249 E529.71578
G1 X30.827 Y26.81 Z35.321 E538.38392
G1 X30.631 Y29.331 Z35.331 E539.57304
G1 X-5.248 Y37.565 Z35.475 E556.88439
G1 X-10.885 Y40.555 Z35.5 E559.88512
;TIME_ELAPSED:439.554135
;LAYER:35
;TYPE:WALL-OUTER
;MESH:vase_basic.stl
G1 X-39.932 Y11.917 Z35.66 E579.06756
G1 X-41.391 Y10.312 Z35.668 E580.08758
G1 X-36.213 Y-8.294 Z35.744 E589.1699
G1 X-35.996 Y-10.013 Z35.751 E589.9847
G1 X-30.048 Y-29.518 Z35.831 E599.57428
G1 X-29.916 Y-29.809 Z35.832 E599.72455
G1 X9.428 Y-39.435 Z35.991 E618.77248
G1 X11.675 Y-40.183 Z36 E619.88618
G1 X39.775 Y-11.652 Z36.157 E638.71819
G1 X41.69 Y-10.218 Z36.166 E639.84326
G1 X36.153 Y8.293 Z36.242 E648.92948
G1 X36.052 Y10.031 Z36.249 E649.74818
G1 X30.031 Y29.445 Z36.328 E659.30695
G1 X29.983 Y30.107 Z36.331 E659.61908
G1 X-9.573 Y39.164 Z36.49 E678.70237
G1 X-11.899 Y40.397 Z36.5 E679.94039
;TIME_ELAPSED:445.959327
;LAYER:36
;TYPE:WALL-OUTER
;MESH:vase_basic.stl
G1 X-41.843 Y9.674 Z36.667 E700.11561
G1 X-35.977 Y-10.465 Z36.749 E709.9799
G1 X-35.945 Y-10.546 Z36.75 E710.02086
G1 X-29.584 Y-30.492 Z36.831 E719.86626
G1 X12.451 Y-40.228 Z37 E740.15726
G1 X42.124 Y-9.586 Z37.166 E760.21635
G1 X36.029 Y10.48 Z37.248 E770.07845
G1 X35.985 Y10.558 E770.12057
G1 X29.644 Y30.762 Z37.331 E780.07881
G1 X-12.653 Y40.422 Z37.5 E800.48187
;TIME_ELAPSED:452.389346
;LAYER:37
;TYPE:WALL-OUTER
;MESH:vase_basic.stl
G1 X-15.174 Y37.783 Z37.514 E802.19817
G1 X-42.1 Y8.77 Z37.669 E820.81247
G1 X-41.783 Y7.906 Z37.672 E821.24526
G1 X-35.751 Y-11.298 Z37.751 E830.7113
G1 X-35.063 Y-13.037 Z37.758 E831.59077
G1 X-28.872 Y-31.092 Z37.833 E840.56674
G1 X-25.987 Y-31.467 Z37.844 E841.93488
G1 X13.287 Y-39.889 Z38.001 E860.82405
G1 X14.95 Y-37.568 Z38.012 E862.16679
G1 X42.166 Y-8.748 Z38.167 E880.80804
G1 X41.725 Y-7.924 Z38.17 E881.24755
G1 X35.705 Y11.284 Z38.249 E890.71369
G1 X34.765 Y12.943 Z38.257 E891.6104
G1 X28.891 Y31.177 Z38.331 E900.61921
G1 X25.919 Y31.169 Z38.343 E902.01685
G1 X-13.35 Y39.949 Z38.5 E920.93974
;TIME_ELAPSED:458.817506
;LAYER:38
;TYPE:WALL-OUTER
;MESH:vase_basic.stl
G1 X-17.836 Y34.098 Z38.529 E924.40694
G1 X-41.871 Y8.024 Z38.668 E941.08344
G1 X-40.86 Y5.364 Z38.679 E942.42166
G1 X-35.236 Y-12.013 Z38.751 E951.01083
G1 X-33.673 Y-15.367 Z38.765 E952.75096
G1 X-28.077 Y-31.375 Z38.832 E960.72573
G1 X-21.38 Y-31.87 Z38.858 E963.8837
G1 X14.007 Y-39.385 Z39 E980.89617
G1 X17.613 Y-33.884 Z39.025 E983.98938
G1 X42.131 Y-7.852 Z39.166 E1000.80628
G1 X40.803 Y-5.382 Z39.177 E1002.12509
G1 X35.285 Y12.045 Z39.248 E1010.72145
G1 X33.373 Y15.274 Z39.263 E1012.48619
G1 X28.064 Y31.68 Z39.331 E1020.5953
G1 X21.312 Y31.572 Z39.357 E1023.77095
G1 X-14.283 Y39.532 Z39.5 E1040.92357
;TIME_ELAPSED:465.220879
;LAYER:39
;TYPE:WALL-OUTER
;MESH:vase_basic.stl
G1 X-20.499 Y30.414 Z39.543 E1046.11309
G1 X-41.965 Y7.027 Z39.668 E1061.0417
G1 X-39.938 Y2.822 Z39.686 E1063.23694
G1 X-34.863 Y-12.799 Z39.75 E1070.96095
G1 X-32.281 Y-17.701 Z39.772 E1073.56643
G1 X-27.239 Y-31.952 Z39.831 E1080.67529
G1 X-16.772 Y-32.274 Z39.872 E1085.59991
G1 X14.94 Y-38.966 Z40 E1100.84147
G1 X20.276 Y-30.199 Z40.04 E1105.66792
G1 X42.225 Y-6.856 Z40.165 E1120.73597
G1 X39.881 Y-2.839 Z40.184 E1122.92313
G1 X34.913 Y12.831 Z40.248 E1130.6537
G1 X31.982 Y17.608 Z40.27 E1133.28932
G1 X27.226 Y32.258 Z40.33 E1140.53269
G1 X16.704 Y31.976 Z40.372 E1145.48262
G1 X-15.216 Y39.113 Z40.5 E1160.8642
;TIME_ELAPSED:471.622681
;LAYER:40
;TYPE:WALL-OUTER
;MESH:vase_basic.stl
G1 X-23.162 Y26.73 Z40.558 E1167.78333
G1 X-42.059 Y6.032 Z40.668 E1180.96345
G1 X-39.017 Y0.279 Z40.693 E1184.02383
G1 X-34.491 Y-13.585 Z40.75 E1190.88224
G1 X-30.89 Y-20.034 Z40.779 E1194.35576
G1 X-26.401 Y-32.53 Z40.831 E1200.5999
G1 X-12.165 Y-32.677 Z40.887 E1207.29498
G1 X15.872 Y-38.549 Z40.999 E1220.76594
G1 X22.939 Y-26.515 Z41.054 E1227.32882
G1 X42.319 Y-5.861 Z41.165 E1240.64804
G1 X38.959 Y-.296 Z41.191 E1243.7051
G1 X34.541 Y13.617 Z41.248 E1250.56988
G1 X30.591 Y19.94 Z41.277 E1254.07591
G1 X26.388 Y32.834 Z41.33 E1260.45355
G1 X12.097 Y32.379 Z41.387 E1267.17755
G1 X-16.147 Y38.695 Z41.5 E1280.78784
;TIME_ELAPSED:478.023865
;LAYER:41
;TYPE:WALL-OUTER
;MESH:vase_basic.stl
G1 X-25.825 Y23.045 Z41.572 E1289.44109
G1 X-42.153 Y5.037 Z41.667 E1300.87248
G1 X-38.096 Y-2.263 Z41.7 E1304.79997
G1 X-34.119 Y-14.371 Z41.75 E1310.79325
G1 X-29.499 Y-22.365 Z41.786 E1315.13524
G1 X-25.563 Y-33.106 Z41.831 E1320.51484
G1 X-7.557 Y-33.081 Z41.902 E1328.98249
G1 X16.804 Y-38.129 Z41.999 E1340.68205
G1 X25.602 Y-22.831 Z42.069 E1348.98109
G1 X42.413 Y-4.866 Z42.165 E1360.55149
G1 X38.038 Y2.246 Z42.198 E1364.47819
G1 X34.169 Y14.403 Z42.248 E1370.47777
G1 X29.2 Y22.272 Z42.284 E1374.85435
G1 X25.55 Y33.411 Z42.33 E1380.36671
G1 X7.489 Y32.783 Z42.401 E1388.86535
G1 X-17.079 Y38.275 Z42.5 E1400.70404
;TIME_ELAPSED:484.424784
;LAYER:42
;TYPE:WALL-OUTER
;MESH:vase_basic.stl
G1 X-28.488 Y19.362 Z42.587 E1411.09117
G1 X-42.247 Y4.042 Z42.667 E1420.77471
G1 X-37.173 Y-4.806 Z42.707 E1425.57127
G1 X-33.747 Y-15.157 Z42.75 E1430.69871
G1 X-28.107 Y-24.697 Z42.794 E1435.91044
G1 X-24.723 Y-33.683 Z42.831 E1440.42598
G1 X-2.95 Y-33.484 Z42.917 E1450.66554
G1 X17.735 Y-37.71 Z42.999 E1460.59396
G1 X28.265 Y-19.147 Z43.083 E1470.63024
G1 X42.507 Y-3.871 Z43.165 E1480.45186
G1 X37.116 Y4.788 Z43.205 E1485.24862
G1 X33.797 Y15.189 Z43.248 E1490.38287
G1 X27.808 Y24.604 Z43.292 E1495.63031
G1 X24.71 Y33.988 Z43.33 E1500.27757
G1 X2.882 Y33.186 Z43.416 E1510.54949
G1 X-18.011 Y37.857 Z43.5 E1520.61735
;TIME_ELAPSED:490.825595
;LAYER:43
;TYPE:WALL-OUTER
;MESH:vase_basic.stl
G1 X-31.151 Y15.678 Z43.601 E1532.74047
G1 X-42.341 Y3.046 Z43.667 E1540.67649
G1 X-36.251 Y-7.348 Z43.715 E1546.34167
G1 X-33.374 Y-15.944 Z43.75 E1550.60449
G1 X-26.715 Y-27.03 Z43.801 E1556.68608
G1 X-23.885 Y-34.26 Z43.831 E1560.3373
G1 X1.658 Y-33.887 Z43.931 E1572.35062
G92 E0
G1 X18.668 Y-37.291 Z43.999 E8.15785
G1 X30.928 Y-15.463 Z44.098 E19.93117
G1 X42.601 Y-2.875 Z44.165 E28.0044
G1 X36.194 Y7.331 Z44.212 E33.67131
G1 X33.424 Y15.976 Z44.248 E37.94037
G1 X26.417 Y26.936 Z44.299 E44.05782
G1 X23.872 Y34.565 Z44.33 E47.83985
G1 X-1.726 Y33.589 Z44.431 E59.88651
G1 X-18.943 Y37.438 Z44.5 E68.18296
;TIME_ELAPSED:497.237201
;LAYER:44
;TYPE:WALL-OUTER
;MESH:vase_basic.stl
G1 X-33.814 Y11.992 Z44.616 E82.04306
G1 X-42.435 Y2.051 Z44.667 E88.23106
G1 X-35.329 Y-9.891 Z44.722 E94.76603
G1 X-33.002 Y-16.73 Z44.75 E98.16326
G1 X-25.324 Y-29.362 Z44.808 E105.11494
G1 X-23.048 Y-34.837 Z44.831 E107.90327
G1 X6.265 Y-34.291 Z44.946 E121.69061
G1 X19.599 Y-36.874 Z44.999 E128.07773
G1 X33.591 Y-11.778 Z45.112 E141.58992
G1 X42.695 Y-1.88 Z45.165 E147.91416
G1 X35.272 Y9.874 Z45.219 E154.45168
G1 X33.052 Y16.762 Z45.248 E157.85497
G1 X25.025 Y29.269 Z45.306 E164.84375
G1 X23.035 Y35.142 Z45.33 E167.75987
G1 X-6.333 Y33.993 Z45.446 E181.58125
G1 X-19.875 Y37.021 Z45.5 E188.10687
;TIME_ELAPSED:503.638456
;LAYER:45
;TYPE:WALL-OUTER
;MESH:vase_basic.stl
G1 X-36.477 Y8.308 Z45.63 E203.70433
G1 X-42.529 Y1.056 Z45.667 E208.14626
G1 X-34.408 Y-12.434 Z45.729 E215.55101
G1 X-32.63 Y-17.516 Z45.75 E218.08295
G1 X-23.933 Y-31.695 Z45.815 E225.90527
G1 X-22.209 Y-35.414 Z45.831 E227.83297
G1 X10.873 Y-34.695 Z45.961 E243.39403
G1 X20.532 Y-36.455 Z45.999 E248.01114
G1 X36.254 Y-8.093 Z46.127 E263.26104
G1 X42.789 Y-.885 Z46.165 E267.83647
G1 X34.35 Y12.417 Z46.227 E275.24464
G1 X32.68 Y17.548 Z46.248 E277.78217
G1 X23.633 Y31.602 Z46.313 E285.64229
G1 X22.196 Y35.719 Z46.33 E287.69293
G1 X-10.941 Y34.397 Z46.46 E303.28858
G1 X-20.807 Y36.602 Z46.5 E308.04271
;TIME_ELAPSED:510.040088
;LAYER:46
;TYPE:WALL-OUTER
;MESH:vase_basic.stl
G1 X-39.139 Y4.624 Z46.644 E325.37673
G1 X-42.623 Y0.06 Z46.667 E328.07692
G1 X-33.486 Y-14.976 Z46.736 E336.35104
G1 X-32.258 Y-18.302 Z46.75 E338.01835
G1 X-22.541 Y-34.027 Z46.822 E346.71125
G1 X-21.372 Y-35.991 Z46.831 E347.78608
G1 X15.48 Y-35.098 Z46.976 E365.12147
G1 X21.463 Y-36.037 Z47 E367.96952
G1 X38.916 Y-4.409 Z47.141 E384.95743
G1 X42.883 Y0.111 Z47.165 E387.78559
G1 X33.428 Y14.958 Z47.234 E396.06324
G1 X32.308 Y18.335 Z47.248 E397.7364
G1 X22.242 Y33.933 Z47.32 E406.46644
G1 X21.359 Y36.296 Z47.33 E407.65273
G1 X-15.548 Y34.8 Z47.475 E425.02315
G1 X-21.739 Y36.184 Z47.5 E428.00644
;TIME_ELAPSED:516.442464
;LAYER:47
;TYPE:WALL-OUTER
;MESH:vase_basic.stl
G1 X-41.803 Y0.94 Z47.659 E447.07811
G1 X-42.717 Y-.935 Z47.667 E448.05905
G1 X-32.563 Y-17.518 Z47.743 E457.2033
G1 X-31.886 Y-19.089 Z47.75 E458.00777
G1 X-20.744 Y-36.327 Z47.83 E467.6602
G1 X-20.534 Y-36.568 Z47.832 E467.81053
G1 X20.088 Y-35.501 Z47.991 E486.92033
G1 X22.396 Y-35.618 Z48 E488.0071
G1 X41.58 Y-.725 Z48.156 E506.73265
G1 X42.977 Y1.106 Z48.165 E507.81571
G1 X32.506 Y17.501 Z48.241 E516.96405
G1 X31.936 Y19.121 Z48.248 E517.77166
G1 X20.747 Y36.257 Z48.328 E527.39592
G1 X20.521 Y36.872 Z48.33 E527.70404
G1 X-20.156 Y35.203 Z48.49 E546.84921
G1 X-22.671 Y35.765 Z48.5 E548.0611
;TIME_ELAPSED:522.847447
;LAYER:48
;TYPE:WALL-OUTER
;MESH:vase_basic.stl
G1 X-42.975 Y-1.663 Z48.666 E568.08537
G1 X-31.743 Y-19.518 Z48.748 E578.00522
G1 X-31.673 Y-19.61 Z48.749 E578.05958
G1 X-20.028 Y-37.131 Z48.831 E587.95301
G1 X23.142 Y-35.461 Z49 E608.26964
G1 X43.215 Y1.82 Z49.165 E628.18145
G1 X31.786 Y19.547 Z49.247 E638.10028
G1 X31.702 Y19.63 Z49.248 E638.15582
G1 X20.016 Y37.396 Z49.331 E648.15598
G1 X-23.382 Y35.589 Z49.5 E668.58233
;TIME_ELAPSED:529.276348
;LAYER:49
;TYPE:WALL-OUTER
;MESH:vase_basic.stl
G1 X-25.102 Y32.343 Z49.514 E670.30988
G1 X-42.961 Y-2.604 Z49.668 E688.76593
G1 X-42.397 Y-3.382 Z49.671 E689.21782
G1 X-31.284 Y-20.261 Z49.75 E698.72141
G1 X-30.12 Y-21.781 Z49.758 E699.62173
G1 X-19.167 Y-37.515 Z49.833 E708.63723
G1 X-16.224 Y-37.109 Z49.844 E710.03433
G1 X23.853 Y-34.908 Z50.001 E728.90964
G1 X24.827 Y-32.196 Z50.012 E730.26477
G1 X43.023 Y2.645 Z50.166 E748.74927
G1 X42.346 Y3.349 Z50.169 E749.20858
G1 X31.247 Y20.238 Z50.248 E758.71247
G1 X29.86 Y21.61 Z50.256 E759.62994
G1 X19.163 Y37.612 Z50.331 E768.6817
G1 X16.237 Y36.804 Z50.343 E770.1092
G1 X-23.937 Y34.952 Z50.5 E789.02179
;TIME_ELAPSED:535.703483
;LAYER:50
;TYPE:WALL-OUTER
;MESH:vase_basic.stl
G1 X-26.646 Y28.095 Z50.529 E792.48895
G1 X-42.541 Y-3.266 Z50.667 E809.02314
G1 X-40.805 Y-5.587 Z50.678 E810.38616
G1 X-30.595 Y-20.817 Z50.75 E819.00884
G1 X-28.135 Y-23.661 Z50.765 E820.77719
G1 X-18.319 Y-37.59 Z50.831 E828.79067
G1 X-11.675 Y-36.288 Z50.858 E831.97456
G1 X24.412 Y-34.239 Z51 E848.97244
G1 X26.371 Y-27.948 Z51.026 E852.07101
G1 X42.744 Y3.499 Z51.164 E868.74389
G1 X40.755 Y5.555 Z51.176 E870.08916
G1 X30.633 Y20.862 Z51.248 E878.71904
G1 X27.875 Y23.491 Z51.263 E880.51089
G1 X18.226 Y37.881 Z51.33 E888.65854
G1 X11.688 Y35.983 Z51.357 E891.86009
G1 X-24.719 Y34.304 Z51.5 E908.99931
;TIME_ELAPSED:542.106502
;LAYER:51
;TYPE:WALL-OUTER
;MESH:vase_basic.stl
G1 X-28.19 Y23.848 Z51.543 E914.18028
G1 X-42.356 Y-4.25 Z51.667 E928.9782
G1 X-39.213 Y-7.794 Z51.685 E931.20582
G1 X-30.019 Y-21.477 Z51.75 E938.95816
G1 X-26.149 Y-25.542 Z51.772 E941.59758
G1 X-17.352 Y-37.926 Z51.831 E948.74117
G1 X-7.127 Y-35.467 Z51.873 E953.68675
G1 X25.194 Y-33.591 Z52 E968.91185
G1 X27.915 Y-23.701 Z52.04 E973.73561
G1 X42.559 Y4.483 Z52.164 E988.67195
G1 X39.163 Y7.762 Z52.183 E990.89192
G1 X30.057 Y21.521 Z52.248 E998.65104
G1 X25.889 Y25.371 Z52.27 E1001.31936
G1 X17.259 Y38.217 Z52.33 E1008.59707
G1 X7.14 Y35.162 Z52.372 E1013.56785
G1 X-25.501 Y33.656 Z52.5 E1028.93418
;TIME_ELAPSED:548.507965
;LAYER:52
;TYPE:WALL-OUTER
;MESH:vase_basic.stl
G1 X-29.734 Y19.601 Z52.558 E1035.83705
G1 X-42.172 Y-5.232 Z52.666 E1048.89814
G1 X-37.621 Y-10 Z52.692 E1051.99782
G1 X-29.443 Y-22.136 Z52.75 E1058.87985
G1 X-24.164 Y-27.422 Z52.779 E1062.39303
G1 X-16.385 Y-38.262 Z52.831 E1068.6675
G1 X-2.578 Y-34.645 Z52.887 E1075.37959
G1 X25.976 Y-32.944 Z52.999 E1088.83141
G1 X29.46 Y-19.455 Z53.054 E1095.38302
G1 X42.374 Y5.466 Z53.164 E1108.58262
G1 X37.571 Y9.967 Z53.19 E1111.6781
G1 X29.481 Y22.181 Z53.247 E1118.56764
G1 X23.903 Y27.252 Z53.277 E1122.11276
G1 X16.292 Y38.553 Z53.33 E1128.52014
G1 X2.591 Y34.34 Z53.387 E1135.26101
G1 X-26.283 Y33.009 Z53.5 E1148.85393
;TIME_ELAPSED:554.908907
;LAYER:53
;TYPE:WALL-OUTER
;MESH:vase_basic.stl
G1 X-31.279 Y15.355 Z53.572 E1157.48207
G1 X-41.986 Y-6.215 Z53.666 E1168.80668
G1 X-36.03 Y-12.206 Z53.7 E1172.77943
G1 X-28.867 Y-22.796 Z53.75 E1178.79181
G1 X-22.178 Y-29.303 Z53.786 E1183.18028
G1 X-15.418 Y-38.597 Z53.831 E1188.5848
G1 X1.971 Y-33.825 Z53.902 E1197.06462
G1 X26.758 Y-32.296 Z53.999 E1208.74329
G1 X31.004 Y-15.208 Z54.068 E1217.02359
G1 X42.189 Y6.449 Z54.164 E1228.48625
G1 X35.979 Y12.174 Z54.197 E1232.45827
G1 X28.905 Y22.84 Z54.247 E1238.47705
G1 X21.917 Y29.132 Z54.284 E1242.8991
G1 X15.325 Y38.889 Z54.33 E1248.43656
G1 X-1.958 Y33.519 Z54.401 E1256.94748
G1 X-27.065 Y32.361 Z54.5 E1268.76704
;TIME_ELAPSED:561.309622
;LAYER:54
;TYPE:WALL-OUTER
;MESH:vase_basic.stl
G1 X-32.823 Y11.108 Z54.586 E1279.12194
G1 X-41.801 Y-7.199 Z54.666 E1288.71068
G1 X-34.438 Y-14.413 Z54.707 E1293.55822
G1 X-28.291 Y-23.455 Z54.75 E1298.69993
G1 X-20.192 Y-31.183 Z54.794 E1303.96432
G1 X-14.451 Y-38.933 Z54.831 E1308.49994
G1 X6.519 Y-33.003 Z54.917 E1318.74817
G1 X27.54 Y-31.648 Z54.999 E1328.65417
G1 X32.548 Y-10.961 Z55.083 E1338.66361
G1 X42.004 Y7.432 Z55.164 E1348.38938
G1 X34.388 Y14.38 Z55.204 E1353.23743
G1 X28.329 Y23.499 Z55.247 E1358.38611
G1 X19.931 Y31.013 Z55.292 E1363.68547
G1 X14.358 Y39.224 Z55.33 E1368.35224
G1 X-6.506 Y32.698 Z55.416 E1378.63267
G1 X-27.846 Y31.713 Z55.5 E1388.67887
;TIME_ELAPSED:567.710315
;LAYER:55
;TYPE:WALL-OUTER
;MESH:vase_basic.stl
G1 X-34.368 Y6.86 Z55.601 E1400.76216
G1 X-41.616 Y-8.182 Z55.666 E1408.6143
G1 X-32.846 Y-16.619 Z55.714 E1414.3372
G1 X-27.715 Y-24.114 Z55.75 E1418.60868
G1 X-18.206 Y-33.064 Z55.801 E1424.74965
G1 X-13.484 Y-39.268 Z55.831 E1428.41613
G1 X11.068 Y-32.182 Z55.932 E1440.4334
G1 X28.321 Y-31.001 Z55.999 E1448.56591
G1 X34.092 Y-6.713 Z56.097 E1460.30576
G1 X41.819 Y8.416 Z56.164 E1468.29468
G1 X32.796 Y16.587 Z56.212 E1474.01921
G1 X27.753 Y24.159 Z56.247 E1478.29753
G1 X17.946 Y32.893 Z56.299 E1484.47328
G1 X13.391 Y39.56 Z56.331 E1488.27043
G1 X-11.055 Y31.877 Z56.431 E1500.32099
G1 X-28.628 Y31.066 Z56.5 E1508.5938
;TIME_ELAPSED:574.111152
;LAYER:56
;TYPE:WALL-OUTER
;MESH:vase_basic.stl
G1 X-35.912 Y2.613 Z56.615 E1522.40582
G1 X-41.431 Y-9.165 Z56.666 E1528.52256
G1 X-31.255 Y-18.825 Z56.721 E1535.12085
G1 X-27.139 Y-24.774 Z56.75 E1538.5228
G1 X-16.221 Y-34.944 Z56.808 E1545.53959
G1 X-12.517 Y-39.604 Z56.831 E1548.33898
G1 X15.617 Y-31.361 Z56.946 E1562.12567
G1 X29.103 Y-30.353 Z56.999 E1568.48539
G92 E0
G1 X35.637 Y-2.467 Z57.112 E13.46906
G1 X41.634 Y9.399 Z57.164 E19.72142
G1 X31.204 Y18.792 Z57.219 E26.32217
G1 X27.177 Y24.818 Z57.247 E29.73053
G1 X15.96 Y34.774 Z57.306 E36.78365
G1 X12.424 Y39.895 Z57.331 E39.71021
G1 X-15.604 Y31.055 Z57.446 E53.53091
G1 X-29.41 Y30.418 Z57.5 E60.03033
;TIME_ELAPSED:580.522858
;LAYER:57
;TYPE:WALL-OUTER
;MESH:vase_basic.stl
G1 X-37.457 Y-1.633 Z57.63 E75.57067
G1 X-41.246 Y-10.148 Z57.666 E79.95355
G1 X-29.663 Y-21.031 Z57.728 E87.42778
G1 X-26.564 Y-25.43 Z57.75 E89.95828
G1 X-14.235 Y-36.824 Z57.815 E97.853
G1 X-11.551 Y-39.939 Z57.831 E99.78665
G1 X20.166 Y-30.539 Z57.961 E115.3434
G1 X29.885 Y-29.706 Z57.999 E119.93069
G1 X37.182 Y1.78 Z58.126 E135.12997
G1 X41.448 Y10.382 Z58.164 E139.64535
G1 X29.613 Y20.999 Z58.226 E147.12227
G1 X26.603 Y25.475 Z58.247 E149.65887
G1 X13.974 Y36.653 Z58.313 E157.59009
G1 X11.458 Y40.231 Z58.331 E159.64707
G1 X-20.153 Y30.234 Z58.461 E175.23837
G1 X-30.192 Y29.771 Z58.5 E179.9644
;TIME_ELAPSED:586.924350
;LAYER:58
;TYPE:WALL-OUTER
;MESH:vase_basic.stl
G1 X-39.001 Y-5.88 Z58.644 E197.23412
G1 X-41.06 Y-11.131 Z58.666 E199.88655
G1 X-28.07 Y-23.238 Z58.736 E208.23721
G1 X-25.986 Y-26.091 Z58.75 E209.8987
G1 X-12.25 Y-38.704 Z58.823 E218.66847
G1 X-10.584 Y-40.275 Z58.832 E219.74533
G1 X24.715 Y-29.718 Z58.976 E237.0718
G1 X30.667 Y-29.058 Z59 E239.88799
G1 X38.726 Y6.027 Z59.141 E256.817
G1 X41.263 Y11.365 Z59.164 E259.59638
G1 X28.021 Y23.205 Z59.233 E267.9499
G1 X26.025 Y26.137 Z59.247 E269.6179
G1 X11.989 Y38.534 Z59.321 E278.42453
G1 X10.491 Y40.566 Z59.331 E279.61171
G1 X-24.702 Y29.413 Z59.475 E296.97303
G1 X-30.973 Y29.123 Z59.5 E299.92523
;TIME_ELAPSED:593.326505
;LAYER:59
;TYPE:WALL-OUTER
;MESH:vase_basic.stl
G1 X-40.545 Y-10.128 Z59.658 E318.92465
G1 X-40.875 Y-12.114 Z59.666 E319.8714
G1 X-26.479 Y-25.444 Z59.743 E329.09793
G1 X-25.415 Y-26.748 Z59.75 E329.88939
G1 X-9.889 Y-40.437 Z59.831 E339.62342
G1 X-9.617 Y-40.61 Z59.832 E339.77501
G1 X29.262 Y-28.897 Z59.991 E358.87026
G1 X31.448 Y-28.41 Z60 E359.92346
G1 X40.27 Y10.275 Z60.155 E378.58281
G1 X41.078 Y12.347 Z60.164 E379.62868
G1 X26.429 Y25.412 Z60.241 E388.85944
G1 X25.454 Y26.792 Z60.247 E389.65404
G1 X9.907 Y40.377 Z60.328 E399.36323
G1 X9.524 Y40.901 Z60.331 E399.66845
G1 X-29.249 Y28.592 Z60.49 E418.79891
G1 X-31.755 Y28.475 Z60.5 E419.97868
;TIME_ELAPSED:599.731218
;LAYER:60
;TYPE:WALL-OUTER
;MESH:vase_basic.stl
G1 X-40.924 Y-12.879 Z60.665 E439.8984
G1 X-25.147 Y-27.131 Z60.748 E449.89679
G1 X-25.03 Y-27.219 Z60.749 E449.96564
G1 X-8.979 Y-41.014 Z60.831 E459.91862
G1 X32.111 Y-28.072 Z61 E480.17773
G1 X41.108 Y13.091 Z61.164 E499.99234
G1 X25.18 Y27.17 Z61.247 E509.98948
G1 X25.049 Y27.242 Z61.248 E510.05977
G1 X8.9 Y41.258 Z61.331 E520.11557
G1 X-32.368 Y28.128 Z61.5 E540.48116
;TIME_ELAPSED:606.159069
;LAYER:61
;TYPE:WALL-OUTER
;MESH:vase_basic.stl
G1 X-33.137 Y24.495 Z61.515 E542.2275
G1 X-40.64 Y-13.782 Z61.667 E560.57048
G1 X-39.848 Y-14.409 Z61.671 E561.04552
G1 X-24.493 Y-27.72 Z61.75 E570.60201
G1 X-22.927 Y-28.897 Z61.758 E571.52327
G1 X-8.04 Y-41.148 Z61.833 E580.58992
G1 X-5.27 Y-39.962 Z61.845 E582.00694
G1 X32.641 Y-27.342 Z62.001 E600.7971
G1 X32.831 Y-24.429 Z62.012 E602.1699
G1 X40.692 Y13.843 Z62.165 E620.54371
G1 X39.809 Y14.364 Z62.169 E621.02585
G1 X24.468 Y27.691 Z62.248 E630.5823
G1 X22.724 Y28.664 Z62.256 E631.52145
G1 X8.007 Y41.249 Z62.332 E640.62781
G1 X5.363 Y39.67 Z62.344 E642.07605
G1 X-32.74 Y27.364 Z62.5 E660.90599
;TIME_ELAPSED:612.585388
;LAYER:62
;TYPE:WALL-OUTER
;MESH:vase_basic.stl
G1 X-33.448 Y19.999 Z62.529 E664.38548
G1 X-40.055 Y-14.318 Z62.666 E680.82003
G1 X-37.703 Y-16.116 Z62.678 E682.21227
G1 X-23.678 Y-28.08 Z62.75 E690.88151
G1 X-20.494 Y-30.187 Z62.765 E692.677
G1 X-7.199 Y-41.008 Z62.832 E700.73836
G1 X-1.116 Y-37.977 Z62.859 E703.93445
G1 X33.001 Y-26.556 Z63 E720.85368
G1 X33.142 Y-19.934 Z63.026 E723.9685
G1 X40.188 Y14.596 Z63.164 E740.54146
G1 X37.664 Y16.072 Z63.175 E741.91647
G1 X23.703 Y28.134 Z63.248 E750.59289
G1 X20.291 Y29.954 Z63.263 E752.41145
G1 X7.03 Y41.265 Z63.331 E760.60805
G1 X1.21 Y37.686 Z63.358 E763.8211
G1 X-33.313 Y26.535 Z63.5 E780.88204
;TIME_ELAPSED:618.988310
;LAYER:63
;TYPE:WALL-OUTER
;MESH:vase_basic.stl
G1 X-33.759 Y15.504 Z63.543 E786.0738
G1 X-39.605 Y-15.217 Z63.666 E800.78014
G1 X-35.56 Y-17.823 Z63.685 E803.04297
G1 X-22.941 Y-28.564 Z63.75 E810.83591
G1 X-18.062 Y-31.477 Z63.772 E813.50818
G1 X-6.175 Y-41.077 Z63.832 E820.6936
G1 X3.036 Y-35.992 Z63.873 E825.64147
G1 X33.574 Y-25.727 Z64 E840.79211
G1 X33.453 Y-15.439 Z64.04 E845.63056
G1 X39.737 Y15.494 Z64.164 E860.47448
G1 X35.521 Y17.778 Z64.182 E862.72938
G1 X22.966 Y28.618 Z64.247 E870.52978
G1 X17.858 Y31.244 Z64.27 E873.23075
G1 X6.006 Y41.334 Z64.331 E880.55059
G1 X-2.943 Y35.7 Z64.372 E885.52358
G1 X-33.886 Y25.705 Z64.5 E900.81537
;TIME_ELAPSED:625.389655
;LAYER:64
;TYPE:WALL-OUTER
;MESH:vase_basic.stl
G1 X-34.071 Y11.01 Z64.558 E907.7265
G1 X-39.155 Y-16.115 Z64.666 E920.70463
G1 X-33.417 Y-19.53 Z64.692 E923.84477
G1 X-22.204 Y-29.048 Z64.75 E930.76144
G1 X-15.629 Y-32.766 Z64.779 E934.31356
G1 X-5.151 Y-41.146 Z64.832 E940.62309
G1 X7.189 Y-34.007 Z64.888 E947.32735
G1 X34.148 Y-24.898 Z64.999 E960.70942
G1 X33.765 Y-10.945 Z65.054 E967.27354
G1 X39.287 Y16.392 Z65.164 E980.3889
G1 X33.377 Y19.485 Z65.19 E983.52579
G1 X22.229 Y29.102 Z65.247 E990.4495
G1 X15.425 Y32.533 Z65.277 E994.03299
G1 X4.982 Y41.403 Z65.331 E1000.4764
G1 X-7.096 Y33.715 Z65.387 E1007.20933
G1 X-34.46 Y24.876 Z65.5 E1020.73242
;TIME_ELAPSED:631.790411
;LAYER:65
;TYPE:WALL-OUTER
;MESH:vase_basic.stl
G1 X-34.382 Y6.514 Z65.572 E1029.36755
G1 X-38.705 Y-17.013 Z65.666 E1040.61676
G1 X-31.273 Y-21.236 Z65.699 E1044.63661
G1 X-21.467 Y-29.532 Z65.75 E1050.67696
G1 X-13.196 Y-34.056 Z65.787 E1055.11036
G1 X-4.126 Y-41.215 Z65.832 E1060.54427
G1 X11.342 Y-32.022 Z65.903 E1069.00608
G1 X34.721 Y-24.069 Z65.999 E1080.61919
G1 X34.076 Y-6.45 Z66.069 E1088.91039
G1 X38.837 Y17.29 Z66.164 E1100.29683
G1 X31.234 Y21.191 Z66.197 E1104.31545
G1 X21.491 Y29.585 Z66.247 E1110.36319
G1 X12.992 Y33.823 Z66.285 E1114.82934
G1 X3.957 Y41.472 Z66.331 E1120.39637
G1 X-11.249 Y31.73 Z66.402 E1128.88895
G1 X-35.033 Y24.048 Z66.5 E1140.64274
;TIME_ELAPSED:638.190934
;LAYER:66
;TYPE:WALL-OUTER
;MESH:vase_basic.stl
G1 X-34.693 Y2.02 Z66.586 E1151.00302
G1 X-38.254 Y-17.911 Z66.666 E1160.52435
G1 X-29.129 Y-22.943 Z66.707 E1165.42477
G1 X-20.729 Y-30.015 Z66.75 E1170.58858
G1 X-10.763 Y-35.345 Z66.794 E1175.90344
G1 X-3.102 Y-41.284 Z66.832 E1180.46194
G1 X15.496 Y-30.037 Z66.917 E1190.68289
G1 X35.295 Y-23.24 Z66.999 E1200.5271
G1 X34.387 Y-1.954 Z67.083 E1210.54632
G1 X38.386 Y18.188 Z67.164 E1220.20333
G1 X29.09 Y22.898 Z67.204 E1225.10404
G1 X20.754 Y30.069 Z67.247 E1230.27511
G1 X10.559 Y35.112 Z67.292 E1235.62397
G1 X2.934 Y41.542 Z67.331 E1240.31453
G1 X-15.402 Y29.744 Z67.417 E1250.56811
G1 X-35.607 Y23.219 Z67.5 E1260.55305
;TIME_ELAPSED:644.591502
;LAYER:67
;TYPE:WALL-OUTER
;MESH:vase_basic.stl
G1 X-35.004 Y-2.475 Z67.601 E1272.63943
G1 X-37.804 Y-18.809 Z67.666 E1280.43282
G1 X-26.986 Y-24.65 Z67.714 E1286.21437
G1 X-19.993 Y-30.499 Z67.75 E1290.50162
G1 X-8.33 Y-36.634 Z67.801 E1296.69888
G1 X-2.079 Y-41.354 Z67.832 E1300.38241
G1 X19.648 Y-28.051 Z67.932 E1312.363
G1 X35.868 Y-22.411 Z67.999 E1320.43871
G1 X34.698 Y2.541 Z68.097 E1332.18572
G1 X37.936 Y19.086 Z68.163 E1340.1139
G1 X26.947 Y24.605 Z68.212 E1345.89681
G1 X20.017 Y30.552 Z68.248 E1350.19125
G1 X8.127 Y36.401 Z68.299 E1356.42265
G1 X1.91 Y41.611 Z68.331 E1360.23719
G1 X-19.555 Y27.759 Z68.431 E1372.25089
G1 X-36.18 Y22.389 Z68.5 E1380.46682
;TIME_ELAPSED:650.992231
;LAYER:68
;TYPE:WALL-OUTER
;MESH:vase_basic.stl
G1 X-35.315 Y-6.97 Z68.615 E1394.27939
G1 X-37.353 Y-19.707 Z68.666 E1400.34538
G1 X-24.842 Y-26.355 Z68.721 E1407.00795
G1 X-19.255 Y-30.982 Z68.75 E1410.41937
G1 X-5.898 Y-37.923 Z68.809 E1417.49822
G1 X-1.054 Y-41.423 Z68.832 E1420.3086
G1 X23.801 Y-26.065 Z68.947 E1434.04846
G1 X36.442 Y-21.582 Z68.999 E1440.35587
G1 X35.009 Y7.036 Z69.112 E1453.83085
G1 X37.485 Y19.984 Z69.163 E1460.0302
G1 X24.803 Y26.311 Z69.219 E1466.69514
G1 X19.28 Y31.036 Z69.248 E1470.11322
G1 X5.694 Y37.691 Z69.307 E1477.22761
G1 X0.885 Y41.68 Z69.331 E1480.16588
G1 X-23.708 Y25.773 Z69.446 E1493.93957
G1 X-36.754 Y21.56 Z69.5 E1500.38666
;TIME_ELAPSED:657.393177
;LAYER:69
;TYPE:WALL-OUTER
;MESH:vase_basic.stl
G1 X-35.627 Y-11.465 Z69.63 E1515.92628
G1 X-36.903 Y-20.605 Z69.666 E1520.26621
G1 X-22.698 Y-28.063 Z69.729 E1527.81109
G1 X-18.515 Y-31.468 Z69.75 E1530.34755
G1 X-3.464 Y-39.213 Z69.816 E1538.30769
G1 X-0.031 Y-41.492 Z69.832 E1540.24547
G1 X27.954 Y-24.08 Z69.962 E1555.74533
G1 X37.015 Y-20.753 Z69.999 E1560.28458
G1 X35.321 Y11.531 Z70.126 E1575.48758
G92 E0
G1 X37.035 Y20.882 Z70.163 E4.47073
G1 X22.659 Y28.018 Z70.226 E12.01837
G1 X18.54 Y31.521 Z70.248 E14.56118
G1 X3.261 Y38.98 Z70.314 E22.55689
G1 X-.137 Y41.75 Z70.331 E24.61854
G1 X-27.861 Y23.789 Z70.461 E40.15316
G1 X-37.327 Y20.731 Z70.5 E44.83123
;TIME_ELAPSED:663.805078
;LAYER:70
;TYPE:WALL-OUTER
;MESH:vase_basic.stl
G1 X-35.938 Y-15.96 Z70.644 E62.09818
G1 X-36.452 Y-21.503 Z70.666 E64.71606
G1 X-20.555 Y-29.769 Z70.736 E73.14213
G1 X-17.779 Y-31.951 Z70.75 E74.8026
G1 X-1.032 Y-40.503 Z70.824 E83.64562
G1 X0.993 Y-41.561 Z70.833 E84.72005
G1 X32.107 Y-22.095 Z70.976 E101.97961
G1 X37.589 Y-19.923 Z71 E104.7526
G1 X35.632 Y16.026 Z71.141 E121.68327
G1 X36.584 Y21.78 Z71.164 E124.42598
G1 X20.516 Y29.725 Z71.234 E132.8555
G1 X17.803 Y32.004 Z71.248 E134.52175
G1 X0.828 Y40.27 Z71.322 E143.40068
G1 X-1.161 Y41.819 Z71.332 E144.58624
G1 X-32.014 Y21.803 Z71.476 E161.88127
G1 X-37.901 Y19.902 Z71.5 E164.79049
;TIME_ELAPSED:670.207082
;LAYER:71
;TYPE:WALL-OUTER
;MESH:vase_basic.stl
G1 X-36.248 Y-20.455 Z71.658 E183.78499
G1 X-36.003 Y-22.4 Z71.666 E184.70689
G1 X-18.411 Y-31.475 Z71.743 E194.01574
G1 X-17.043 Y-32.433 Z71.75 E194.80113
G1 X1.713 Y-41.539 Z71.832 E204.60603
G1 X2.017 Y-41.63 Z71.833 E204.75526
G1 X36.26 Y-20.11 Z71.991 E223.77462
G1 X38.162 Y-19.094 Z72 E224.78868
G1 X35.943 Y20.521 Z72.155 E243.44753
G1 X36.135 Y22.678 Z72.164 E244.46591
G1 X18.371 Y31.431 Z72.241 E253.77881
G1 X17.068 Y32.487 Z72.248 E254.56753
G1 X-1.684 Y41.494 Z72.329 E264.35049
G1 X-2.186 Y41.888 Z72.332 E264.6506
G1 X-36.167 Y19.818 Z72.491 E283.70539
G1 X-38.474 Y19.073 Z72.5 E284.84546
;TIME_ELAPSED:676.611718
;LAYER:72
;TYPE:WALL-OUTER
;MESH:vase_basic.stl
G1 X-35.843 Y-23.146 Z72.665 E304.7382
G1 X-16.664 Y-32.74 Z72.749 E314.82299
G1 X-16.5 Y-32.806 E314.90612
G1 X2.736 Y-41.852 Z72.832 E324.90253
G1 X38.7 Y-18.611 Z73 E345.03939
G1 X35.96 Y23.392 Z73.164 E364.83402
G1 X16.685 Y32.784 Z73.248 E374.91723
G1 X16.511 Y32.829 E375.00175
G1 X-2.873 Y42.062 Z73.332 E385.09869
G1 X-38.954 Y18.593 Z73.5 E405.34004
;TIME_ELAPSED:683.039101
;LAYER:73
;TYPE:WALL-OUTER
;MESH:vase_basic.stl
G1 X-38.689 Y14.871 Z73.515 E407.09481
G1 X-35.371 Y-23.908 Z73.667 E425.39794
G1 X-34.382 Y-24.33 Z73.671 E425.90361
G1 X-15.935 Y-33.104 Z73.75 E435.5099
G1 X-14.072 Y-33.848 Z73.758 E436.45329
G1 X3.619 Y-41.763 Z73.834 E445.56749
G1 X6.032 Y-39.867 Z73.846 E447.01064
G1 X39.008 Y-17.824 Z74.001 E465.66379
G1 X38.404 Y-14.891 Z74.012 E467.07203
G1 X35.408 Y23.984 Z74.165 E485.40789
G1 X34.361 Y24.285 Z74.169 E485.9202
G1 X15.923 Y33.079 Z74.249 E495.52672
G1 X13.952 Y33.597 Z74.257 E496.4851
G1 X-3.68 Y41.854 Z74.333 E505.64102
G1 X-5.878 Y39.632 Z74.345 E507.11082
G1 X-39.112 Y17.818 Z74.5 E525.80565
;TIME_ELAPSED:689.467358
;LAYER:74
;TYPE:WALL-OUTER
;MESH:vase_basic.stl
G1 X-37.805 Y10.512 Z74.529 E529.29597
G1 X-34.719 Y-24.275 Z74.666 E545.71941
G1 X-31.914 Y-25.399 Z74.678 E547.14047
G1 X-15.128 Y-33.251 Z74.75 E555.85533
G1 X-11.449 Y-34.478 Z74.765 E557.67912
G1 X4.352 Y-41.454 Z74.833 E565.80178
G1 X9.465 Y-36.943 Z74.86 E569.0083
G1 X39.151 Y-17.039 Z75 E585.81619
G1 X37.521 Y-10.533 Z75.026 E588.97031
G1 X34.774 Y24.548 Z75.164 E605.51826
G1 X31.892 Y25.353 Z75.176 E606.92545
G1 X15.137 Y33.301 Z75.248 E615.64636
G1 X11.328 Y34.227 Z75.263 E617.48978
G1 X-4.559 Y41.644 Z75.332 E625.73501
G1 X-9.312 Y36.708 Z75.359 E628.95746
G1 X-39.419 Y16.947 Z75.5 E645.89316
;TIME_ELAPSED:695.876015
;LAYER:75
;TYPE:WALL-OUTER
;MESH:vase_basic.stl
G1 X-36.922 Y6.154 Z75.543 E651.10282
G1 X-34.097 Y-24.97 Z75.666 E665.79959
G1 X-29.447 Y-26.465 Z75.685 E668.09658
G1 X-14.353 Y-33.511 Z75.75 E675.9301
G1 X-8.826 Y-35.107 Z75.773 E678.63546
G1 X5.28 Y-41.278 Z75.833 E685.87606
G1 X12.9 Y-34.019 Z75.874 E690.82522
G1 X39.458 Y-16.167 Z76 E705.87394
G1 X36.637 Y-6.174 Z76.04 E710.75698
G1 X34.152 Y25.243 Z76.164 E725.57752
G1 X29.425 Y26.42 Z76.183 E727.86835
G1 X14.362 Y33.56 Z76.248 E735.70749
G1 X8.705 Y34.855 Z76.271 E738.43661
G1 X-5.488 Y41.468 Z76.332 E745.80006
G1 X-12.747 Y33.784 Z76.374 E750.77106
G1 X-39.726 Y16.075 Z76.5 E765.94748
;TIME_ELAPSED:702.283528
;LAYER:76
;TYPE:WALL-OUTER
;MESH:vase_basic.stl
G1 X-36.039 Y1.796 Z76.558 E772.88267
G1 X-33.476 Y-25.664 Z76.666 E785.85235
G1 X-26.979 Y-27.533 Z76.692 E789.03158
G1 X-13.578 Y-33.77 Z76.75 E795.98275
G1 X-6.203 Y-35.735 Z76.78 E799.57197
G1 X6.209 Y-41.102 Z76.833 E805.93124
G1 X16.334 Y-31.094 Z76.889 E812.62617
G1 X39.765 Y-15.295 Z77 E825.91586
G1 X35.754 Y-1.817 Z77.055 E832.52885
G1 X33.531 Y25.938 Z77.164 E845.62292
G1 X26.957 Y27.488 Z77.19 E848.79923
G1 X13.587 Y33.819 Z77.248 E855.75598
G1 X6.082 Y35.483 Z77.278 E859.37105
G1 X-6.416 Y41.291 Z77.332 E865.85209
G1 X-16.181 Y30.859 Z77.388 E872.57185
G1 X-40.033 Y15.203 Z77.5 E885.98914
;TIME_ELAPSED:708.690617
;LAYER:77
;TYPE:WALL-OUTER
;MESH:vase_basic.stl
G1 X-35.156 Y-2.562 Z77.572 E894.65254
G1 X-32.854 Y-26.36 Z77.666 E905.8962
G1 X-24.51 Y-28.601 Z77.7 E909.95917
G1 X-12.802 Y-34.029 Z77.75 E916.028
G1 X-3.58 Y-36.364 Z77.788 E920.50166
G1 X7.137 Y-40.925 Z77.833 E925.97895
G1 X19.768 Y-28.17 Z77.903 E934.42064
G1 X40.072 Y-14.424 Z78 E945.95136
G1 X34.871 Y2.543 Z78.069 E954.29685
G1 X32.909 Y26.633 Z78.164 E965.6631
G1 X24.488 Y28.556 Z78.198 E969.72517
G1 X12.811 Y34.078 Z78.248 E975.79954
G1 X3.46 Y36.112 Z78.286 E980.29984
G1 X-7.345 Y41.115 Z78.332 E985.89934
G1 X-19.616 Y27.935 Z78.403 E994.36794
G1 X-40.34 Y14.332 Z78.5 E1006.0257
;TIME_ELAPSED:715.097550
;LAYER:78
;TYPE:WALL-OUTER
;MESH:vase_basic.stl
G1 X-34.273 Y-6.921 Z78.587 E1016.41955
G1 X-32.232 Y-27.055 Z78.666 E1025.93644
G1 X-22.042 Y-29.669 Z78.707 E1030.88363
G1 X-12.027 Y-34.288 Z78.75 E1036.07014
G1 X-.957 Y-36.993 Z78.795 E1041.42916
G1 X8.066 Y-40.748 Z78.833 E1046.02516
G1 X23.203 Y-25.245 Z78.918 E1056.21459
G1 X40.379 Y-13.552 Z79 E1065.98599
G1 X33.988 Y6.9 Z79.083 E1076.06255
G1 X32.287 Y27.328 Z79.164 E1085.70242
G1 X22.02 Y29.624 Z79.205 E1090.64991
G1 X12.036 Y34.337 Z79.248 E1095.8419
G1 X0.837 Y36.741 Z79.293 E1101.2284
G1 X-8.274 Y40.938 Z79.332 E1105.94575
G1 X-23.05 Y25.011 Z79.418 E1116.16257
G1 X-40.648 Y13.46 Z79.5 E1126.06185
;TIME_ELAPSED:721.504499
;LAYER:79
;TYPE:WALL-OUTER
;MESH:vase_basic.stl
G1 X-33.389 Y-11.279 Z79.601 E1138.18628
G1 X-31.611 Y-27.749 Z79.666 E1145.97659
G1 X-19.574 Y-30.736 Z79.714 E1151.80888
G1 X-11.252 Y-34.547 Z79.75 E1156.11329
G1 X1.666 Y-37.621 Z79.802 E1162.35784
G1 X8.995 Y-40.571 Z79.833 E1166.07315
G1 X26.638 Y-22.321 Z79.933 E1178.01034
G1 X40.687 Y-12.681 Z80 E1186.0229
G1 X33.105 Y11.259 Z80.098 E1197.83224
G1 X31.666 Y28.022 Z80.164 E1205.74433
G1 X19.552 Y30.691 Z80.212 E1211.57778
G1 X11.261 Y34.596 Z80.248 E1215.88758
G1 X-1.787 Y37.369 Z80.301 E1222.16068
G1 X-9.203 Y40.761 Z80.333 E1225.99567
G1 X-26.486 Y22.087 Z80.432 E1237.96137
G1 X-40.955 Y12.59 Z80.5 E1246.10046
;TIME_ELAPSED:727.911556
;LAYER:80
;TYPE:WALL-OUTER
;MESH:vase_basic.stl
G1 X-32.506 Y-15.638 Z80.615 E1259.95705
G1 X-30.989 Y-28.444 Z80.666 E1266.0214
G1 X-17.106 Y-31.803 Z80.722 E1272.73851
G1 X-10.477 Y-34.806 Z80.75 E1276.16087
G1 X4.289 Y-38.25 Z80.81 E1283.29121
G1 X9.923 Y-40.394 Z80.833 E1286.12606
G1 X30.072 Y-19.397 Z80.947 E1299.81122
G1 X40.994 Y-11.809 Z81 E1306.06538
G1 X32.222 Y15.617 Z81.112 E1319.60659
G1 X31.044 Y28.717 Z81.164 E1325.79195
G1 X17.084 Y31.758 Z81.22 E1332.51084
G1 X10.486 Y34.855 Z81.248 E1335.93847
G1 X-4.41 Y37.998 Z81.308 E1343.09781
G1 X-10.131 Y40.584 Z81.333 E1346.0503
G1 X-29.919 Y19.162 Z81.447 E1359.7646
G1 X-41.262 Y11.717 Z81.5 E1366.14521
;TIME_ELAPSED:734.318840
;LAYER:81
;TYPE:WALL-OUTER
;MESH:vase_basic.stl
G1 X-31.623 Y-19.996 Z81.63 E1381.73247
G1 X-30.368 Y-29.139 Z81.666 E1386.07244
G1 X-14.638 Y-32.871 Z81.729 E1393.67509
G1 X-9.702 Y-35.065 Z81.75 E1396.21531
G1 X6.912 Y-38.879 Z81.817 E1404.23156
G1 X10.852 Y-40.218 Z81.834 E1406.18849
G1 X33.507 Y-16.473 Z81.962 E1421.62211
G1 X41.301 Y-10.937 Z82 E1426.11787
G1 X31.338 Y19.977 Z82.127 E1441.39206
G1 X30.423 Y29.412 Z82.164 E1445.84985
G1 X14.616 Y32.826 Z82.227 E1453.45477
G1 X9.711 Y35.114 Z82.248 E1456.00004
G1 X-7.033 Y38.627 Z82.315 E1464.04564
G1 X-11.061 Y40.408 Z82.333 E1466.11678
G1 X-33.354 Y16.238 Z82.462 E1481.5797
G1 X-41.569 Y10.846 Z82.5 E1486.20078
;TIME_ELAPSED:740.726452
;LAYER:82
;TYPE:WALL-OUTER
;MESH:vase_basic.stl
G1 X-30.741 Y-24.353 Z82.644 E1503.51924
G1 X-29.746 Y-29.835 Z82.666 E1506.13936
G1 X-12.17 Y-33.939 Z82.737 E1514.62712
G1 X-8.927 Y-35.324 Z82.751 E1516.28546
G1 X9.535 Y-39.507 Z82.825 E1525.1876
G1 X11.781 Y-40.041 Z82.834 E1526.27326
G1 X36.941 Y-13.548 Z82.977 E1543.45512
G1 X41.608 Y-10.066 Z83 E1546.1934
G1 X30.456 Y24.334 Z83.141 E1563.19945
G1 X29.801 Y30.108 Z83.164 E1565.93219
G1 X12.148 Y33.894 Z83.235 E1574.4226
G92 E0
G1 X8.936 Y35.373 Z83.249 E1.66294
G1 X-9.655 Y39.256 Z83.323 E10.59434
G1 X-11.989 Y40.231 Z83.333 E11.78387
G1 X-36.788 Y13.314 Z83.476 E28.99537
G1 X-41.876 Y9.975 Z83.5 E31.85731
;TIME_ELAPSED:747.148592
;LAYER:83
;TYPE:WALL-OUTER
;MESH:vase_basic.stl
G1 X-29.857 Y-28.713 Z83.586 E50.90866
G1 X-29.125 Y-30.529 Z83.591 E51.82943
G1 X-9.7 Y-35.007 Z83.633 E61.20392
G1 X-8.15 Y-35.584 Z83.637 E61.98169
G1 X12.389 Y-39.862 Z83.682 E71.84776
G1 X12.709 Y-39.864 E71.99824
G1 X40.376 Y-10.624 Z83.768 E90.92862
G1 X41.915 Y-9.193 Z83.773 E91.91688
G1 X29.572 Y28.693 Z83.858 E110.65503
G1 X29.18 Y30.802 Z83.862 E111.6638
G1 X9.678 Y34.961 Z83.905 E121.04114
G1 X8.159 Y35.632 Z83.908 E121.82206
G1 X-12.338 Y39.814 Z83.953 E131.65967
G1 X-12.918 Y40.054 Z83.954 E131.95485
G1 X-40.223 Y10.389 Z84.041 E150.91519
G1 X-42.183 Y9.103 Z84.046 E152.0176
G1 X-29.376 Y-28.68 Z84.5 E167.02734
G1 X-29.217 Y-30.985 E167.89657
G1 X-9.667 Y-34.938 E174.93136
G1 X-8.164 Y-35.657 E175.519
G1 X12.32 Y-39.798 E181.90704
G1 X12.987 Y-40.117 E182.13304
G1 X40.22 Y-10.385 E191.61334
G1 X42.184 Y-9.101 E192.16507
G1 X29.376 Y28.68 E197.79314
G1 X29.217 Y30.985 E198.1191
G1 X9.667 Y34.938 E200.46403
G1 X8.164 Y35.657 E200.65991
G1 X-12.32 Y39.798
;TIME_ELAPSED:758.896772
G1 F1500 E194.15991
M140 S0
M107
M104 S0
M140 S0
;Retract the filament
G92 E1
G1 E-1 F300
G28 X0 Y0
M84
M82 ;absolute extrusion mode
M104 S0
;End of Gcode
;SETTING_3 {"global_quality": "[general]\\nversion = 4\\nname = CuraProfile_3mm_
;SETTING_3 2laybase_40sec\\ndefinition = custom\\n\\n[metadata]\\ntype = quality
;SETTING_3 _changes\\nquality_type = extra coarse\\nsetting_version = 25\\n\\n[v
;SETTING_3 alues]\\nadhesion_type = none\\njerk_enabled = False\\nlayer_height =
;SETTING_3  1\\nlayer_height_0 = 0.5\\nmagic_spiralize = True\\n\\n", "extruder_
;SETTING_3 quality": ["[general]\\nversion = 4\\nname = CuraProfile_3mm_2laybase
;SETTING_3 _40sec\\ndefinition = custom\\n\\n[metadata]\\ntype = quality_changes
;SETTING_3 \\nquality_type = extra coarse\\nintent_category = default\\nposition
;SETTING_3  = 0\\nsetting_version = 25\\n\\n[values]\\nbottom_layers = 2\\nbotto
;SETTING_3 m_thickness = 1.3\\ninfill_sparse_density = 0\\nline_width = 3\\nmesh
;SETTING_3 fix_maximum_resolution = 1\\nretraction_hop = 1.0\\nretraction_hop_en
;SETTING_3 abled = True\\nspeed_layer_0 = 15.0\\nspeed_print = 40.0\\nspeed_trav
;SETTING_3 el = 30.0\\nspeed_wall = 40.0\\nspeed_wall_x = 30\\ntop_bottom_thickn
;SETTING_3 ess = 0\\ntop_layers = 0\\ntravel_avoid_other_parts = False\\nwall_li
;SETTING_3 ne_count = 3\\nwall_thickness = 3.0\\n\\n"]}
