;FLAVOR:Marlin
;TIME:563
;Filament used: 6.12008m
;Layer height: 1
;MINX:-47.154
;MINY:-41.628
;MINZ:0.5
;MAXX:47.154
;MAXY:40.044
;MAXZ:81.5
;TARGET_MACHINE.NAME:Unknown
;Generated with Cura_SteamEngine 5.11.0
M140 S60
M105
M190 S60
M104 S200
M105
M109 S200
G28 ;Home
M302 S0 ;Set cold extrusion
M92 E400 ;E Steps at 400 steps/mm M92 E-400 reverse
G1 Z15.0 F6000 ;Move the platform down 15mm
;Prime the extruder
G92 E0
G1 F200 E3
G92 E0
M82 ;absolute extrusion mode
G92 E0
G92 E0
G1 F1500 E-6.5
;LAYER_COUNT:82
;LAYER:0
M107
G1 F600 Z1.5
;MESH:obj_4_Tetraeder.stl
G0 F675 X0.00 Y0.000 Z1.5
G0 X0.00 Y28.044
;TYPE:WALL-INNER
G1 F600 Z0.5
G1 F1500 E0
G1 F900 X36.762 Y-35.628 E17.28751
G1 X-36.762 Y-35.628 E34.57535
G1 X0.00 Y28.044 E51.86285
G0 F675 X0.001 Y30.922
G0 X0.00 Y34.044
G1 F900 X41.958 Y-38.628 E71.5939
G1 X-41.958 Y-38.628 E91.32524
G1 X0.00 Y34.044 E111.05629
G0 F675 X-0.041 Y30.897
G0 X0.001 Y36.922
G0 X0.00 Y40.044
;TYPE:WALL-OUTER
G1 F900 X47.154 Y-41.628 E133.23088
G1 X-47.154 Y-41.628 E155.40571
G1 X0.00 Y40.044 E177.5803
G0 F675 X0.75 Y38.745
G0 X0.001 Y36.922
G0 X0.00 Y22.343
;TYPE:SKIN
G1 F900 X-31.822 Y-32.776 E192.54538
G1 X31.823 Y-32.776 E207.51036
G1 X0.00 Y22.343 E222.47556
G0 F675 X0.869 Y17.84
G1 F900 X-3.241 Y13.729 E223.84241
G0 F675 X2.422 Y15.15
G1 F900 X-9.037 Y3.691 E227.65283
G1 X-9.567 Y3.161
G0 F675 X-14.832 Y-6.346
G1 F900 X3.975 Y12.46 E233.9065
G0 F675 X5.527 Y9.77
G1 F900 X-20.626 Y-16.384 E242.60324
G1 X-21.156 Y-16.914
G0 F675 X-26.422 Y-26.422
G1 F900 X7.081 Y7.081 E253.74388
G0 F675 X8.634 Y4.391
G1 F900 X-27.033 Y-31.276 E265.60412
G0 F675 X-22.791 Y-31.276
G1 F900 X10.187 Y1.701 E276.57002
G0 F675 X11.739 Y-.989
G1 F900 X-18.548 Y-31.276 E286.64126
G0 F675 X-14.305 Y-31.276
G1 F900 X13.292 Y-3.678 E295.81817
G0 F675 X14.845 Y-6.368
G1 F900 X-10.063 Y-31.276 E304.10074
G0 F675 X-5.82 Y-31.276
G1 F900 X16.398 Y-9.058 E311.48882
G0 F675 X17.951 Y-11.747
G1 F900 X-1.578 Y-31.276 E317.98274
G0 F675 X2.665 Y-31.276
G1 F900 X19.504 Y-14.437 E323.58216
G0 F675 X21.057 Y-17.127
G1 F900 X6.908 Y-31.276 E328.28708
G0 F675 X11.15 Y-31.276
G1 F900 X22.61 Y-19.817 E332.09767
G0 F675 X24.163 Y-22.507
G1 F900 X15.393 Y-31.276 E335.01376
G0 F675 X19.636 Y-31.276
G1 F900 X25.715 Y-25.196 E337.03536
G0 F675 X27.269 Y-27.885
G1 F900 X23.878 Y-31.276 E338.16296
G0 F675 X28.121 Y-31.276
G1 F900 X28.822 Y-30.575 E338.39606
;MESH:NONMESH
G0 F600 X28.822 Y-30.575 Z1.5
G0 F675 X0.00 Y-2.489
;TIME_ELAPSED:116.255181
;LAYER:1
M106 S255
;TYPE:WALL-INNER
;MESH:obj_4_Tetraeder.stl
G1 F1350 X10.32 Y-20.363 E348.102
G1 X-10.319 Y-20.363 E357.80777
G1 X0.00 Y-2.489 E367.51347
G0 F1237.5 X0.00 Y3.511
G1 F1350 X15.516 Y-23.363 E382.1065
G1 X-15.516 Y-23.363 E396.69973
G1 X0.00 Y3.511 E411.29276
G0 F1237.5 X0.00 Y9.511
G1 F1350 X20.713 Y-26.363 E430.77311
G1 X-20.712 Y-26.363 E450.25379
G1 X0.00 Y9.511 E469.73391
G0 F1237.5 X0.00 Y15.511
G1 F1350 X25.909 Y-29.364 E494.10175
G1 X-25.908 Y-29.363 E518.46942
G1 X0.00 Y15.511 E542.83663
G0 F1237.5 X0.00 Y21.511
G1 F1350 X31.106 Y-32.364 E572.0918
G1 X-31.105 Y-32.363 E601.34739
G1 X0.00 Y21.511 E630.60192
G0 F1237.5 X0.00 Y27.511
G1 F1350 X36.302 Y-35.364 E664.74418
G1 X-36.301 Y-35.363 E698.88675
G1 X0.00 Y27.511 E733.02838
G0 F1237.5 X0.001 Y30.392
G0 X0.00 Y33.511
G1 F1350 X41.499 Y-38.364 E772.05797
G1 X-41.497 Y-38.363 E811.08799
G1 X0.00 Y33.511 E850.1167
G0 F1237.5 X-0.041 Y30.367
G0 X0.001 Y36.392
G0 X0.00 Y39.511
;TYPE:WALL-OUTER
G1 F1650 X46.695 Y-41.364 E894.03338
G1 X-46.694 Y-41.363 E937.95086
G1 X0.00 Y39.511 E981.86689
G0 F1237.5 X0.75 Y38.212
G0 X0.001 Y36.392
G0 X0.00 Y-8.189
;TYPE:SKIN
G1 F1050 X-5.382 Y-17.512 E986.92926
G1 X5.382 Y-17.512 E991.99118
G1 X0.00 Y-8.189 E997.05355
G0 F1237.5 X-.563 Y-12.165
G1 F1050 X2.1 Y-14.828 E998.82459
G0 F1237.5 X-.958 Y-16.012
G1 F1050 X-2.116 Y-14.855 E999.59439
;MESH:NONMESH
G0 F600 X-2.116 Y-14.855 Z2.5
G0 F1237.5 X0.001 Y36.392
G0 X0.001 Y38.805
;TIME_ELAPSED:184.839465
;LAYER:2
;TYPE:WALL-OUTER
;MESH:obj_4_Tetraeder.stl
G1 F2400 X-46.083 Y-41.012 E1042.93652
G1 X46.083 Y-41.012 E1086.27887
G1 X0.001 Y38.805 E1129.62053
G0 F1800 X0.001 Y39.512
G1 F2400 X-46.287 Y-40.894 Z2.834 E1173.25082
G1 X46.185 Y-40.953 Z3.168 E1216.73736
G1 X0.001 Y38.805 Z3.5 E1260.07929
;TIME_ELAPSED:198.749942
;LAYER:3
;TYPE:WALL-OUTER
;MESH:obj_4_Tetraeder.stl
G1 X-45.674 Y-40.54 Z3.834 E1303.13335
G1 X45.573 Y-40.599 Z4.168 E1346.04382
G1 X0.001 Y38.098 Z4.5 E1388.80975
;TIME_ELAPSED:205.612965
;LAYER:4
;TYPE:WALL-OUTER
;MESH:obj_4_Tetraeder.stl
G1 X-44.858 Y-40.54 Z4.835 E1431.38455
G1 X44.859 Y-40.422 Z5.167 E1473.57554
G1 X0.001 Y37.391 Z5.5 E1515.81355
;TIME_ELAPSED:212.384190
;LAYER:5
;TYPE:WALL-OUTER
;MESH:obj_4_Tetraeder.stl
G1 X-44.449 Y-39.833 Z5.834 E1557.71578
G1 X44.348 Y-39.892 Z6.168 E1599.47411
G92 E0
G1 X0.001 Y36.684 Z6.5 E41.61411
;TIME_ELAPSED:219.062347
;LAYER:6
;TYPE:WALL-OUTER
;MESH:obj_4_Tetraeder.stl
G1 X-43.633 Y-39.833 Z6.835 E83.0371
G1 X43.634 Y-39.715 Z7.167 E124.07595
G1 X0.001 Y35.976 Z7.5 E165.16173
;TIME_ELAPSED:225.649835
;LAYER:7
;TYPE:WALL-OUTER
;MESH:obj_4_Tetraeder.stl
G1 X-43.224 Y-39.126 Z7.835 E205.91172
G1 X43.124 Y-39.185 Z8.168 E246.51838
G1 X0.001 Y35.269 Z8.5 E286.98049
;TIME_ELAPSED:232.145422
;LAYER:8
;TYPE:WALL-OUTER
;MESH:obj_4_Tetraeder.stl
G1 X-42.612 Y-38.772 Z8.835 E327.15449
G1 X42.511 Y-38.831 Z9.168 E367.18508
G1 X0.001 Y34.562 Z9.5 E407.07095
;TIME_ELAPSED:238.549130
;LAYER:9
;TYPE:WALL-OUTER
;MESH:obj_4_Tetraeder.stl
G1 X-41.796 Y-38.772 Z9.835 E446.76573
G1 X41.797 Y-38.654 Z10.167 E486.07685
G1 X0.001 Y33.855 Z10.5 E525.4348
;TIME_ELAPSED:244.861040
;LAYER:10
;TYPE:WALL-OUTER
;MESH:obj_4_Tetraeder.stl
G1 X-41.386 Y-38.065 Z10.835 E564.45674
G1 X41.286 Y-38.124 Z11.168 E603.33472
G1 X0.001 Y33.148 Z11.5 E642.06877
;TIME_ELAPSED:251.080994
;LAYER:11
;TYPE:WALL-OUTER
;MESH:obj_4_Tetraeder.stl
G1 X-40.774 Y-37.711 Z11.835 E680.51471
G1 X40.674 Y-37.77 Z12.168 E718.81709
G1 X0.001 Y32.441 Z12.5 E756.97514
;TIME_ELAPSED:257.209107
;LAYER:12
;TYPE:WALL-OUTER
;MESH:obj_4_Tetraeder.stl
G1 X-39.958 Y-37.711 Z12.835 E794.94189
G1 X39.96 Y-37.593 Z13.168 E832.52481
G1 X0.001 Y31.733 Z13.5 E870.15452
;TIME_ELAPSED:263.245402
;LAYER:13
;TYPE:WALL-OUTER
;MESH:obj_4_Tetraeder.stl
G1 X-39.549 Y-37.004 Z13.835 E907.44823
G1 X39.449 Y-37.063 Z14.168 E944.59848
G1 X0.002 Y31.026 Z14.5 E981.60406
;TIME_ELAPSED:269.189744
;LAYER:14
;TYPE:WALL-OUTER
;MESH:obj_4_Tetraeder.stl
G1 X-38.733 Y-37.004 Z14.836 E1018.41883
G1 X38.735 Y-36.886 Z15.168 E1054.84961
G1 X0.002 Y30.319 Z15.5 E1091.32726
;TIME_ELAPSED:275.042303
;LAYER:15
;TYPE:WALL-OUTER
;MESH:obj_4_Tetraeder.stl
G1 X-38.324 Y-36.297 Z15.835 E1127.46938
G1 X38.224 Y-36.356 Z16.168 E1163.46749
G1 X0.002 Y29.612 Z16.5 E1199.32125
;TIME_ELAPSED:280.802941
;LAYER:16
;TYPE:WALL-OUTER
;MESH:obj_4_Tetraeder.stl
G1 X-37.711 Y-35.943 Z16.835 E1234.88713
G1 X37.612 Y-36.002 Z17.168 E1270.30918
G1 X0.002 Y28.905 Z17.5 E1305.58694
;TIME_ELAPSED:286.471701
;LAYER:17
;TYPE:WALL-OUTER
;MESH:obj_4_Tetraeder.stl
G1 X-36.896 Y-35.943 Z17.836 E1340.67392
G1 X36.898 Y-35.825 Z18.168 E1375.37697
G1 X0.002 Y28.198 Z18.5 E1410.1268
;TIME_ELAPSED:292.048705
;LAYER:18
;TYPE:WALL-OUTER
;MESH:obj_4_Tetraeder.stl
G1 X-36.486 Y-35.236 Z18.835 E1444.54086
G1 X36.387 Y-35.295 Z19.168 E1478.81077
G1 X0.002 Y27.491 Z19.5 E1512.9367
;TIME_ELAPSED:297.533750
;LAYER:19
;TYPE:WALL-OUTER
;MESH:obj_4_Tetraeder.stl
G1 X-35.874 Y-34.882 Z19.835 E1546.77477
G1 X35.775 Y-34.942 Z20.168 E1580.46908
G92 E0
G1 X0.002 Y26.783 Z20.5 E33.54994
;TIME_ELAPSED:302.925819
;LAYER:20
;TYPE:WALL-OUTER
;MESH:obj_4_Tetraeder.stl
G1 X-35.058 Y-34.882 Z20.836 E66.90849
G1 X35.061 Y-34.764 Z21.168 E99.88334
G1 X0.002 Y26.076 Z21.5 E132.90494
;TIME_ELAPSED:308.227187
;LAYER:21
;TYPE:WALL-OUTER
;MESH:obj_4_Tetraeder.stl
G1 X-34.649 Y-34.175 Z21.835 E165.59078
G1 X34.55 Y-34.235 Z22.168 E198.13296
G1 X0.002 Y25.369 Z22.5 E230.53107
;TIME_ELAPSED:313.436654
;LAYER:22
;TYPE:WALL-OUTER
;MESH:obj_4_Tetraeder.stl
G1 X-33.833 Y-34.175 Z22.836 E262.73783
G1 X33.836 Y-34.057 Z23.168 E294.56055
G1 X0.002 Y24.662 Z23.5 E326.43033
;TIME_ELAPSED:318.554307
;LAYER:23
;TYPE:WALL-OUTER
;MESH:obj_4_Tetraeder.stl
G1 X-33.424 Y-33.468 Z23.835 E357.96434
G1 X33.325 Y-33.528 Z24.168 E389.35439
G1 X0.002 Y23.955 Z24.5 E420.60069
;TIME_ELAPSED:323.580060
;LAYER:24
;note -- min layer time used
;TYPE:WALL-OUTER
;MESH:obj_4_Tetraeder.stl
G1 F2358.9 X-32.811 Y-33.114 Z24.835 E451.55847
G1 X32.713 Y-33.174 Z25.168 E482.37245
G1 X0.002 Y23.248 Z25.5 E513.04276
;TIME_ELAPSED:328.599696
;LAYER:25
;note -- min layer time used
;TYPE:WALL-OUTER
;MESH:obj_4_Tetraeder.stl
G1 F2314.8 X-31.996 Y-33.114 Z25.836 E543.52173
G1 X31.999 Y-32.996 Z26.168 E573.61673
G1 X0.002 Y22.541 Z26.5 E603.75869
;TIME_ELAPSED:333.618808
;LAYER:26
;note -- min layer time used
;TYPE:WALL-OUTER
;MESH:obj_4_Tetraeder.stl
G1 F2270.7 X-31.586 Y-32.407 Z26.835 E633.56466
G1 X31.488 Y-32.467 Z27.168 E663.22651
G1 X0.002 Y21.833 Z27.5 E692.74458
;TIME_ELAPSED:338.637413
;LAYER:27
;note -- min layer time used
;TYPE:WALL-OUTER
;MESH:obj_4_Tetraeder.stl
G1 F2226.6 X-30.974 Y-32.053 Z27.835 E721.97415
G1 X30.876 Y-32.113 Z28.168 E751.0604
G1 X0.002 Y21.126 Z28.5 E780.00248
;TIME_ELAPSED:343.655505
;LAYER:28
;note -- min layer time used
;TYPE:WALL-OUTER
;MESH:obj_4_Tetraeder.stl
G1 F2182.5 X-30.158 Y-32.053 Z28.836 E808.75305
G1 X30.161 Y-31.935 Z29.168 E837.11939
G1 X0.002 Y20.419 Z29.5 E865.53289
;TIME_ELAPSED:348.672521
;LAYER:29
;note -- min layer time used
;TYPE:WALL-OUTER
;MESH:obj_4_Tetraeder.stl
G1 F2138.4 X-29.749 Y-31.346 Z29.835 E893.61064
G1 X29.651 Y-31.406 Z30.168 E921.54477
G1 X0.003 Y19.712 Z30.5 E949.33479
;TIME_ELAPSED:353.689038
;LAYER:30
;note -- min layer time used
;TYPE:WALL-OUTER
;MESH:obj_4_Tetraeder.stl
G1 F2094.3 X-28.933 Y-31.346 Z30.836 E976.93381
G1 X28.937 Y-31.228 Z31.168 E1004.14849
G1 X0.003 Y19.005 Z31.5 E1031.41018
;TIME_ELAPSED:358.705037
;LAYER:31
;note -- min layer time used
;TYPE:WALL-OUTER
;MESH:obj_4_Tetraeder.stl
G1 F2050.2 X-28.524 Y-30.639 Z31.835 E1058.33634
G1 X28.426 Y-30.699 Z32.168 E1085.11835
G1 X0.003 Y18.298 Z32.5 E1111.75656
;TIME_ELAPSED:363.720539
;LAYER:32
;note -- min layer time used
;TYPE:WALL-OUTER
;MESH:obj_4_Tetraeder.stl
G1 F2006.1 X-27.911 Y-30.285 Z32.835 E1138.1065
G1 X27.814 Y-30.345 Z33.168 E1164.31244
G1 X0.003 Y17.591 Z33.5 E1190.37466
;TIME_ELAPSED:368.735538
;LAYER:33
;note -- min layer time used
;TYPE:WALL-OUTER
;MESH:obj_4_Tetraeder.stl
G1 F1962 X-27.096 Y-30.284 Z33.836 E1216.24552
G1 X27.1 Y-30.167 Z34.168 E1241.73248
G1 X0.003 Y16.883 Z34.5 E1267.26595
;TIME_ELAPSED:373.750024
;LAYER:34
;note -- min layer time used
;TYPE:WALL-OUTER
;MESH:obj_4_Tetraeder.stl
G1 F1917.9 X-26.686 Y-29.578 Z34.835 E1292.46367
G1 X26.589 Y-29.638 Z35.169 E1317.51748
G1 X0.003 Y16.176 Z35.5 E1342.42748
;TIME_ELAPSED:378.764021
;LAYER:35
;note -- min layer time used
;TYPE:WALL-OUTER
;MESH:obj_4_Tetraeder.stl
G1 F1873.8 X-26.073 Y-29.224 Z35.835 E1367.04897
G1 X25.977 Y-29.284 Z36.169 E1391.52673
G1 X0.003 Y15.469 Z36.5 E1415.86074
;TIME_ELAPSED:383.777522
;LAYER:36
;note -- min layer time used
;TYPE:WALL-OUTER
;MESH:obj_4_Tetraeder.stl
G1 F1829.7 X-25.258 Y-29.223 Z36.837 E1440.00322
G1 X25.262 Y-29.106 Z37.168 E1463.76153
G1 X0.003 Y14.762 Z37.5 E1487.56696
;TIME_ELAPSED:388.791067
;LAYER:37
;note -- min layer time used
;TYPE:WALL-OUTER
;MESH:obj_4_Tetraeder.stl
G1 F1785.6 X-24.848 Y-28.517 Z37.835 E1511.03664
G1 X24.752 Y-28.577 Z38.169 E1534.36228
G1 X0.003 Y14.055 Z38.5 E1557.54448
;TIME_ELAPSED:393.803582
;LAYER:38
;note -- min layer time used
;TYPE:WALL-OUTER
;MESH:obj_4_Tetraeder.stl
G1 F1741.6 X-24.033 Y-28.516 Z38.837 E1580.5352
G92 E0
G1 X24.038 Y-28.399 Z39.168 E22.60666
G1 X0.003 Y13.348 Z39.5 E45.26051
;TIME_ELAPSED:398.820947
;LAYER:39
;note -- min layer time used
;TYPE:WALL-OUTER
;MESH:obj_4_Tetraeder.stl
G1 F1697.4 X-23.623 Y-27.811 Z39.836 E67.57881
G1 X23.527 Y-27.87 Z40.169 E89.75232
G1 X0.003 Y12.641 Z40.5 E111.78271
;TIME_ELAPSED:403.833037
;LAYER:40
;note -- min layer time used
;TYPE:WALL-OUTER
;MESH:obj_4_Tetraeder.stl
G1 F1653.3 X-23.01 Y-27.457 Z40.836 E133.52478
G1 X22.915 Y-27.516 Z41.169 E155.12224
G1 X0.003 Y11.933 Z41.5 E176.57624
;TIME_ELAPSED:408.844645
;LAYER:41
;note -- min layer time used
;TYPE:WALL-OUTER
;MESH:obj_4_Tetraeder.stl
G1 F1609.2 X-22.195 Y-27.455 Z41.837 E197.83861
G1 X22.2 Y-27.338 Z42.168 E218.71663
G1 X0.003 Y11.226 Z42.5 E239.64205
;TIME_ELAPSED:413.855219
;LAYER:42
;note -- min layer time used
;TYPE:WALL-OUTER
;MESH:obj_4_Tetraeder.stl
G1 F1565.1 X-21.785 Y-26.75 Z42.836 E260.23191
G1 X21.69 Y-26.809 Z43.169 E280.67725
G1 X0.003 Y10.519 Z43.5 E300.97945
;TIME_ELAPSED:418.865876
;LAYER:43
;note -- min layer time used
;TYPE:WALL-OUTER
;MESH:obj_4_Tetraeder.stl
G1 F1521.1 X-21.173 Y-26.396 Z43.836 E320.99333
G1 X21.078 Y-26.455 Z44.169 E340.86309
G1 X0.003 Y9.812 Z44.5 E360.5893
;TIME_ELAPSED:423.876065
;LAYER:44
;note -- min layer time used
;TYPE:WALL-OUTER
;MESH:obj_4_Tetraeder.stl
G1 F1477 X-20.358 Y-26.394 Z44.837 E380.12399
G1 X20.363 Y-26.277 Z45.168 E399.27432
G1 X0.003 Y9.105 Z45.5 E418.47195
;TIME_ELAPSED:428.885237
;LAYER:45
;note -- min layer time used
;TYPE:WALL-OUTER
;MESH:obj_4_Tetraeder.stl
G1 F1432.8 X-19.948 Y-25.689 Z45.836 E437.33403
G1 X19.852 Y-25.748 Z46.169 E456.05121
G1 X0.004 Y8.398 Z46.5 E474.62516
;TIME_ELAPSED:433.894505
;LAYER:46
;note -- min layer time used
;TYPE:WALL-OUTER
;MESH:obj_4_Tetraeder.stl
G1 F1388.8 X-19.133 Y-25.687 Z46.838 E493.00837
G1 X19.139 Y-25.57 Z47.168 E511.00706
G1 X0.004 Y7.69 Z47.5 E529.05249
;TIME_ELAPSED:438.903311
;LAYER:47
;note -- min layer time used
;TYPE:WALL-OUTER
;MESH:obj_4_Tetraeder.stl
G1 F1344.7 X-18.723 Y-24.982 Z47.836 E546.76261
G1 X18.628 Y-25.041 Z48.169 E564.32816
G1 X0.004 Y6.983 Z48.5 E581.75015
;TIME_ELAPSED:443.911143
;LAYER:48
;note -- min layer time used
;TYPE:WALL-OUTER
;MESH:obj_4_Tetraeder.stl
G1 F1300.5 X-18.11 Y-24.628 Z48.836 E598.88406
G1 X18.015 Y-24.687 Z49.169 E615.87309
G1 X0.004 Y6.276 Z49.5 E632.71887
;TIME_ELAPSED:448.918539
;LAYER:49
;note -- min layer time used
;TYPE:WALL-OUTER
;MESH:obj_4_Tetraeder.stl
G1 F1256.5 X-17.295 Y-24.626 Z49.838 E649.3738
G1 X17.301 Y-24.509 Z50.169 E665.64389
G1 X0.004 Y5.569 Z50.5 E681.96131
;TIME_ELAPSED:453.925498
;LAYER:50
;note -- min layer time used
;TYPE:WALL-OUTER
;MESH:obj_4_Tetraeder.stl
G1 F1212.4 X-16.885 Y-23.921 Z50.836 E697.94345
G1 X16.79 Y-23.98 Z51.17 E713.78039
G1 X0.004 Y4.862 Z51.5 E729.47438
;TIME_ELAPSED:458.932051
;LAYER:51
;note -- min layer time used
;TYPE:WALL-OUTER
;MESH:obj_4_Tetraeder.stl
G1 F1168.3 X-16.273 Y-23.567 Z51.836 E744.88055
G1 X16.178 Y-23.626 Z52.17 E760.14191
G1 X0.004 Y4.155 Z52.5 E775.25994
;TIME_ELAPSED:463.938198
;LAYER:52
;note -- min layer time used
;TYPE:WALL-OUTER
;MESH:obj_4_Tetraeder.stl
G1 F1124.2 X-15.458 Y-23.565 Z52.839 E790.18729
G1 X15.464 Y-23.448 Z53.169 E804.72973
G1 X0.004 Y3.448 Z53.5 E819.3194
;TIME_ELAPSED:468.944473
;LAYER:53
;note -- min layer time used
;TYPE:WALL-OUTER
;MESH:obj_4_Tetraeder.stl
G1 F1080.1 X-15.048 Y-22.86 Z53.837 E833.57381
G1 X14.953 Y-22.919 Z54.17 E847.68309
G1 X0.004 Y2.74 Z54.5 E861.64895
;TIME_ELAPSED:473.950377
;LAYER:54
;note -- min layer time used
;TYPE:WALL-OUTER
;MESH:obj_4_Tetraeder.stl
G1 F1036 X-14.233 Y-22.858 Z54.839 E875.42426
G1 X14.239 Y-22.741 Z55.169 E888.81463
G1 X0.004 Y2.033 Z55.5 E902.25214
;TIME_ELAPSED:478.955374
;LAYER:55
;note -- min layer time used
;TYPE:WALL-OUTER
;MESH:obj_4_Tetraeder.stl
G1 F991.9 X-13.822 Y-22.153 Z55.837 E915.35415
G1 X13.728 Y-22.212 Z56.17 E928.3109
G1 X0.004 Y1.326 Z56.5 E941.125
;TIME_ELAPSED:483.960033
;LAYER:56
;note -- min layer time used
;TYPE:WALL-OUTER
;MESH:obj_4_Tetraeder.stl
G1 F947.8 X-13.21 Y-21.799 Z56.837 E953.65106
G1 X13.116 Y-21.858 Z57.171 E966.03226
G1 X0.004 Y0.619 Z57.5 E978.2704
;TIME_ELAPSED:488.964367
;LAYER:57
;note -- min layer time used
;TYPE:WALL-OUTER
;MESH:obj_4_Tetraeder.stl
G1 F903.7 X-12.395 Y-21.796 Z57.84 E990.31764
G1 X12.402 Y-21.68 Z58.169 E1001.97992
G1 X0.004 Y-0.088 Z58.5 E1013.68973
;TIME_ELAPSED:493.968389
;LAYER:58
;note -- min layer time used
;TYPE:WALL-OUTER
;MESH:obj_4_Tetraeder.stl
G1 F859.6 X-11.985 Y-21.092 Z58.838 E1025.06407
G1 X11.891 Y-21.151 Z59.171 E1036.29322
G1 X0.004 Y-.795 Z59.5 E1047.37964
;TIME_ELAPSED:498.972665
;LAYER:59
;note -- min layer time used
;TYPE:WALL-OUTER
;MESH:obj_4_Tetraeder.stl
G1 F815.6 X-11.17 Y-21.089 Z59.841 E1058.27537
G1 X11.178 Y-20.973 Z60.17 E1068.78611
G1 X0.004 Y-1.502 Z60.5 E1079.34442
;TIME_ELAPSED:503.976691
;LAYER:60
;note -- min layer time used
;TYPE:WALL-OUTER
;MESH:obj_4_Tetraeder.stl
G1 F771.4 X-10.759 Y-20.385 Z60.838 E1089.56684
G1 X10.666 Y-20.444 Z61.171 E1099.6435
G1 X0.004 Y-2.21 Z61.5 E1109.57782
;TIME_ELAPSED:508.980000
;LAYER:61
;note -- min layer time used
;TYPE:WALL-OUTER
;MESH:obj_4_Tetraeder.stl
G1 F727.3 X-10.147 Y-20.031 Z61.838 E1119.22391
G1 X10.054 Y-20.09 Z62.172 E1128.72505
G1 X0.004 Y-2.917 Z62.5 E1138.08344
;TIME_ELAPSED:513.983151
;LAYER:62
;note -- min layer time used
;TYPE:WALL-OUTER
;MESH:obj_4_Tetraeder.stl
G1 F683.3 X-9.333 Y-20.028 Z62.842 E1147.25157
G1 X9.34 Y-19.911 Z63.17 E1156.03434
G1 X0.005 Y-3.624 Z63.5 E1164.86375
;TIME_ELAPSED:518.986200
;LAYER:63
;note -- min layer time used
;TYPE:WALL-OUTER
;MESH:obj_4_Tetraeder.stl
G1 F639.1 X-8.922 Y-19.324 Z63.839 E1173.35845
G1 X8.829 Y-19.383 Z64.172 E1181.70762
G1 X0.005 Y-4.331 Z64.5 E1189.91414
;TIME_ELAPSED:523.989180
;LAYER:64
;note -- min layer time used
;TYPE:WALL-OUTER
;MESH:obj_4_Tetraeder.stl
G1 F600 X-8.309 Y-18.97 Z64.84 E1197.83272
G1 X8.217 Y-19.029 Z65.173 E1205.60593
G1 X0.005 Y-5.038 Z65.5 E1213.23656
;TIME_ELAPSED:528.951052
;LAYER:65
;note -- min layer time used
;TYPE:WALL-OUTER
;MESH:obj_4_Tetraeder.stl
G1 X-7.495 Y-18.966 Z65.845 E1220.67741
G1 X7.503 Y-18.85 Z66.171 E1227.73231
G1 X0.005 Y-5.745 Z66.5 E1234.83421
;TIME_ELAPSED:533.546157
;LAYER:66
;note -- min layer time used
;TYPE:WALL-OUTER
;MESH:obj_4_Tetraeder.stl
G1 X-7.083 Y-18.264 Z66.841 E1241.60146
G1 X6.991 Y-18.322 Z67.174 E1248.22187
G1 X0.005 Y-6.452 Z67.5 E1254.70072
;TIME_ELAPSED:537.773139
;LAYER:67
;note -- min layer time used
;TYPE:WALL-OUTER
;MESH:obj_4_Tetraeder.stl
G1 X-6.27 Y-18.259 Z67.847 E1260.99069
G1 X6.278 Y-18.143 Z68.172 E1266.89379
G1 X0.005 Y-7.16 Z68.5 E1272.84378
;TIME_ELAPSED:541.728719
;LAYER:68
;note -- min layer time used
;TYPE:WALL-OUTER
;MESH:obj_4_Tetraeder.stl
G1 X-5.858 Y-17.557 Z68.842 E1278.45924
G1 X5.766 Y-17.615 Z69.175 E1283.9279
G1 X0.005 Y-7.867 Z69.5 E1289.25494
;TIME_ELAPSED:545.316016
;LAYER:69
;note -- min layer time used
;TYPE:WALL-OUTER
;MESH:obj_4_Tetraeder.stl
G1 X-5.245 Y-17.203 Z69.843 E1294.29447
G1 X5.154 Y-17.262 Z70.176 E1299.18733
G1 X0.005 Y-8.574 Z70.5 E1303.93905
;TIME_ELAPSED:548.536064
;LAYER:70
;note -- min layer time used
;TYPE:WALL-OUTER
;MESH:obj_4_Tetraeder.stl
G1 X-4.433 Y-17.196 Z70.852 E1308.50228
G1 X4.441 Y-17.081 Z71.174 E1312.67849
G1 X0.005 Y-9.281 Z71.5 E1316.90105
;TIME_ELAPSED:551.389908
;LAYER:71
;note -- min layer time used
;TYPE:WALL-OUTER
;MESH:obj_4_Tetraeder.stl
G1 X-4.019 Y-16.497 Z71.846 E1320.78984
G1 X3.928 Y-16.555 Z72.179 E1324.53041
G1 X0.005 Y-9.988 Z72.5 E1328.13088
;TIME_ELAPSED:553.875415
;LAYER:72
;note -- min layer time used
;TYPE:WALL-OUTER
;MESH:obj_4_Tetraeder.stl
G1 X-3.405 Y-16.144 Z72.849 E1331.44436
G1 X3.316 Y-16.201 Z73.182 E1334.609
G1 X0.005 Y-10.695 Z73.5 E1337.63407
;TIME_ELAPSED:555.993757
;LAYER:73
;note -- min layer time used
;TYPE:WALL-OUTER
;MESH:obj_4_Tetraeder.stl
G1 X-2.595 Y-16.131 Z73.865 E1340.47298
G1 X2.604 Y-16.018 Z74.179 E1342.92291
G1 X0.005 Y-11.402 Z74.5 E1345.41865
;TIME_ELAPSED:557.746642
;LAYER:74
;note -- min layer time used
;TYPE:WALL-OUTER
;MESH:obj_4_Tetraeder.stl
G1 X-2.176 Y-15.439 Z74.858 E1347.583
G1 X2.089 Y-15.495 Z75.19 E1349.59491
G1 X0.005 Y-12.11 Z75.5 E1351.46993
;TIME_ELAPSED:559.130947
;LAYER:75
;note -- min layer time used
;TYPE:WALL-OUTER
;MESH:obj_4_Tetraeder.stl
G1 X-1.37 Y-15.417 Z75.89 E1353.16412
G1 X1.379 Y-15.307 Z76.19 E1354.46558
G1 X0.005 Y-12.817 Z76.5 E1355.8109
;TIME_ELAPSED:560.151561
;LAYER:76
;note -- min layer time used
;TYPE:WALL-OUTER
;MESH:obj_4_Tetraeder.stl
G1 X-.936 Y-14.741 Z76.892 E1356.83484
G1 X0.856 Y-14.793 Z77.22 E1357.6919
G1 X0.005 Y-13.524 Z77.5 E1358.42239
;TIME_ELAPSED:560.804407
;LAYER:77
;note -- min layer time used
;TYPE:WALL-OUTER
;MESH:obj_4_Tetraeder.stl
G1 X-.261 Y-14.423 Z77.858 E1358.89433
G1 X0.213 Y-14.457 Z78.04 E1359.13363
G1 X0.005 Y-14.231 Z78.157 E1359.2882
G1 X-.145 Y-14.49 Z78.5 E1359.45946
G1 X0.155 Y-14.49 E1359.54411
G1 X0.005 Y-14.231 E1359.60041
G1 X0.00 Y0.000 Z78
;TIME_ELAPSED:562.732037
;LAYER:78
G0 F1800 X0.00 Y0.000 Z78.5
;TIME_ELAPSED:562.870988
;LAYER:79
M104 S190
G0 X0.00 Y0.000 Z79.5
;TIME_ELAPSED:563.068510
;LAYER:80
G0 X0.00 Y0.000 Z80.5
;TIME_ELAPSED:563.266031
;LAYER:81
G0 X0.00 Y0.000 Z81.5
;TIME_ELAPSED:563.463552
G1 F1500 E1353.10041
M140 S0
M107
M104 S0
M140 S0
;Retract the filament
G92 E1
G1 E-1 F300
G28 X0 Y0
M84
M82 ;absolute extrusion mode
M104 S0
;End of Gcode
;SETTING_3 {"global_quality": "[general]\\nversion = 4\\nname = CuraProfile_3mm_
;SETTING_3 2laybase_40sec\\ndefinition = custom\\n\\n[metadata]\\ntype = quality
;SETTING_3 _changes\\nquality_type = extra coarse\\nsetting_version = 25\\n\\n[v
;SETTING_3 alues]\\nadhesion_type = none\\njerk_enabled = False\\nlayer_height =
;SETTING_3  1\\nlayer_height_0 = 0.5\\nmagic_spiralize = True\\n\\n", "extruder_
;SETTING_3 quality": ["[general]\\nversion = 4\\nname = CuraProfile_3mm_2laybase
;SETTING_3 _40sec\\ndefinition = custom\\n\\n[metadata]\\ntype = quality_changes
;SETTING_3 \\nquality_type = extra coarse\\nintent_category = default\\nposition
;SETTING_3  = 0\\nsetting_version = 25\\n\\n[values]\\nbottom_layers = 2\\nbotto
;SETTING_3 m_thickness = 1.3\\ninfill_sparse_density = 0\\nline_width = 3\\nmesh
;SETTING_3 fix_maximum_resolution = 1\\nretraction_hop = 1.0\\nretraction_hop_en
;SETTING_3 abled = True\\nspeed_layer_0 = 15.0\\nspeed_print = 40.0\\nspeed_trav
;SETTING_3 el = 30.0\\nspeed_wall = 40.0\\nspeed_wall_x = 30\\ntop_bottom_thickn
;SETTING_3 ess = 0\\ntop_layers = 0\\ntravel_avoid_other_parts = False\\nwall_li
;SETTING_3 ne_count = 3\\nwall_thickness = 3.0\\n\\n"]}
