;FLAVOR:Marlin
;TIME:191
;Filament used: 1.46796m
;Layer height: 1
;MINX:-32.356
;MINY:-32.359
;MINZ:0.5
;MAXX:32.356
;MAXY:32.359
;MAXZ:7.5
;TARGET_MACHINE.NAME:Unknown
;Generated with Cura_SteamEngine 5.11.0
M140 S60
M105
M190 S60
M104 S200
M105
M109 S200
G28 ;Home
M302 S0 ;Set cold extrusion
M92 E400 ;E Steps at 400 steps/mm M92 E-400 reverse
G1 Z15.0 F6000 ;Move the platform down 15mm
;Prime the extruder
G92 E0
G1 F200 E3
G92 E0
M82 ;absolute extrusion mode
G92 E0
G92 E0
G1 F1500 E-6.5
;LAYER_COUNT:7
;LAYER:0
M107
G1 F600 Z1.5
;MESH:CenterRing_Solid.stl
G0 F675 X0.00 Y0.000 Z1.5
G0 X1.968 Y26.282
;TYPE:WALL-INNER
G1 F600 Z0.5
G1 F1500 E0
G1 F900 X3.532 Y26.119 E0.36974
G1 X5.084 Y25.861 E0.73967
G1 X6.633 Y25.509 E1.11318
G1 X8.138 Y25.068 E1.48193
G1 X9.625 Y24.535 E1.85335
G1 X11.065 Y23.92 E2.22153
G1 X12.485 Y23.21 E2.59483
G1 X13.825 Y22.434 E2.95892
G1 X15.174 Y21.544 E3.33893
G1 X16.437 Y20.6 E3.70969
G1 X17.61 Y19.6 E4.07212
G1 X18.775 Y18.488 E4.4508
G1 X19.838 Y17.342 E4.81834
G1 X20.849 Y16.114 E5.19235
G1 X21.771 Y14.849 E5.56041
G1 X22.629 Y13.501 E5.93612
G1 X23.4 Y12.121 E6.30782
G1 X24.071 Y10.727 E6.67158
G1 X24.664 Y9.277 E7.03994
G1 X25.173 Y7.781 E7.4115
G1 X25.603 Y6.227 E7.79062
G1 X25.928 Y4.705 E8.15656
G1 X26.161 Y3.146 E8.5272
G1 X26.302 Y1.57 E8.89925
G1 X26.352 Y-0.006 E9.27001
G1 X26.306 Y-1.546 E9.63227
G1 X26.158 Y-3.168 E10.01524
G1 X25.928 Y-4.705 E10.38066
G1 X25.604 Y-6.227 E10.74655
G1 X25.173 Y-7.781 E11.12574
G1 X24.664 Y-9.277 E11.4973
G1 X24.071 Y-10.727 E11.86565
G1 X23.4 Y-12.121 E12.22942
G1 X22.629 Y-13.501 E12.60111
G1 X21.771 Y-14.849 E12.97683
G1 X20.849 Y-16.114 E13.34489
G1 X19.838 Y-17.342 E13.7189
G1 X18.775 Y-18.488 E14.08643
G1 X17.61 Y-19.6 E14.46512
G1 X16.437 Y-20.6 E14.82755
G1 X15.174 Y-21.544 E15.19831
G1 X13.825 Y-22.434 E15.57831
G1 X12.485 Y-23.21 E15.94241
G1 X11.065 Y-23.919 E16.3156
G1 X9.625 Y-24.535 E16.68387
G1 X8.138 Y-25.068 E17.05529
G1 X6.633 Y-25.509 E17.42405
G1 X5.084 Y-25.861 E17.79755
G1 X3.532 Y-26.119 E18.16748
G1 X1.968 Y-26.282 E18.53722
G1 X0.371 Y-26.357 E18.91314
G1 X-1.181 Y-26.332 E19.27811
G1 X-2.754 Y-26.213 E19.64903
G1 X-4.337 Y-26.001 E20.02457
G1 X-5.878 Y-25.696 E20.39394
G1 X-7.389 Y-25.305 E20.76092
G1 X-8.911 Y-24.81 E21.13725
G1 X-10.345 Y-24.245 E21.49965
G1 X-11.795 Y-23.575 E21.87523
G1 X-13.197 Y-22.821 E22.24954
G1 X-14.509 Y-22.01 E22.61221
G1 X-15.83 Y-21.08 E22.99207
G1 X-17.038 Y-20.113 E23.35591
G1 X-18.218 Y-19.053 E23.72887
G1 X-19.347 Y-17.908 E24.10696
G1 X-20.367 Y-16.743 E24.47105
G1 X-21.332 Y-15.491 E24.84273
G1 X-22.209 Y-14.207 E25.20834
G1 X-23.039 Y-12.815 E25.58941
G1 X-23.747 Y-11.455 E25.94993
G1 X-24.403 Y-9.979 E26.32972
G1 X-24.944 Y-8.535 E26.6923
G1 X-25.422 Y-6.991 E27.07234
G1 X-25.784 Y-5.5 E27.43311
G1 X-26.077 Y-3.9 E27.81557
G1 X-26.262 Y-2.358 E28.18075
G1 X-26.355 Y-.807 E28.54609
G1 X-26.356 Y0.807 E28.92559
G1 X-26.263 Y2.358 E29.29094
G1 X-26.076 Y3.903 E29.65687
G1 X-25.788 Y5.489 E30.03589
G1 X-25.423 Y6.99 E30.3991
G1 X-24.944 Y8.535 E30.77944
G1 X-24.404 Y9.976 E31.14128
G1 X-23.747 Y11.452 E31.52116
G1 X-23.038 Y12.817 E31.88283
G1 X-22.212 Y14.2 E32.2616
G1 X-21.33 Y15.493 E32.62962
G1 X-20.367 Y16.743 E33.00065
G1 X-19.347 Y17.908 E33.36473
G1 X-18.218 Y19.053 E33.74282
G1 X-17.038 Y20.113 E34.11579
G1 X-15.831 Y21.078 E34.47914
G1 X-14.512 Y22.006 E34.85835
G1 X-13.194 Y22.822 E35.22284
G1 X-11.792 Y23.576 E35.59715
G1 X-10.349 Y24.245 E35.97113
G1 X-8.914 Y24.809 E36.33367
G1 X-7.389 Y25.305 E36.71074
G1 X-5.878 Y25.696 E37.07773
G1 X-4.337 Y26.001 E37.44709
G1 X-2.754 Y26.213 E37.82263
G1 X-1.181 Y26.332 E38.19355
G1 X0.371 Y26.357 E38.55852
G1 X1.968 Y26.282 E38.93444
G0 F675 X2.067 Y27.674
G0 X2.193 Y29.275
G1 F900 X3.933 Y29.094 E39.34578
G1 X5.663 Y28.806 E39.75816
G1 X7.387 Y28.414 E40.17387
G1 X9.067 Y27.922 E40.58548
G1 X10.722 Y27.329 E40.99885
G1 X12.327 Y26.643 E41.40926
G1 X13.908 Y25.852 E41.82494
G1 X15.404 Y24.987 E42.23127
G1 X16.899 Y24 E42.65249
G1 X18.31 Y22.945 E43.06674
G1 X19.62 Y21.829 E43.47138
G1 X20.913 Y20.595 E43.89165
G1 X22.098 Y19.317 E44.30144
G1 X23.221 Y17.953 E44.71688
G1 X24.251 Y16.54 E45.12802
G1 X25.206 Y15.04 E45.54614
G1 X26.064 Y13.504 E45.95982
G1 X26.814 Y11.947 E46.36618
G1 X27.475 Y10.329 E46.77715
G1 X28.041 Y8.665 E47.19043
G1 X28.519 Y6.941 E47.61109
G1 X28.881 Y5.241 E48.01977
G1 X29.141 Y3.502 E48.43321
G1 X29.298 Y1.752 E48.84634
G1 X29.353 Y-0.004 E49.25944
G1 X29.302 Y-1.728 E49.66498
G1 X29.138 Y-3.526 E50.08951
G1 X28.882 Y-5.24 E50.49699
G1 X28.519 Y-6.941 E50.90596
G1 X28.041 Y-8.665 E51.32662
G1 X27.475 Y-10.329 E51.73989
G1 X26.814 Y-11.947 E52.15086
G1 X26.064 Y-13.504 E52.55722
G1 X25.206 Y-15.04 E52.97091
G1 X24.251 Y-16.54 E53.38902
G1 X23.221 Y-17.953 E53.80016
G1 X22.098 Y-19.317 E54.2156
G1 X20.913 Y-20.595 E54.6254
G1 X19.62 Y-21.829 E55.04566
G1 X18.31 Y-22.945 E55.4503
G1 X16.899 Y-24 E55.86456
G1 X15.404 Y-24.987 E56.28578
G1 X13.908 Y-25.852 E56.6921
G1 X12.327 Y-26.643 E57.10778
G1 X10.722 Y-27.329 E57.51819
G1 X9.067 Y-27.922 E57.93156
G1 X7.387 Y-28.414 E58.34317
G1 X5.663 Y-28.806 E58.75889
G1 X3.933 Y-29.094 E59.17126
G1 X2.193 Y-29.274 E59.58258
G1 X0.418 Y-29.358 E60.0004
G1 X-1.318 Y-29.33 E60.40865
G1 X-3.066 Y-29.198 E60.82083
G1 X-4.828 Y-28.962 E61.23883
G1 X-6.546 Y-28.622 E61.65062
G1 X-8.23 Y-28.186 E62.05964
G1 X-9.926 Y-27.634 E62.47901
G1 X-11.525 Y-27.004 E62.88312
G1 X-13.136 Y-26.26 E63.30036
G1 X-14.697 Y-25.42 E63.71717
G1 X-16.163 Y-24.515 E64.12226
G1 X-17.632 Y-23.48 E64.54479
G1 X-18.98 Y-22.402 E64.95064
G1 X-20.29 Y-21.223 E65.36504
G1 X-21.546 Y-19.951 E65.78536
G1 X-22.685 Y-18.649 E66.19212
G1 X-23.761 Y-17.255 E66.60618
G1 X-24.738 Y-15.823 E67.01379
G1 X-25.66 Y-14.278 E67.43684
G1 X-26.451 Y-12.758 E67.83973
G1 X-27.181 Y-11.115 E68.26247
G1 X-27.784 Y-9.507 E68.66628
G1 X-28.316 Y-7.79 E69.08893
G1 X-28.72 Y-6.124 E69.49201
G1 X-29.044 Y-4.349 E69.91627
G1 X-29.252 Y-2.627 E70.32411
G1 X-29.355 Y-.897 E70.73161
G1 X-29.356 Y0.897 E71.15344
G1 X-29.252 Y2.627 E71.56095
G1 X-29.044 Y4.351 E71.96926
G1 X-28.724 Y6.112 E72.3901
G1 X-28.316 Y7.789 E72.79592
G1 X-27.784 Y9.507 E73.2188
G1 X-27.181 Y11.113 E73.62217
G1 X-26.451 Y12.754 E74.04447
G1 X-25.66 Y14.279 E74.44842
G1 X-24.741 Y15.816 E74.86949
G1 X-23.76 Y17.256 E75.27918
G1 X-22.685 Y18.649 E75.69291
G1 X-21.546 Y19.951 E76.09966
G1 X-20.29 Y21.223 E76.51999
G1 X-18.98 Y22.402 E76.93439
G1 X-17.633 Y23.479 E77.3399
G1 X-16.166 Y24.511 E77.76164
G1 X-14.696 Y25.421 E78.16816
G1 X-13.134 Y26.261 E78.58517
G1 X-11.529 Y27.004 E79.00104
G1 X-9.927 Y27.634 E79.4058
G1 X-8.23 Y28.186 E79.8254
G1 X-6.546 Y28.622 E80.23441
G1 X-4.827 Y28.962 E80.64644
G1 X-3.066 Y29.198 E81.06421
G1 X-1.318 Y29.33 E81.47639
G1 X0.418 Y29.358 E81.88463
G1 X2.193 Y29.275 E82.30244
G0 F675 X2.068 Y27.673
G0 X2.419 Y32.267
;TYPE:WALL-OUTER
G1 F900 X4.335 Y32.068 E82.75538
G1 X6.242 Y31.751 E83.20993
G1 X8.142 Y31.319 E83.66808
G1 X9.995 Y30.776 E84.1221
G1 X11.819 Y30.123 E84.57764
G1 X13.589 Y29.366 E85.03029
G1 X15.332 Y28.494 E85.48855
G1 X16.982 Y27.539 E85.93682
G1 X18.625 Y26.456 E86.39952
G1 X20.183 Y25.291 E86.85694
G1 X21.63 Y24.057 E87.3041
G1 X23.051 Y22.702 E87.76578
G1 X24.358 Y21.292 E88.21784
G1 X25.593 Y19.792 E88.6747
G1 X26.731 Y18.23 E89.12911
G1 X27.783 Y16.578 E89.58962
G1 X28.728 Y14.888 E90.0449
G1 X29.556 Y13.166 E90.49417
G1 X30.286 Y11.381 E90.94763
G1 X30.909 Y9.549 E91.40261
G1 X31.434 Y7.655 E91.86475
G1 X31.835 Y5.776 E92.31651
G1 X32.121 Y3.858 E92.77248
G1 X32.294 Y1.933 E93.22693
G1 X32.355 Y-0.002 E93.68214
G1 X32.298 Y-1.909 E94.13073
G1 X32.118 Y-3.884 E94.59704
G1 X31.835 Y-5.776 E95.04686
G1 X31.434 Y-7.655 E95.49862
G1 X30.909 Y-9.549 E95.96076
G1 X30.286 Y-11.381 E96.41574
G1 X29.556 Y-13.166 E96.8692
G1 X28.728 Y-14.888 E97.31847
G1 X27.783 Y-16.578 E97.77375
G1 X26.731 Y-18.23 E98.23426
G1 X25.593 Y-19.792 E98.68867
G1 X24.358 Y-21.292 E99.14553
G1 X23.051 Y-22.702 E99.59759
G1 X21.63 Y-24.057 E100.05927
G1 X20.183 Y-25.291 E100.50643
G1 X18.625 Y-26.456 E100.96385
G1 X16.982 Y-27.539 E101.42655
G1 X15.332 Y-28.494 E101.87482
G1 X13.589 Y-29.366 E102.33308
G1 X11.819 Y-30.123 E102.78573
G1 X9.995 Y-30.776 E103.24127
G1 X8.142 Y-31.319 E103.69529
G1 X6.242 Y-31.751 E104.15344
G1 X4.335 Y-32.068 E104.60799
G1 X2.419 Y-32.267 E105.06093
G1 X0.464 Y-32.359 E105.52112
G1 X-1.455 Y-32.328 E105.97239
G1 X-3.379 Y-32.183 E106.42607
G1 X-5.318 Y-31.923 E106.88607
G1 X-7.214 Y-31.548 E107.34052
G1 X-9.071 Y-31.067 E107.79157
G1 X-10.94 Y-30.459 E108.2537
G1 X-12.705 Y-29.764 E108.69972
G1 X-14.477 Y-28.945 E109.15873
G1 X-16.197 Y-28.02 E109.61793
G1 X-17.817 Y-27.019 E110.06569
G1 X-19.434 Y-25.88 E110.53076
G1 X-20.921 Y-24.691 E110.97843
G1 X-22.363 Y-23.394 E111.43446
G1 X-23.744 Y-21.994 E111.89685
G1 X-25.004 Y-20.555 E112.34658
G1 X-26.189 Y-19.018 E112.80292
G1 X-27.267 Y-17.439 E113.25246
G1 X-28.281 Y-15.74 E113.71769
G1 X-29.155 Y-14.06 E114.16297
G1 X-29.959 Y-12.251 E114.62844
G1 X-30.624 Y-10.478 E115.07369
G1 X-31.209 Y-8.588 E115.53889
G1 X-31.656 Y-6.748 E115.98412
G1 X-32.012 Y-4.799 E116.44997
G1 X-32.241 Y-2.897 E116.90042
G1 X-32.355 Y-.987 E117.35033
G1 X-32.356 Y0.987 E117.81448
G1 X-32.241 Y2.897 E118.26439
G1 X-32.012 Y4.799 E118.71484
G1 X-31.66 Y6.736 E119.17775
G1 X-31.209 Y8.588 E119.62594
G1 X-30.624 Y10.478 E120.09114
G1 X-29.959 Y12.251 E120.53639
G1 X-29.155 Y14.056 E121.001
G1 X-28.281 Y15.741 E121.44733
G1 X-27.271 Y17.432 E121.91046
G1 X-26.189 Y19.018 E122.36189
G1 X-25.004 Y20.555 E122.81823
G1 X-23.744 Y21.994 E123.26796
G1 X-22.363 Y23.394 E123.73035
G1 X-20.921 Y24.691 E124.18638
G1 X-19.435 Y25.879 E124.63373
G1 X-17.82 Y27.015 E125.098
G1 X-16.197 Y28.02 E125.54686
G1 X-14.476 Y28.945 E126.00627
G1 X-12.709 Y29.764 E126.4642
G1 X-10.941 Y30.459 E126.91088
G1 X-9.071 Y31.067 E127.37324
G1 X-7.214 Y31.548 E127.82429
G1 X-5.318 Y31.923 E128.27873
G1 X-3.379 Y32.183 E128.73873
G1 X-1.455 Y32.328 E129.19241
G1 X0.464 Y32.359 E129.64369
G1 X2.419 Y32.267 E130.10388
G0 F675 X3.911 Y32.113
G0 X3.429 Y27.53
G0 X1.767 Y23.435
;TYPE:SKIN
G1 F900 X0.313 Y23.503 E130.44613
G1 X-1.047 Y23.48 E130.76596
G1 X-2.447 Y23.375 E131.09607
G1 X-3.875 Y23.183 E131.43486
G1 X-5.25 Y22.912 E131.76438
G1 X-6.584 Y22.567 E132.08837
G1 X-7.966 Y22.119 E132.42997
G1 X-9.204 Y21.632 E132.74278
G1 X-10.531 Y21.014 E133.08697
G1 X-11.753 Y20.356 E133.41331
G1 X-12.941 Y19.623 E133.74154
G1 X-14.135 Y18.783 E134.0848
G1 X-15.196 Y17.936 E134.40402
G1 X-16.251 Y16.983 E134.73831
G1 X-17.257 Y15.965 E135.07483
G1 X-18.16 Y14.935 E135.39691
G1 X-19.021 Y13.815 E135.72909
G1 X-19.799 Y12.675 E136.05361
G1 X-20.557 Y11.409 E136.40056
G1 X-21.167 Y10.229 E136.7129
G1 X-21.771 Y8.873 E137.06194
G1 X-22.251 Y7.599 E137.38205
G1 X-22.665 Y6.254 E137.71295
G1 X-23 Y4.875 E138.04663
G1 X-23.26 Y3.452 E138.38676
G1 X-23.421 Y2.101 E138.70667
G1 X-23.504 Y0.742 E139.02681
G1 X-23.504 Y-.742 E139.37574
G1 X-23.421 Y-2.101 E139.69588
G1 X-23.26 Y-3.45 E140.01533
G1 X-22.996 Y-4.883 E140.35794
G1 X-22.664 Y-6.254 E140.68963
G1 X-22.239 Y-7.63 E141.02825
G1 X-21.767 Y-8.889 E141.3444
G1 X-21.176 Y-10.211 E141.68489
G1 X-20.556 Y-11.406 E142.00144
G1 X-19.807 Y-12.667 E142.3463
G1 X-19.01 Y-13.829 E142.67762
G1 X-18.16 Y-14.935 E143.0056
G1 X-17.256 Y-15.966 E143.32801
G1 X-16.243 Y-16.994 E143.66737
G1 X-15.208 Y-17.924 E143.99454
G1 X-14.127 Y-18.791 E144.32037
G1 X-12.917 Y-19.639 E144.66779
G1 X-11.773 Y-20.348 E144.98425
G1 X-10.521 Y-21.021 E145.31848
G1 X-9.218 Y-21.624 E145.65607
G1 X-7.949 Y-22.123 E145.97669
G1 X-6.583 Y-22.567 E146.31442
G1 X-5.25 Y-22.912 E146.63818
G1 X-3.875 Y-23.183 E146.96771
G1 X-2.447 Y-23.375 E147.3065
G1 X-1.047 Y-23.48 E147.63661
G1 X0.317 Y-23.503 E147.95737
G1 X1.767 Y-23.435 E148.29869
G1 X3.147 Y-23.292 E148.62491
G1 X4.527 Y-23.063 E148.95383
G1 X5.921 Y-22.747 E149.28992
G1 X7.259 Y-22.353 E149.61788
G1 X8.576 Y-21.882 E149.94676
G1 X9.856 Y-21.334 E150.27415
G1 X11.148 Y-20.686 E150.61401
G1 X12.307 Y-20.019 E150.92843
G1 X13.54 Y-19.204 E151.27596
G1 X14.647 Y-18.375 E151.60115
G1 X15.684 Y-17.492 E151.9214
G1 X16.758 Y-16.47 E152.26999
G1 X17.693 Y-15.457 E152.59413
G1 X18.59 Y-14.372 E152.92515
G1 X19.411 Y-13.243 E153.25338
G1 X20.191 Y-12.019 E153.59465
G1 X20.88 Y-10.784 E153.92717
G1 X21.465 Y-9.568 E154.24446
G1 X21.993 Y-8.283 E154.57112
G1 X22.445 Y-6.939 E154.90453
G1 X22.834 Y-5.545 E155.24482
G1 X23.123 Y-4.192 E155.57013
G1 X23.33 Y-2.805 E155.89987
G1 X23.458 Y-1.397 E156.2323
G1 X23.499 Y-0.011 E156.55834
G1 X23.454 Y1.377 E156.88487
G1 X23.325 Y2.823 E157.22623
G1 X23.123 Y4.193 E157.55184
G1 X22.834 Y5.545 E157.87692
G1 X22.445 Y6.939 E158.21722
G1 X21.993 Y8.283 E158.55063
G1 X21.465 Y9.568 E158.87728
G1 X20.88 Y10.784 E159.19457
G1 X20.191 Y12.018 E159.52689
G1 X19.411 Y13.243 E159.86836
G1 X18.59 Y14.372 E160.19659
G1 X17.694 Y15.455 E160.52709
G1 X16.746 Y16.479 E160.85521
G1 X15.702 Y17.477 E161.1948
G1 X14.647 Y18.375 E161.52056
G1 X13.54 Y19.204 E161.84575
G1 X12.307 Y20.019 E162.19328
G1 X11.148 Y20.687 E162.50782
G1 X9.843 Y21.342 E162.85115
G1 X8.588 Y21.878 E163.17202
G1 X7.259 Y22.353 E163.50387
G1 X5.921 Y22.747 E163.83184
G1 X4.527 Y23.063 E164.16793
G1 X3.147 Y23.292 E164.49685
G1 X1.767 Y23.435 E164.82307
G0 F675 X-10.221 Y19.477
G1 F900 X-19.489 Y10.21 E167.90476
G1 X-20.019 Y9.68
G0 F675 X-21.675 Y3.781
G1 F900 X-3.784 Y21.671 E173.85383
G0 F675 X0.767 Y21.98
G1 F900 X-21.999 Y-.786 E181.42413
G0 F675 X-21.531 Y-4.56
G1 F900 X4.549 Y21.519 E190.09627
G0 F675 X7.828 Y20.556
G1 F900 X-20.562 Y-7.834 E199.5367
G0 F675 X-19.214 Y-10.728
G1 F900 X10.718 Y19.203 E209.48973
G0 F675 X13.281 Y17.524
G1 F900 X-17.533 Y-13.29 E219.73621
G0 F675 X-15.556 Y-15.556
G1 F900 X15.548 Y15.548 E230.07912
G0 F675 X17.526 Y13.284
G1 F900 X-13.294 Y-17.536 E240.3276
G0 F675 X-10.723 Y-19.209
G1 F900 X19.201 Y10.715 E250.27813
G0 F675 X20.558 Y7.83
G1 F900 X-7.83 Y-20.558 E259.7179
G0 F675 X-4.55 Y-21.521
G1 F900 X21.514 Y4.544 E268.38505
G0 F675 X21.973 Y0.76
G1 F900 X-.771 Y-21.984 E275.94804
G0 F675 X3.792 Y-21.664
G1 F900 X21.666 Y-3.789 E281.89179
G1 X22.196 Y-3.259
G0 F675 X19.475 Y-10.223
G1 F900 X10.23 Y-19.468 E284.966
G1 X9.7 Y-19.998
;MESH:NONMESH
G0 F600 X9.7 Y-19.998 Z1.5
G0 F675 X1.525 Y11.247
;TIME_ELAPSED:97.187231
;LAYER:1
M106 S255
;TYPE:WALL-INNER
;MESH:CenterRing_Solid.stl
G1 F1350 X2.859 Y10.985 E285.60531
G1 X4.14 Y10.567 E286.23898
G1 X5.368 Y9.998 E286.87545
G1 X6.546 Y9.266 E287.52766
G1 X7.072 Y8.873 E287.83643
G1 X8.087 Y7.954 E288.48033
G1 X8.989 Y6.92 E289.1256
G1 X9.371 Y6.397 E289.43017
G1 X10.082 Y5.204 E290.08327
G1 X10.609 Y4.017 E290.69402
G1 X11.027 Y2.658 E291.36265
G1 X11.26 Y1.368 E291.97911
G1 X11.345 Y-0.018 E292.63212
G1 X11.326 Y-.64 E292.92476
G1 X11.162 Y-2.028 E293.58203
G1 X11.028 Y-2.658 E293.88492
G1 X10.609 Y-4.017 E294.55369
G1 X10.082 Y-5.204 E295.16444
G1 X9.371 Y-6.397 E295.81754
G1 X8.539 Y-7.466 E296.45457
G1 X8.087 Y-7.954 E296.76737
G1 X7.072 Y-8.873 E297.41127
G1 X6.546 Y-9.266 E297.72005
G1 X5.368 Y-9.998 E298.37226
G1 X4.14 Y-10.567 E299.00872
G1 X2.859 Y-10.984 E299.64225
G1 X1.525 Y-11.247 E300.28166
G1 X0.139 Y-11.351 E300.93527
G1 X-1.19 Y-11.289 E301.56093
G1 X-1.884 Y-11.195 E301.89028
G1 X-3.184 Y-10.899 E302.51727
G1 X-3.839 Y-10.686 E302.84117
G1 X-5.09 Y-10.149 E303.48138
G1 X-6.24 Y-9.488 E304.10515
G1 X-6.819 Y-9.08 E304.43824
G1 X-7.854 Y-8.199 E305.07742
G1 X-8.773 Y-7.214 E305.71093
G1 X-9.563 Y-6.127 E306.34285
G1 X-10.226 Y-4.943 E306.98099
G1 X-10.514 Y-4.297 E307.31361
G1 X-10.956 Y-2.999 E307.95843
G1 X-11.239 Y-1.652 E308.6057
G1 X-11.355 Y-.357 E309.21713
G1 X-11.317 Y1.011 E309.8607
G1 X-11.238 Y1.662 E310.16909
G1 X-10.958 Y2.994 E310.80917
G1 X-10.517 Y4.289 E311.45251
G1 X-9.932 Y5.509 E312.08878
G1 X-9.565 Y6.121 E312.42436
G1 X-8.773 Y7.214 E313.05911
G1 X-7.854 Y8.199 E313.69263
G1 X-6.823 Y9.075 E314.32884
G1 X-5.688 Y9.827 E314.96912
G1 X-5.082 Y10.153 E315.29272
G1 X-3.846 Y10.684 E315.92533
G1 X-3.184 Y10.899 E316.25265
G1 X-1.883 Y11.195 E316.8801
G1 X-.496 Y11.341 E317.53596
G1 X0.841 Y11.319 E318.16479
G1 X1.525 Y11.247 E318.48823
G0 F1237.5 X1.927 Y14.222
G1 F1350 X3.614 Y13.89 E319.29678
G1 X4.425 Y13.652 E319.69425
G1 X6.018 Y13.027 E320.49897
G1 X7.51 Y12.224 E321.29577
G1 X8.945 Y11.218 E322.11991
G1 X10.224 Y10.061 E322.93096
G1 X11.361 Y8.759 E323.74385
G1 X11.851 Y8.087 E324.13495
G1 X12.746 Y6.587 E324.95637
G1 X13.42 Y5.069 E325.73743
G1 X13.701 Y4.245 E326.14684
G1 X14.115 Y2.565 E326.96052
G1 X14.24 Y1.724 E327.36036
G1 X14.347 Y-0.016 E328.18016
G1 X14.322 Y-.821 E328.55891
G1 X14.116 Y-2.564 E329.38428
G1 X13.701 Y-4.245 E330.19853
G1 X13.101 Y-5.85 E331.00432
G1 X12.322 Y-7.347 E331.79792
G1 X11.851 Y-8.087 E332.21042
G1 X10.799 Y-9.441 E333.01676
G1 X10.224 Y-10.061 E333.41441
G1 X8.945 Y-11.218 E334.22546
G1 X7.51 Y-12.224 E335.0496
G1 X6.791 Y-12.64 E335.44024
G1 X5.237 Y-13.361 E336.24585
G1 X3.614 Y-13.889 E337.04846
G1 X1.927 Y-14.221 E337.85701
G1 X0.185 Y-14.352 E338.67853
G1 X-.633 Y-14.339 E339.06325
G1 X-2.374 Y-14.157 E339.88644
G1 X-4.025 Y-13.78 E340.68283
G1 X-5.625 Y-13.207 E341.48205
G1 X-6.431 Y-12.834 E341.8997
G1 X-7.893 Y-11.992 E342.6931
G1 X-8.621 Y-11.48 E343.11164
G1 X-9.927 Y-10.37 E343.91767
G1 X-11.091 Y-9.12 E344.7209
G1 X-12.092 Y-7.743 E345.52147
G1 X-12.931 Y-6.246 E346.32848
G1 X-13.585 Y-4.65 E347.13959
G1 X-13.849 Y-3.798 E347.55905
G1 X-14.206 Y-2.102 E348.37409
G1 X-14.355 Y-.447 E349.15553
G1 X-14.356 Y0.447 E349.57594
G1 X-14.205 Y2.11 E350.36121
G1 X-13.851 Y3.793 E351.16998
G1 X-13.294 Y5.426 E351.98137
G1 X-12.931 Y6.243 E352.40179
G1 X-12.095 Y7.737 E353.20688
G1 X-11.091 Y9.12 E354.01056
G1 X-9.926 Y10.37 E354.81411
G1 X-8.624 Y11.476 E355.61749
G1 X-7.19 Y12.426 E356.4264
G1 X-5.628 Y13.207 E357.24766
G1 X-4.025 Y13.78 E358.0482
G1 X-2.374 Y14.156 E358.84449
G1 X-.633 Y14.339 E359.66773
G1 X0.185 Y14.352 E360.05245
G1 X1.927 Y14.222 E360.87393
G0 F1237.5 X2.328 Y17.196
G1 F1350 X3.346 Y17.027 E361.35921
G1 X4.369 Y16.795 E361.85251
G1 X5.353 Y16.506 E362.33479
G1 X6.334 Y16.154 E362.82492
G1 X7.28 Y15.75 E363.30866
G1 X8.215 Y15.282 E363.80036
G1 X9.089 Y14.776 E364.27528
G1 X9.997 Y14.177 E364.78683
G1 X10.818 Y13.564 E365.26866
G1 X11.58 Y12.914 E365.73966
G1 X12.362 Y12.168 E366.2479
G1 X13.059 Y11.416 E366.73008
G1 X13.733 Y10.598 E367.22852
G1 X14.331 Y9.778 E367.70578
G1 X14.898 Y8.886 E368.20283
G1 X15.41 Y7.971 E368.69591
G1 X15.843 Y7.069 E369.16643
G1 X16.231 Y6.121 E369.64813
G1 X16.569 Y5.129 E370.14097
G1 X16.858 Y4.086 E370.64994
G1 X17.068 Y3.1 E371.12402
G1 X17.22 Y2.079 E371.60945
G1 X17.315 Y1.027 E372.10618
G1 X17.348 Y-0.014 E372.59597
G1 X17.318 Y-1.003 E373.06127
G1 X17.219 Y-2.094 E373.57644
G1 X17.069 Y-3.099 E374.05429
G1 X16.858 Y-4.086 E374.52893
G1 X16.569 Y-5.129 E375.03789
G1 X16.231 Y-6.121 E375.53073
G1 X15.843 Y-7.069 E376.01244
G1 X15.41 Y-7.971 E376.48296
G1 X14.899 Y-8.886 E376.9758
G1 X14.331 Y-9.778 E377.4731
G1 X13.733 Y-10.598 E377.95037
G1 X13.059 Y-11.416 E378.4488
G1 X12.362 Y-12.168 E378.93098
G1 X11.58 Y-12.914 E379.43923
G1 X10.818 Y-13.564 E379.91023
G1 X9.997 Y-14.177 E380.39206
G1 X9.089 Y-14.776 E380.9036
G1 X8.215 Y-15.282 E381.37853
G1 X7.28 Y-15.749 E381.87002
G1 X6.334 Y-16.155 E382.35413
G1 X5.353 Y-16.505 E382.84394
G1 X4.368 Y-16.794 E383.32668
G1 X3.346 Y-17.026 E383.81951
G1 X2.328 Y-17.196 E384.30487
G1 X1.292 Y-17.304 E384.7947
G1 X0.232 Y-17.353 E385.29372
G1 X-.77 Y-17.337 E385.76498
G1 X-1.816 Y-17.258 E386.25828
G1 X-2.865 Y-17.118 E386.75596
G1 X-3.875 Y-16.918 E387.24015
G1 X-4.866 Y-16.661 E387.7216
G1 X-5.868 Y-16.336 E388.21697
G1 X-6.805 Y-15.966 E388.69071
G1 X-7.772 Y-15.519 E389.19169
G1 X-8.696 Y-15.023 E389.68486
G1 X-9.547 Y-14.497 E390.15533
G1 X-10.423 Y-13.88 E390.65921
G1 X-11.215 Y-13.247 E391.136
G1 X-11.999 Y-12.541 E391.63215
G1 X-12.751 Y-11.778 E392.13594
G1 X-13.41 Y-11.026 E392.60615
G1 X-14.046 Y-10.201 E393.09602
G1 X-14.621 Y-9.359 E393.5755
G1 X-15.177 Y-8.428 E394.08545
G1 X-15.635 Y-7.548 E394.55198
G1 X-16.069 Y-6.57 E395.05515
G1 X-16.425 Y-5.621 E395.53179
G1 X-16.742 Y-4.596 E396.03634
G1 X-16.977 Y-3.628 E396.50478
G1 X-17.174 Y-2.551 E397.01966
G1 X-17.295 Y-1.549 E397.49428
G1 X-17.355 Y-.537 E397.97103
G1 X-17.356 Y0.537 E398.47609
G1 X-17.295 Y1.549 E398.95286
G1 X-17.173 Y2.559 E399.43128
G1 X-16.981 Y3.619 E399.93787
G1 X-16.744 Y4.592 E400.40882
G1 X-16.425 Y5.622 E400.91589
G1 X-16.072 Y6.564 E401.38896
G1 X-15.635 Y7.546 E401.89442
G1 X-15.175 Y8.432 E402.36388
G1 X-14.624 Y9.353 E402.86859
G1 X-14.043 Y10.205 E403.35354
G1 X-13.41 Y11.026 E403.84106
G1 X-12.751 Y11.778 E404.31128
G1 X-11.999 Y12.54 E404.81473
G1 X-11.214 Y13.246 E405.31122
G1 X-10.426 Y13.877 E405.78596
G1 X-9.55 Y14.493 E406.28957
G1 X-8.691 Y15.025 E406.76472
G1 X-7.766 Y15.523 E407.25875
G1 X-6.808 Y15.966 E407.7551
G1 X-5.873 Y16.334 E408.22763
G1 X-4.866 Y16.661 E408.72552
G1 X-3.874 Y16.918 E409.20743
G1 X-2.865 Y17.117 E409.69106
G1 X-1.816 Y17.258 E410.18881
G1 X-.77 Y17.338 E410.68214
G1 X0.232 Y17.353 E411.1534
G1 X1.292 Y17.304 E411.65241
G1 X2.328 Y17.196 E412.14224
G0 F1237.5 X2.729 Y20.171
G1 F1350 X3.925 Y19.972 E412.71241
G1 X5.123 Y19.699 E413.29023
G1 X6.282 Y19.36 E413.8581
G1 X7.431 Y18.948 E414.43212
G1 X8.542 Y18.473 E415.00033
G1 X9.638 Y17.925 E415.57658
G1 X10.668 Y17.329 E416.13619
G1 X11.723 Y16.633 E416.73056
G1 X12.691 Y15.909 E417.29902
G1 X13.59 Y15.143 E417.85444
G1 X14.5 Y14.275 E418.44583
G1 X15.319 Y13.391 E419.01254
G1 X16.105 Y12.437 E419.59383
G1 X16.811 Y11.468 E420.15763
G1 X17.475 Y10.424 E420.73948
G1 X18.073 Y9.354 E421.31591
G1 X18.586 Y8.289 E421.87182
G1 X19.042 Y7.173 E422.43875
G1 X19.437 Y6.013 E423.01502
G1 X19.773 Y4.799 E423.60738
G1 X20.021 Y3.635 E424.16705
G1 X20.2 Y2.435 E424.73761
G1 X20.31 Y1.208 E425.31694
G1 X20.349 Y-0.011 E425.89049
G1 X20.314 Y-1.184 E426.44235
G1 X20.199 Y-2.452 E427.04109
G1 X20.022 Y-3.634 E427.60314
G1 X19.773 Y-4.799 E428.16337
G1 X19.437 Y-6.013 E428.75574
G1 X19.042 Y-7.173 E429.332
G1 X18.586 Y-8.289 E429.89894
G1 X18.073 Y-9.354 E430.45484
G1 X17.476 Y-10.424 E431.03105
G1 X16.811 Y-11.468 E431.61314
G1 X16.105 Y-12.437 E432.17695
G1 X15.319 Y-13.391 E432.75824
G1 X14.5 Y-14.275 E433.32494
G1 X13.59 Y-15.143 E433.91634
G1 X12.691 Y-15.909 E434.47176
G1 X11.723 Y-16.633 E435.04021
G1 X10.668 Y-17.329 E435.63458
G1 X9.638 Y-17.925 E436.1942
G1 X8.542 Y-18.473 E436.77044
G1 X7.431 Y-18.948 E437.33865
G1 X6.281 Y-19.36 E437.91312
G1 X5.123 Y-19.699 E438.48054
G1 X3.925 Y-19.971 E439.05825
G1 X2.729 Y-20.17 E439.62842
G1 X1.517 Y-20.296 E440.20145
G1 X0.278 Y-20.354 E440.78475
G1 X-.907 Y-20.335 E441.34208
G1 X-2.128 Y-20.243 E441.9179
G1 X-3.356 Y-20.079 E442.50051
G1 X-4.542 Y-19.844 E443.06909
G1 X-5.707 Y-19.542 E443.63505
G1 X-6.882 Y-19.16 E444.21608
G1 X-7.985 Y-18.726 E444.77349
G1 X-9.113 Y-18.204 E445.358
G1 X-10.196 Y-17.622 E445.93617
G1 X-11.201 Y-17.001 E446.49174
G1 X-12.226 Y-16.28 E447.08106
G1 X-13.156 Y-15.536 E447.64114
G1 X-14.072 Y-14.711 E448.22086
G1 X-14.95 Y-13.821 E448.80878
G1 X-15.729 Y-12.931 E449.36499
G1 X-16.475 Y-11.965 E449.93896
G1 X-17.15 Y-10.975 E450.50244
G1 X-17.798 Y-9.89 E451.09675
G1 X-18.339 Y-8.851 E451.64762
G1 X-18.847 Y-7.706 E452.23669
G1 X-19.265 Y-6.593 E452.79578
G1 X-19.636 Y-5.395 E453.38556
G1 X-19.913 Y-4.252 E453.93863
G1 X-20.141 Y-3.001 E454.53662
G1 X-20.284 Y-1.819 E455.09652
G1 X-20.355 Y-.627 E455.65807
G1 X-20.356 Y0.627 E456.24778
G1 X-20.284 Y1.819 E456.80936
G1 X-20.141 Y3.007 E457.37206
G1 X-19.916 Y4.242 E457.9624
G1 X-19.637 Y5.391 E458.51844
G1 X-19.265 Y6.593 E459.11014
G1 X-18.849 Y7.701 E459.66671
G1 X-18.339 Y8.848 E460.25702
G1 X-17.796 Y9.894 E460.81125
G1 X-17.153 Y10.969 E461.40031
G1 X-16.472 Y11.968 E461.96888
G1 X-15.729 Y12.931 E462.54086
G1 X-14.95 Y13.821 E463.09708
G1 X-14.072 Y14.711 E463.685
G1 X-13.156 Y15.535 E464.2644
G1 X-12.228 Y16.277 E464.82316
G1 X-11.204 Y16.998 E465.4121
G1 X-10.192 Y17.624 E465.9717
G1 X-9.108 Y18.207 E466.55051
G1 X-7.988 Y18.726 E467.13101
G1 X-6.887 Y19.159 E467.68737
G1 X-5.707 Y19.542 E468.27078
G1 X-4.542 Y19.844 E468.83675
G1 X-3.355 Y20.078 E469.40569
G1 X-2.128 Y20.243 E469.9879
G1 X-.907 Y20.336 E470.56376
G1 X0.278 Y20.355 E471.12109
G1 X1.517 Y20.297 E471.70439
G1 X2.729 Y20.171 E472.27742
G0 F1237.5 X1.743 Y23.289
G1 F1350 X3.131 Y23.145 E472.93365
G1 X4.504 Y22.917 E473.58816
G1 X5.878 Y22.604 E474.25086
G1 X7.21 Y22.214 E474.90355
G1 X8.528 Y21.742 E475.5619
G1 X9.804 Y21.196 E476.21458
G1 X11.061 Y20.567 E476.87558
G1 X12.246 Y19.881 E477.51949
G1 X13.448 Y19.089 E478.19642
G1 X14.564 Y18.255 E478.85159
G1 X15.6 Y17.371 E479.49204
G1 X16.638 Y16.382 E480.16627
G1 X17.578 Y15.366 E480.81718
G1 X18.477 Y14.276 E481.48162
G1 X19.291 Y13.159 E482.13159
G1 X20.052 Y11.963 E482.79822
G1 X20.737 Y10.738 E483.45825
G1 X21.328 Y9.508 E484.09998
G1 X21.853 Y8.225 E484.75188
G1 X22.305 Y6.897 E485.41158
G1 X22.688 Y5.513 E486.08688
G1 X22.975 Y4.17 E486.73271
G1 X23.181 Y2.791 E487.3884
G1 X23.306 Y1.389 E488.05032
G1 X23.351 Y-0.009 E488.70809
G1 X23.31 Y-1.365 E489.34606
G1 X23.178 Y-2.81 E490.02842
G1 X22.975 Y-4.17 E490.67507
G1 X22.689 Y-5.513 E491.32079
G1 X22.305 Y-6.897 E491.99623
G1 X21.853 Y-8.225 E492.65592
G1 X21.328 Y-9.508 E493.30783
G1 X20.737 Y-10.738 E493.94956
G1 X20.052 Y-11.963 E494.60958
G1 X19.291 Y-13.159 E495.27622
G1 X18.477 Y-14.276 E495.92618
G1 X17.578 Y-15.366 E496.59062
G1 X16.638 Y-16.382 E497.24153
G1 X15.6 Y-17.371 E497.91576
G1 X14.564 Y-18.255 E498.55621
G1 X13.448 Y-19.089 E499.21138
G1 X12.246 Y-19.881 E499.88831
G1 X11.061 Y-20.567 E500.53222
G1 X9.803 Y-21.196 E501.19364
G1 X8.528 Y-21.742 E501.84589
G1 X7.21 Y-22.214 E502.50424
G1 X5.878 Y-22.604 E503.15693
G1 X4.504 Y-22.916 E503.81952
G1 X3.131 Y-23.145 E504.47412
G1 X1.743 Y-23.289 E505.13035
G1 X0.325 Y-23.355 E505.7979
G1 X-1.044 Y-23.334 E506.44177
G1 X-2.441 Y-23.228 E507.10062
G1 X-3.846 Y-23.04 E507.76723
G1 X-5.21 Y-22.77 E508.42111
G1 X-6.548 Y-22.424 E509.07102
G1 X-7.897 Y-21.985 E509.73815
G1 X-9.165 Y-21.485 E510.37913
G1 X-10.454 Y-20.89 E511.04677
G1 X-11.697 Y-20.222 E511.71037
G1 X-12.855 Y-19.506 E512.35062
G1 X-14.028 Y-18.68 E513.02528
G1 X-15.097 Y-17.825 E513.66901
G1 X-16.145 Y-16.882 E514.33199
G1 X-17.148 Y-15.865 E515.00371
G1 X-18.048 Y-14.837 E515.64623
G1 X-18.903 Y-13.728 E516.30476
G1 X-19.679 Y-12.591 E516.95211
G1 X-20.419 Y-11.353 E517.63037
G1 X-21.043 Y-10.153 E518.26642
G1 X-21.625 Y-8.842 E518.94096
G1 X-22.104 Y-7.564 E519.58279
G1 X-22.529 Y-6.193 E520.25778
G1 X-22.849 Y-4.876 E520.89514
G1 X-23.109 Y-3.45 E521.57679
G1 X-23.273 Y-2.088 E522.22192
G1 X-23.355 Y-.717 E522.8678
G1 X-23.356 Y0.717 E523.54216
G1 X-23.274 Y2.088 E524.18805
G1 X-23.109 Y3.455 E524.83556
G1 X-22.852 Y4.865 E525.50956
G1 X-22.53 Y6.191 E526.15125
G1 X-22.104 Y7.564 E526.82729
G1 X-21.626 Y8.839 E527.46763
G1 X-21.043 Y10.15 E528.14235
G1 X-20.417 Y11.356 E528.78134
G1 X-19.683 Y12.584 E529.45412
G1 X-18.901 Y13.73 E530.10656
G1 X-18.048 Y14.837 E530.76376
G1 X-17.148 Y15.865 E531.40629
G1 X-16.145 Y16.882 E532.07801
G1 X-15.097 Y17.824 E532.74067
G1 X-14.03 Y18.678 E533.38337
G1 X-12.858 Y19.502 E534.05711
G1 X-11.693 Y20.223 E534.7014
G1 X-10.45 Y20.892 E535.36522
G1 X-9.169 Y21.485 E536.02905
G1 X-7.9 Y21.984 E536.67029
G1 X-6.548 Y22.424 E537.33891
G1 X-5.21 Y22.77 E537.98882
G1 X-3.846 Y23.039 E538.64262
G1 X-2.441 Y23.228 E539.30929
G1 X-1.044 Y23.334 E539.96814
G1 X0.325 Y23.356 E540.61201
G1 X1.743 Y23.289 E541.27959
G0 F1237.5 X1.968 Y26.282
G1 F1350 X3.532 Y26.119 E542.01906
G1 X5.084 Y25.861 E542.75893
G1 X6.633 Y25.509 E543.50594
G1 X8.138 Y25.068 E544.24345
G1 X9.625 Y24.535 E544.98629
G1 X11.065 Y23.92 E545.72265
G1 X12.485 Y23.21 E546.46924
G1 X13.825 Y22.434 E547.19743
G1 X15.174 Y21.544 E547.95744
G1 X16.437 Y20.6 E548.69896
G1 X17.61 Y19.6 E549.42383
G1 X18.775 Y18.488 E550.18119
G1 X19.838 Y17.342 E550.91626
G1 X20.849 Y16.114 E551.66428
G1 X21.771 Y14.849 E552.40041
G1 X22.629 Y13.501 E553.15184
G1 X23.4 Y12.121 E553.89522
G1 X24.071 Y10.727 E554.62276
G1 X24.664 Y9.277 E555.35946
G1 X25.173 Y7.781 E556.10258
G1 X25.603 Y6.227 E556.86083
G1 X25.928 Y4.705 E557.59271
G1 X26.161 Y3.146 E558.33399
G1 X26.302 Y1.57 E559.07809
G1 X26.352 Y-0.006 E559.8196
G1 X26.306 Y-1.546 E560.54413
G1 X26.158 Y-3.168 E561.31006
G1 X25.928 Y-4.705 E562.04091
G1 X25.604 Y-6.227 E562.77269
G1 X25.173 Y-7.781 E563.53106
G1 X24.664 Y-9.277 E564.27418
G1 X24.071 Y-10.727 E565.01089
G1 X23.4 Y-12.121 E565.73843
G1 X22.629 Y-13.501 E566.48181
G1 X21.771 Y-14.849 E567.23324
G1 X20.849 Y-16.114 E567.96936
G1 X19.838 Y-17.342 E568.71738
G1 X18.775 Y-18.488 E569.45245
G1 X17.61 Y-19.6 E570.20982
G1 X16.437 Y-20.6 E570.93469
G1 X15.174 Y-21.544 E571.6762
G1 X13.825 Y-22.434 E572.43621
G1 X12.485 Y-23.21 E573.1644
G1 X11.065 Y-23.919 E573.91079
G1 X9.625 Y-24.535 E574.64733
G1 X8.138 Y-25.068 E575.39017
G1 X6.633 Y-25.509 E576.12768
G1 X5.084 Y-25.861 E576.87469
G1 X3.532 Y-26.119 E577.61455
G1 X1.968 Y-26.282 E578.35403
G1 X0.371 Y-26.357 E579.10587
G1 X-1.181 Y-26.332 E579.83581
G1 X-2.754 Y-26.213 E580.57765
G1 X-4.337 Y-26.001 E581.32873
G1 X-5.878 Y-25.696 E582.06746
G1 X-7.389 Y-25.305 E582.80144
G1 X-8.911 Y-24.81 E583.55408
G1 X-10.345 Y-24.245 E584.27889
G1 X-11.795 Y-23.575 E585.03005
G1 X-13.197 Y-22.821 E585.77866
G1 X-14.509 Y-22.01 E586.50401
G1 X-15.83 Y-21.08 E587.26373
G1 X-17.038 Y-20.113 E587.9914
G1 X-18.218 Y-19.053 E588.73733
G1 X-19.347 Y-17.908 E589.49352
G1 X-20.367 Y-16.743 E590.22169
G1 X-21.332 Y-15.491 E590.96505
G1 X-22.209 Y-14.207 E591.69627
G1 X-23.039 Y-12.815 E592.45841
G1 X-23.747 Y-11.455 E593.17945
G1 X-24.403 Y-9.979 E593.93902
G1 X-24.944 Y-8.535 E594.66418
G1 X-25.422 Y-6.991 E595.42427
G1 X-25.784 Y-5.5 E596.1458
G1 X-26.077 Y-3.9 E596.91073
G1 X-26.262 Y-2.358 E597.64108
G1 X-26.355 Y-.807 E598.37177
G1 X-26.356 Y0.807 E599.13078
G1 X-26.263 Y2.358 E599.86147
G1 X-26.076 Y3.903 E600.59333
G1 X-25.788 Y5.489 E601.35136
G1 X-25.423 Y6.99 E602.0778
G1 X-24.944 Y8.535 E602.83847
G1 X-24.404 Y9.976 E603.56214
G1 X-23.747 Y11.452 E604.32191
G1 X-23.038 Y12.817 E605.04525
G1 X-22.212 Y14.2 E605.80279
G1 X-21.33 Y15.493 E606.53883
G1 X-20.367 Y16.743 E607.28088
G1 X-19.347 Y17.908 E608.00905
G1 X-18.218 Y19.053 E608.76523
G1 X-17.038 Y20.113 E609.51116
G1 X-15.831 Y21.078 E610.23788
G1 X-14.512 Y22.006 E610.99629
G1 X-13.194 Y22.822 E611.72528
G1 X-11.792 Y23.576 E612.47388
G1 X-10.349 Y24.245 E613.22186
G1 X-8.914 Y24.809 E613.94694
G1 X-7.389 Y25.305 E614.70107
G1 X-5.878 Y25.696 E615.43504
G1 X-4.337 Y26.001 E616.17378
G1 X-2.754 Y26.213 E616.92485
G1 X-1.181 Y26.332 E617.66669
G1 X0.371 Y26.357 E618.39663
G1 X1.968 Y26.282 E619.14847
G0 F1237.5 X2.067 Y27.674
G0 X2.193 Y29.275
G1 F1350 X3.933 Y29.094 E619.97115
G1 X5.663 Y28.806 E620.7959
G1 X7.387 Y28.414 E621.62733
G1 X9.067 Y27.922 E622.45055
G1 X10.722 Y27.329 E623.27729
G1 X12.327 Y26.643 E624.09812
G1 X13.908 Y25.852 E624.92947
G1 X15.404 Y24.987 E625.74212
G1 X16.899 Y24 E626.58456
G1 X18.31 Y22.945 E627.41307
G1 X19.62 Y21.829 E628.22236
G1 X20.913 Y20.595 E629.06288
G1 X22.098 Y19.317 E629.88248
G1 X23.221 Y17.953 E630.71335
G1 X24.251 Y16.54 E631.53563
G1 X25.206 Y15.04 E632.37186
G1 X26.064 Y13.504 E633.19924
G1 X26.814 Y11.947 E634.01196
G1 X27.475 Y10.329 E634.83389
G1 X28.041 Y8.665 E635.66044
G1 X28.519 Y6.941 E636.50176
G1 X28.881 Y5.241 E637.31913
G1 X29.141 Y3.502 E638.14601
G1 X29.298 Y1.752 E638.97228
G1 X29.353 Y-0.004 E639.79847
G1 X29.302 Y-1.728 E640.60956
G1 X29.138 Y-3.526 E641.4586
G1 X28.882 Y-5.24 E642.27357
G1 X28.519 Y-6.941 E643.0915
G1 X28.041 Y-8.665 E643.93282
G1 X27.475 Y-10.329 E644.75937
G1 X26.814 Y-11.947 E645.58131
G1 X26.064 Y-13.504 E646.39403
G1 X25.206 Y-15.04 E647.2214
G1 X24.251 Y-16.54 E648.05763
G1 X23.221 Y-17.953 E648.87992
G1 X22.098 Y-19.317 E649.71078
G1 X20.913 Y-20.595 E650.53038
G1 X19.62 Y-21.829 E651.37091
G1 X18.31 Y-22.945 E652.18019
G1 X16.899 Y-24 E653.0087
G1 X15.404 Y-24.987 E653.85114
G1 X13.908 Y-25.852 E654.6638
G1 X12.327 Y-26.643 E655.49514
G1 X10.722 Y-27.329 E656.31597
G1 X9.067 Y-27.922 E657.14271
G1 X7.387 Y-28.414 E657.96593
G1 X5.663 Y-28.806 E658.79736
G1 X3.933 Y-29.094 E659.62212
G1 X2.193 Y-29.274 E660.44474
G1 X0.418 Y-29.358 E661.28039
G1 X-1.318 Y-29.33 E662.09688
G1 X-3.066 Y-29.198 E662.92124
G1 X-4.828 Y-28.962 E663.75725
G1 X-6.546 Y-28.622 E664.58083
G1 X-8.23 Y-28.186 E665.39886
G1 X-9.926 Y-27.634 E666.23761
G1 X-11.525 Y-27.004 E667.04582
G1 X-13.136 Y-26.26 E667.88031
G1 X-14.697 Y-25.42 E668.71393
G1 X-16.163 Y-24.515 E669.52412
G1 X-17.632 Y-23.48 E670.36918
G1 X-18.98 Y-22.402 E671.18087
G1 X-20.29 Y-21.223 E672.00967
G1 X-21.546 Y-19.951 E672.85032
G1 X-22.685 Y-18.649 E673.66382
G1 X-23.761 Y-17.255 E674.49194
G1 X-24.738 Y-15.823 E675.30716
G1 X-25.66 Y-14.278 E676.15326
G1 X-26.451 Y-12.758 E676.95906
G1 X-27.181 Y-11.115 E677.80453
G1 X-27.784 Y-9.507 E678.61214
G1 X-28.316 Y-7.79 E679.45745
G1 X-28.72 Y-6.124 E680.26362
G1 X-29.044 Y-4.349 E681.11213
G1 X-29.252 Y-2.627 E681.92781
G1 X-29.355 Y-.897 E682.74281
G1 X-29.356 Y0.897 E683.58646
G1 X-29.252 Y2.627 E684.40148
G1 X-29.044 Y4.351 E685.2181
G1 X-28.724 Y6.112 E686.0598
G1 X-28.316 Y7.789 E686.87143
G1 X-27.784 Y9.507 E687.7172
G1 X-27.181 Y11.113 E688.52392
G1 X-26.451 Y12.754 E689.36854
G1 X-25.66 Y14.279 E690.17642
G1 X-24.741 Y15.816 E691.01856
G1 X-23.76 Y17.256 E691.83795
G1 X-22.685 Y18.649 E692.66541
G1 X-21.546 Y19.951 E693.47892
G1 X-20.29 Y21.223 E694.31956
G1 X-18.98 Y22.402 E695.14837
G1 X-17.633 Y23.479 E695.9594
G1 X-16.166 Y24.511 E696.80288
G1 X-14.696 Y25.421 E697.6159
G1 X-13.134 Y26.261 E698.44993
G1 X-11.529 Y27.004 E699.28166
G1 X-9.927 Y27.634 E700.09118
G1 X-8.23 Y28.186 E700.93038
G1 X-6.546 Y28.622 E701.74842
G1 X-4.827 Y28.962 E702.57246
G1 X-3.066 Y29.198 E703.408
G1 X-1.318 Y29.33 E704.23236
G1 X0.418 Y29.358 E705.04885
G1 X2.193 Y29.275 E705.88448
G0 F1237.5 X2.068 Y27.673
G0 X2.419 Y32.267
;TYPE:WALL-OUTER
G1 F1650 X4.335 Y32.068 E706.79035
G1 X6.242 Y31.751 E707.69945
G1 X8.142 Y31.319 E708.61575
G1 X9.995 Y30.776 E709.5238
G1 X11.819 Y30.123 E710.43487
G1 X13.589 Y29.366 E711.34017
G1 X15.332 Y28.494 E712.25669
G1 X16.982 Y27.539 E713.15322
G1 X18.625 Y26.456 E714.07862
G1 X20.183 Y25.291 E714.99347
G1 X21.63 Y24.057 E715.88779
G1 X23.051 Y22.702 E716.81114
G1 X24.358 Y21.292 E717.71526
G1 X25.593 Y19.792 E718.62898
G1 X26.731 Y18.23 E719.53781
G1 X27.783 Y16.578 E720.45883
G1 X28.728 Y14.888 E721.36939
G1 X29.556 Y13.166 E722.26793
G1 X30.286 Y11.381 E723.17484
G1 X30.909 Y9.549 E724.08481
G1 X31.434 Y7.655 E725.00908
G1 X31.835 Y5.776 E725.9126
G1 X32.121 Y3.858 E726.82454
G1 X32.294 Y1.933 E727.73345
G1 X32.355 Y-0.002 E728.64386
G1 X32.298 Y-1.909 E729.54105
G1 X32.118 Y-3.884 E730.47368
G1 X31.835 Y-5.776 E731.37331
G1 X31.434 Y-7.655 E732.27684
G1 X30.909 Y-9.549 E733.2011
G1 X30.286 Y-11.381 E734.11108
G1 X29.556 Y-13.166 E735.01798
G1 X28.728 Y-14.888 E735.91653
G1 X27.783 Y-16.578 E736.82708
G1 X26.731 Y-18.23 E737.74811
G1 X25.593 Y-19.792 E738.65693
G1 X24.358 Y-21.292 E739.57065
G1 X23.051 Y-22.702 E740.47478
G1 X21.63 Y-24.057 E741.39813
G1 X20.183 Y-25.291 E742.29244
G1 X18.625 Y-26.456 E743.2073
G1 X16.982 Y-27.539 E744.13269
G1 X15.332 Y-28.494 E745.02923
G1 X13.589 Y-29.366 E745.94575
G1 X11.819 Y-30.123 E746.85105
G1 X9.995 Y-30.776 E747.76212
G1 X8.142 Y-31.319 E748.67016
G1 X6.242 Y-31.751 E749.58647
G1 X4.335 Y-32.068 E750.49557
G1 X2.419 Y-32.267 E751.40144
G1 X0.464 Y-32.359 E752.32182
G1 X-1.455 Y-32.328 E753.22438
G1 X-3.379 Y-32.183 E754.13173
G1 X-5.318 Y-31.923 E755.05173
G1 X-7.214 Y-31.548 E755.96063
G1 X-9.071 Y-31.067 E756.86273
G1 X-10.94 Y-30.459 E757.78699
G1 X-12.705 Y-29.764 E758.67903
G1 X-14.477 Y-28.945 E759.59704
G1 X-16.197 Y-28.02 E760.51544
G1 X-17.817 Y-27.019 E761.41097
G1 X-19.434 Y-25.88 E762.3411
G1 X-20.921 Y-24.691 E763.23644
G1 X-22.363 Y-23.394 E764.14851
G1 X-23.744 Y-21.994 E765.07329
G1 X-25.004 Y-20.555 E765.97275
G1 X-26.189 Y-19.018 E766.88542
G1 X-27.267 Y-17.439 E767.78451
G1 X-28.281 Y-15.74 E768.71497
G1 X-29.155 Y-14.06 E769.60553
G1 X-29.959 Y-12.251 E770.53648
G1 X-30.624 Y-10.478 E771.42697
G1 X-31.209 Y-8.588 E772.35737
G1 X-31.656 Y-6.748 E773.24783
G1 X-32.012 Y-4.799 E774.17953
G1 X-32.241 Y-2.897 E775.08044
G1 X-32.355 Y-.987 E775.98024
G1 X-32.356 Y0.987 E776.90854
G1 X-32.241 Y2.897 E777.80837
G1 X-32.012 Y4.799 E778.70927
G1 X-31.66 Y6.736 E779.63509
G1 X-31.209 Y8.588 E780.53147
G1 X-30.624 Y10.478 E781.46187
G1 X-29.959 Y12.251 E782.35237
G1 X-29.155 Y14.056 E783.28159
G1 X-28.281 Y15.741 E784.17424
G1 X-27.271 Y17.432 E785.1005
G1 X-26.189 Y19.018 E786.00338
G1 X-25.004 Y20.555 E786.91605
G1 X-23.744 Y21.994 E787.81551
G1 X-22.363 Y23.394 E788.74029
G1 X-20.921 Y24.691 E789.65236
G1 X-19.435 Y25.879 E790.54704
G1 X-17.82 Y27.015 E791.47558
G1 X-16.197 Y28.02 E792.3733
G1 X-14.476 Y28.945 E793.29212
G1 X-12.709 Y29.764 E794.20799
G1 X-10.941 Y30.459 E795.10135
G1 X-9.071 Y31.067 E796.02606
G1 X-7.214 Y31.548 E796.92816
G1 X-5.318 Y31.923 E797.83705
G1 X-3.379 Y32.183 E798.75705
G1 X-1.455 Y32.328 E799.66441
G1 X0.464 Y32.359 E800.56696
G1 X2.419 Y32.267 E801.48735
G0 F1237.5 X3.911 Y32.113
G0 X3.429 Y27.53
G0 X1.142 Y8.418
;TYPE:SKIN
G1 F1050 X-.116 Y8.512 E802.08059
G1 X-1.416 Y8.377 E802.69522
G1 X-2.397 Y8.156 E803.16811
G1 X-2.865 Y8.003 E803.39965
G1 X-3.823 Y7.591 E803.89006
G1 X-4.248 Y7.363 E804.11687
G1 X-5.103 Y6.795 E804.59958
G1 X-5.882 Y6.132 E805.08064
G1 X-6.571 Y5.396 E805.55474
G1 X-7.153 Y4.592 E806.0215
G1 X-7.666 Y3.674 E806.51604
G1 X-7.87 Y3.219 E806.75053
G1 X-8.203 Y2.237 E807.23816
G1 X-8.414 Y1.244 E807.71555
G1 X-8.504 Y0.24 E808.18959
G1 X-8.504 Y-.24 E808.41532
G1 X-8.413 Y-1.234 E808.88472
G1 X-8.202 Y-2.247 E809.37132
G1 X-7.869 Y-3.224 E809.85672
G1 X-7.665 Y-3.682 E810.0925
G1 X-7.155 Y-4.593 E810.58348
G1 X-6.569 Y-5.399 E811.0521
G1 X-5.87 Y-6.146 E811.5332
G1 X-5.497 Y-6.484 E811.76991
G1 X-4.667 Y-7.103 E812.25682
G1 X-3.804 Y-7.599 E812.72491
G1 X-3.325 Y-7.823 E812.97358
G1 X-2.391 Y-8.157 E813.44005
G1 X-1.4 Y-8.382 E813.91794
G1 X-.913 Y-8.448 E814.14905
G1 X0.099 Y-8.493 E814.62543
G1 X1.141 Y-8.418 E815.11671
G1 X2.14 Y-8.218 E815.59583
G1 X3.098 Y-7.909 E816.0692
G1 X4.02 Y-7.479 E816.54762
G1 X4.422 Y-7.248 E816.76565
G1 X5.29 Y-6.641 E817.26375
G1 X6.064 Y-5.94 E817.75483
G1 X6.376 Y-5.603 E817.9708
G1 X7.029 Y-4.765 E818.4704
G1 X7.287 Y-4.362 E818.69542
G1 X7.742 Y-3.481 E819.16172
G1 X8.108 Y-2.507 E819.65102
G1 X8.353 Y-1.511 E820.13337
G1 X8.475 Y-.478 E820.62253
G1 X8.472 Y0.501 E821.08292
G1 X8.427 Y1.022 E821.32884
G1 X8.255 Y1.972 E821.78285
G1 X7.933 Y3.019 E822.29798
G1 X7.544 Y3.89 E822.74657
G1 X6.905 Y4.974 E823.33831
G1 X6.055 Y5.947 E823.94589
G1 X5.287 Y6.644 E824.43361
G1 X4.432 Y7.24 E824.92374
G1 X3.548 Y7.716 E825.39588
G1 X2.6 Y8.087 E825.87462
G1 X2.161 Y8.217 E826.08992
G1 X1.142 Y8.418 E826.57836
G0 F1237.5 X6.761 Y1.724
G1 F1050 X1.707 Y6.778 E829.93954
G0 F1237.5 X-2.35 Y6.592
G1 F1050 X6.572 Y-2.329 E835.87281
G0 F1237.5 X4.938 Y-4.938
G1 F1050 X-4.941 Y4.941 E842.44288
G0 F1237.5 X-6.583 Y2.341
G1 F1050 X2.336 Y-6.579 E848.37482
G0 F1237.5 X-1.712 Y-6.773
G1 F1050 X-6.783 Y-1.703 E851.74698
G1 X-7.313 Y-1.173
;MESH:NONMESH
G0 F600 X-7.313 Y-1.173 Z2.5
G0 F1237.5 X27.543 Y-3.325
G0 X32.122 Y-3.871
;TIME_ELAPSED:156.193415
;LAYER:2
;TYPE:WALL-OUTER
;MESH:CenterRing_Solid.stl
G1 F2400 X32.298 Y-1.928 E852.66444
G1 X32.356 Y0.00 E853.57152
G1 X32.298 Y1.928 E854.4786
G1 X32.122 Y3.871 E855.39606
G1 X31.837 Y5.774 E856.30096
G1 X31.432 Y7.672 E857.21361
G1 X30.919 Y9.531 E858.12051
G1 X30.288 Y11.379 E859.03882
G1 X29.56 Y13.155 E859.94145
G1 X28.714 Y14.914 E860.85935
G1 X27.769 Y16.606 E861.77072
G1 X26.733 Y18.229 E862.6762
G1 X25.601 Y19.787 E863.58184
G1 X24.36 Y21.297 E864.50099
G1 X23.039 Y22.72 E865.41407
G1 X21.652 Y24.045 E866.31612
G1 X20.172 Y25.301 E867.22896
G1 X18.62 Y26.465 E868.14127
G1 X17.006 Y27.53 E869.05062
G1 X15.334 Y28.495 E869.95846
G1 X13.583 Y29.37 E870.87898
G1 X11.822 Y30.123 E871.77965
G1 X9.994 Y30.778 E872.69281
G1 X8.129 Y31.323 E873.60654
G1 X6.257 Y31.751 E874.50958
G1 X4.335 Y32.07 E875.4258
G1 X2.398 Y32.274 E876.34174
G1 X0.488 Y32.359 E877.24083
G1 X-1.459 Y32.33 E878.15653
G1 X-3.401 Y32.185 E879.07233
G1 X-5.296 Y31.928 E879.97164
G1 X-7.212 Y31.55 E880.89003
G1 X-9.092 Y31.062 E881.80343
G1 X-10.923 Y30.466 E882.70895
G1 X-12.727 Y29.758 E883.6203
G1 X-14.477 Y28.948 E884.52714
G1 X-16.196 Y28.022 E885.44535
G1 X-17.831 Y27.012 E886.34911
G1 X-19.421 Y25.894 E887.26316
G1 X-20.938 Y24.683 E888.17599
G1 X-22.37 Y23.393 E889.08236
G1 X-23.725 Y22.019 E889.98984
G1 X-25.011 Y20.546 E890.90939
G1 X-26.191 Y19.021 E891.81616
G1 X-27.277 Y17.428 E892.72281
G1 X-28.277 Y15.754 E893.6398
G1 X-29.165 Y14.042 E894.54675
G1 X-29.953 Y12.273 E895.45745
G1 X-30.632 Y10.464 E896.36611
G1 X-31.206 Y8.605 E897.28105
G1 X-31.661 Y6.737 E898.18519
G1 X-32.01 Y4.816 E899.10335
G1 X-32.241 Y2.9 E900.0109
G1 X-32.356 Y0.973 E900.91872
G1 X-32.356 Y-.973 E901.83385
G1 X-32.241 Y-2.9 E902.74166
G1 X-32.01 Y-4.816 E903.64921
G1 X-31.661 Y-6.737 E904.56738
G1 X-31.206 Y-8.605 E905.47151
G1 X-30.632 Y-10.464 E906.38646
G1 X-29.953 Y-12.273 E907.29512
G1 X-29.165 Y-14.042 E908.20582
G1 X-28.277 Y-15.754 E909.11277
G1 X-27.277 Y-17.428 E910.02975
G1 X-26.191 Y-19.021 E910.9364
G1 X-25.011 Y-20.546 E911.84318
G1 X-23.725 Y-22.019 E912.76272
G1 X-22.37 Y-23.393 E913.67021
G1 X-20.938 Y-24.683 E914.57658
G1 X-19.421 Y-25.894 E915.4894
G1 X-17.831 Y-27.012 E916.40346
G1 X-16.196 Y-28.022 E917.30721
G1 X-14.477 Y-28.948 E918.22543
G1 X-12.727 Y-29.758 E919.13227
G1 X-10.923 Y-30.466 E920.04362
G1 X-9.092 Y-31.062 E920.94914
G1 X-7.212 Y-31.55 E921.86254
G1 X-5.296 Y-31.928 E922.78093
G1 X-3.401 Y-32.185 E923.68024
G1 X-1.459 Y-32.33 E924.59603
G1 X0.488 Y-32.359 E925.51174
G1 X2.398 Y-32.274 E926.41083
G1 X4.335 Y-32.07 E927.32677
G1 X6.257 Y-31.751 E928.24298
G1 X8.129 Y-31.323 E929.14603
G1 X9.994 Y-30.778 E930.05975
G1 X11.822 Y-30.123 E930.97291
G1 X13.583 Y-29.37 E931.87358
G1 X15.334 Y-28.495 E932.7941
G1 X17.006 Y-27.53 E933.70194
G1 X18.62 Y-26.465 E934.61129
G1 X20.172 Y-25.301 E935.52361
G1 X21.652 Y-24.045 E936.43644
G1 X23.039 Y-22.72 E937.33849
G1 X24.36 Y-21.297 E938.25158
G1 X25.601 Y-19.787 E939.17072
G1 X26.733 Y-18.23 E940.07598
G1 X27.769 Y-16.606 E940.98186
G1 X28.714 Y-14.914 E941.89324
G1 X29.56 Y-13.155 E942.81113
G1 X30.288 Y-11.379 E943.71376
G1 X30.919 Y-9.531 E944.63207
G1 X31.432 Y-7.672 E945.53897
G1 X31.837 Y-5.774 E946.45162
G1 X32.122 Y-3.871 E947.35652
G1 X32.298 Y-1.928 Z2.51 E948.27399
G1 X32.356 Y0.00 Z2.519 E949.18108
G1 X32.298 Y1.928 Z2.529 E950.08817
G1 X32.122 Y3.871 Z2.538 E951.00565
G1 X31.837 Y5.774 Z2.548 E951.91055
G1 X31.432 Y7.672 Z2.557 E952.82322
G1 X30.919 Y9.531 Z2.567 E953.73012
G1 X30.288 Y11.379 Z2.576 E954.64845
G1 X29.56 Y13.155 Z2.586 E955.55109
G1 X28.714 Y14.914 Z2.595 E956.46899
G1 X27.769 Y16.606 Z2.605 E957.38038
G1 X26.733 Y18.229 Z2.614 E958.28587
G1 X25.601 Y19.787 Z2.624 E959.19153
G1 X24.36 Y21.297 Z2.633 E960.11068
G1 X23.039 Y22.72 Z2.643 E961.02378
G1 X21.652 Y24.045 Z2.652 E961.92584
G1 X20.172 Y25.301 Z2.662 E962.83869
G1 X18.62 Y26.465 Z2.671 E963.75101
G1 X17.006 Y27.53 Z2.681 E964.66037
G1 X15.334 Y28.495 Z2.69 E965.56822
G1 X13.583 Y29.37 Z2.7 E966.48876
G1 X11.822 Y30.123 Z2.71 E967.38943
G1 X9.994 Y30.778 Z2.719 E968.30261
G1 X8.129 Y31.323 Z2.729 E969.21634
G1 X6.257 Y31.751 Z2.738 E970.1194
G1 X4.335 Y32.07 Z2.748 E971.03562
G1 X2.398 Y32.274 Z2.757 E971.95157
G1 X0.488 Y32.359 Z2.767 E972.85068
G1 X-1.459 Y32.33 Z2.776 E973.76639
G1 X-3.401 Y32.185 Z2.786 E974.6822
G1 X-5.296 Y31.928 Z2.795 E975.58152
G1 X-7.212 Y31.55 Z2.805 E976.49992
G1 X-9.092 Y31.062 Z2.814 E977.41333
G1 X-10.923 Y30.466 Z2.824 E978.31886
G1 X-12.727 Y29.758 Z2.833 E979.23022
G1 X-14.477 Y28.948 Z2.843 E980.13708
G1 X-16.196 Y28.022 Z2.852 E981.0553
G1 X-17.831 Y27.012 Z2.862 E981.95906
G1 X-19.421 Y25.894 Z2.871 E982.87313
G1 X-20.938 Y24.683 Z2.881 E983.78597
G1 X-22.37 Y23.393 Z2.89 E984.69235
G1 X-23.725 Y22.019 Z2.9 E985.59985
G1 X-25.011 Y20.546 Z2.91 E986.5194
G1 X-26.191 Y19.021 Z2.919 E987.42619
G1 X-27.277 Y17.428 Z2.929 E988.33285
G1 X-28.277 Y15.754 Z2.938 E989.24985
G1 X-29.165 Y14.042 Z2.948 E990.15681
G1 X-29.953 Y12.273 Z2.957 E991.06752
G1 X-30.632 Y10.464 Z2.967 E991.97619
G1 X-31.206 Y8.605 Z2.976 E992.89114
G1 X-31.661 Y6.737 Z2.986 E993.79529
G1 X-32.01 Y4.816 Z2.995 E994.71347
G1 X-32.241 Y2.9 Z3.005 E995.62103
G1 X-32.356 Y0.973 Z3.014 E996.52885
G1 X-32.356 Y-.973 Z3.024 E997.444
G1 X-32.241 Y-2.9 Z3.033 E998.35182
G1 X-32.01 Y-4.816 Z3.043 E999.25938
G1 X-31.661 Y-6.737 Z3.052 E1000.17755
G1 X-31.206 Y-8.605 Z3.062 E1001.0817
G1 X-30.632 Y-10.464 Z3.071 E1001.99666
G1 X-29.953 Y-12.273 Z3.081 E1002.90533
G1 X-29.165 Y-14.042 Z3.091 E1003.81604
G1 X-28.277 Y-15.754 Z3.1 E1004.723
G1 X-27.277 Y-17.428 Z3.11 E1005.64
G1 X-26.191 Y-19.021 Z3.119 E1006.54666
G1 X-25.011 Y-20.546 Z3.129 E1007.45344
G1 X-23.725 Y-22.019 Z3.138 E1008.373
G1 X-22.37 Y-23.393 Z3.148 E1009.2805
G1 X-20.938 Y-24.683 Z3.157 E1010.18688
G1 X-19.421 Y-25.894 Z3.167 E1011.09971
G1 X-17.831 Y-27.012 Z3.176 E1012.01378
G1 X-16.196 Y-28.022 Z3.186 E1012.91755
G1 X-14.477 Y-28.948 Z3.195 E1013.83577
G1 X-12.727 Y-29.758 Z3.205 E1014.74262
G1 X-10.923 Y-30.466 Z3.214 E1015.65399
G1 X-9.092 Y-31.062 Z3.224 E1016.55952
G1 X-7.212 Y-31.55 Z3.233 E1017.47292
G1 X-5.296 Y-31.928 Z3.243 E1018.39133
G1 X-3.401 Y-32.185 Z3.252 E1019.29065
G1 X-1.459 Y-32.33 Z3.262 E1020.20645
G1 X0.488 Y-32.359 Z3.272 E1021.12217
G1 X2.398 Y-32.274 Z3.281 E1022.02127
G1 X4.335 Y-32.07 Z3.291 E1022.93723
G1 X6.257 Y-31.751 Z3.3 E1023.85345
G1 X8.129 Y-31.323 Z3.31 E1024.75651
G1 X9.994 Y-30.778 Z3.319 E1025.67024
G1 X11.822 Y-30.123 Z3.329 E1026.58341
G1 X13.583 Y-29.37 Z3.338 E1027.48409
G1 X15.334 Y-28.495 Z3.348 E1028.40462
G1 X17.006 Y-27.53 Z3.357 E1029.31247
G1 X18.62 Y-26.465 Z3.367 E1030.22184
G1 X20.172 Y-25.301 Z3.376 E1031.13416
G1 X21.652 Y-24.045 Z3.386 E1032.04701
G1 X23.039 Y-22.72 Z3.395 E1032.94907
G1 X24.36 Y-21.297 Z3.405 E1033.86216
G1 X25.601 Y-19.787 Z3.414 E1034.78132
G1 X26.733 Y-18.23 Z3.424 E1035.68659
G1 X27.769 Y-16.606 Z3.433 E1036.59248
G1 X28.714 Y-14.914 Z3.443 E1037.50387
G1 X29.56 Y-13.155 Z3.452 E1038.42177
G1 X30.288 Y-11.379 Z3.462 E1039.32442
G1 X30.919 Y-9.531 Z3.472 E1040.24274
G1 X31.432 Y-7.672 Z3.481 E1041.14965
G1 X31.837 Y-5.774 Z3.491 E1042.06231
G1 X32.122 Y-3.871 Z3.5 E1042.96722
;TIME_ELAPSED:166.368378
;LAYER:3
;TYPE:WALL-OUTER
;MESH:CenterRing_Solid.stl
G1 X32.298 Y-1.928 Z3.51 E1043.88469
G1 X32.356 Y0.00 Z3.519 E1044.79178
G1 X32.298 Y1.928 Z3.529 E1045.69887
G1 X32.122 Y3.871 Z3.538 E1046.61635
G1 X31.837 Y5.774 Z3.548 E1047.52125
G1 X31.432 Y7.672 Z3.557 E1048.43391
G1 X30.919 Y9.531 Z3.567 E1049.34082
G1 X30.288 Y11.379 Z3.576 E1050.25914
G1 X29.56 Y13.155 Z3.586 E1051.16179
G1 X28.714 Y14.914 Z3.595 E1052.07969
G1 X27.769 Y16.606 Z3.605 E1052.99108
G1 X26.733 Y18.229 Z3.614 E1053.89657
G1 X25.601 Y19.787 Z3.624 E1054.80223
G1 X24.36 Y21.297 Z3.633 E1055.72138
G1 X23.039 Y22.72 Z3.643 E1056.63448
G1 X21.652 Y24.045 Z3.652 E1057.53653
G1 X20.172 Y25.301 Z3.662 E1058.44938
G1 X18.62 Y26.465 Z3.671 E1059.36171
G1 X17.006 Y27.53 Z3.681 E1060.27107
G1 X15.334 Y28.495 Z3.69 E1061.17892
G1 X13.583 Y29.37 Z3.7 E1062.09945
G1 X11.822 Y30.123 Z3.71 E1063.00013
G1 X9.994 Y30.778 Z3.719 E1063.9133
G1 X8.129 Y31.323 Z3.729 E1064.82704
G1 X6.257 Y31.751 Z3.738 E1065.7301
G1 X4.335 Y32.07 Z3.748 E1066.64632
G1 X2.398 Y32.274 Z3.757 E1067.56227
G1 X0.488 Y32.359 Z3.767 E1068.46138
G1 X-1.459 Y32.33 Z3.776 E1069.37709
G1 X-3.401 Y32.185 Z3.786 E1070.2929
G1 X-5.296 Y31.928 Z3.795 E1071.19222
G1 X-7.212 Y31.55 Z3.805 E1072.11062
G1 X-9.092 Y31.062 Z3.814 E1073.02403
G1 X-10.923 Y30.466 Z3.824 E1073.92956
G1 X-12.727 Y29.758 Z3.833 E1074.84092
G1 X-14.477 Y28.948 Z3.843 E1075.74777
G1 X-16.196 Y28.022 Z3.852 E1076.666
G1 X-17.831 Y27.012 Z3.862 E1077.56976
G1 X-19.421 Y25.894 Z3.871 E1078.48383
G1 X-20.938 Y24.683 Z3.881 E1079.39667
G1 X-22.37 Y23.393 Z3.89 E1080.30304
G1 X-23.725 Y22.019 Z3.9 E1081.21054
G1 X-25.011 Y20.546 Z3.91 E1082.1301
G1 X-26.191 Y19.021 Z3.919 E1083.03688
G1 X-27.277 Y17.428 Z3.929 E1083.94355
G1 X-28.277 Y15.754 Z3.938 E1084.86055
G1 X-29.165 Y14.042 Z3.948 E1085.76751
G1 X-29.953 Y12.273 Z3.957 E1086.67822
G1 X-30.632 Y10.464 Z3.967 E1087.58689
G1 X-31.206 Y8.605 Z3.976 E1088.50184
G1 X-31.661 Y6.737 Z3.986 E1089.40599
G1 X-32.01 Y4.816 Z3.995 E1090.32417
G1 X-32.241 Y2.9 Z4.005 E1091.23173
G1 X-32.356 Y0.973 Z4.014 E1092.13955
G1 X-32.356 Y-.973 Z4.024 E1093.05469
G1 X-32.241 Y-2.9 Z4.033 E1093.96252
G1 X-32.01 Y-4.816 Z4.043 E1094.87008
G1 X-31.661 Y-6.737 Z4.052 E1095.78825
G1 X-31.206 Y-8.605 Z4.062 E1096.6924
G1 X-30.632 Y-10.464 Z4.071 E1097.60736
G1 X-29.953 Y-12.273 Z4.081 E1098.51603
G1 X-29.165 Y-14.042 Z4.091 E1099.42674
G1 X-28.277 Y-15.754 Z4.1 E1100.3337
G1 X-27.277 Y-17.428 Z4.11 E1101.2507
G1 X-26.191 Y-19.021 Z4.119 E1102.15736
G1 X-25.011 Y-20.546 Z4.129 E1103.06414
G1 X-23.725 Y-22.019 Z4.138 E1103.9837
G1 X-22.37 Y-23.393 Z4.148 E1104.8912
G1 X-20.938 Y-24.683 Z4.157 E1105.79758
G1 X-19.421 Y-25.894 Z4.167 E1106.71041
G1 X-17.831 Y-27.012 Z4.176 E1107.62448
G1 X-16.196 Y-28.022 Z4.186 E1108.52825
G1 X-14.477 Y-28.948 Z4.195 E1109.44647
G1 X-12.727 Y-29.758 Z4.205 E1110.35332
G1 X-10.923 Y-30.466 Z4.214 E1111.26468
G1 X-9.092 Y-31.062 Z4.224 E1112.17022
G1 X-7.212 Y-31.55 Z4.233 E1113.08362
G1 X-5.296 Y-31.928 Z4.243 E1114.00203
G1 X-3.401 Y-32.185 Z4.252 E1114.90135
G1 X-1.459 Y-32.33 Z4.262 E1115.81715
G1 X0.488 Y-32.359 Z4.272 E1116.73287
G1 X2.398 Y-32.274 Z4.281 E1117.63197
G1 X4.335 Y-32.07 Z4.291 E1118.54792
G1 X6.257 Y-31.751 Z4.3 E1119.46415
G1 X8.129 Y-31.323 Z4.31 E1120.36721
G1 X9.994 Y-30.778 Z4.319 E1121.28094
G1 X11.822 Y-30.123 Z4.329 E1122.19411
G1 X13.583 Y-29.37 Z4.338 E1123.09479
G1 X15.334 Y-28.495 Z4.348 E1124.01532
G1 X17.006 Y-27.53 Z4.357 E1124.92317
G1 X18.62 Y-26.465 Z4.367 E1125.83254
G1 X20.172 Y-25.301 Z4.376 E1126.74486
G1 X21.652 Y-24.045 Z4.386 E1127.65771
G1 X23.039 Y-22.72 Z4.395 E1128.55977
G1 X24.36 Y-21.297 Z4.405 E1129.47286
G1 X25.601 Y-19.787 Z4.414 E1130.39202
G1 X26.733 Y-18.23 Z4.424 E1131.29729
G1 X27.769 Y-16.606 Z4.433 E1132.20318
G1 X28.714 Y-14.914 Z4.443 E1133.11457
G1 X29.56 Y-13.155 Z4.452 E1134.03247
G1 X30.288 Y-11.379 Z4.462 E1134.93511
G1 X30.919 Y-9.531 Z4.472 E1135.85344
G1 X31.432 Y-7.672 Z4.481 E1136.76035
G1 X31.837 Y-5.774 Z4.491 E1137.67301
G1 X32.122 Y-3.871 Z4.5 E1138.57791
;TIME_ELAPSED:171.461137
;LAYER:4
;TYPE:WALL-OUTER
;MESH:CenterRing_Solid.stl
G1 X32.298 Y-1.928 Z4.51 E1139.49539
G1 X32.356 Y0.00 Z4.519 E1140.40248
G1 X32.298 Y1.928 Z4.529 E1141.30957
G1 X32.122 Y3.871 Z4.538 E1142.22704
G1 X31.837 Y5.774 Z4.548 E1143.13195
G1 X31.432 Y7.672 Z4.557 E1144.04461
G1 X30.919 Y9.531 Z4.567 E1144.95152
G1 X30.288 Y11.379 Z4.576 E1145.86984
G1 X29.56 Y13.155 Z4.586 E1146.77249
G1 X28.714 Y14.914 Z4.595 E1147.69039
G1 X27.769 Y16.606 Z4.605 E1148.60178
G1 X26.733 Y18.229 Z4.614 E1149.50727
G1 X25.601 Y19.787 Z4.624 E1150.41292
G1 X24.36 Y21.297 Z4.633 E1151.33208
G1 X23.039 Y22.72 Z4.643 E1152.24517
G1 X21.652 Y24.045 Z4.652 E1153.14723
G1 X20.172 Y25.301 Z4.662 E1154.06008
G1 X18.62 Y26.465 Z4.671 E1154.9724
G1 X17.006 Y27.53 Z4.681 E1155.88177
G1 X15.334 Y28.495 Z4.69 E1156.78962
G1 X13.583 Y29.37 Z4.7 E1157.71015
G1 X11.822 Y30.123 Z4.71 E1158.61083
G1 X9.994 Y30.778 Z4.719 E1159.524
G1 X8.129 Y31.323 Z4.729 E1160.43774
G1 X6.257 Y31.751 Z4.738 E1161.3408
G1 X4.335 Y32.07 Z4.748 E1162.25702
G1 X2.398 Y32.274 Z4.757 E1163.17297
G1 X0.488 Y32.359 Z4.767 E1164.07207
G1 X-1.459 Y32.33 Z4.776 E1164.98779
G1 X-3.401 Y32.185 Z4.786 E1165.9036
G1 X-5.296 Y31.928 Z4.795 E1166.80291
G1 X-7.212 Y31.55 Z4.805 E1167.72132
G1 X-9.092 Y31.062 Z4.814 E1168.63473
G1 X-10.923 Y30.466 Z4.824 E1169.54026
G1 X-12.727 Y29.758 Z4.833 E1170.45162
G1 X-14.477 Y28.948 Z4.843 E1171.35847
G1 X-16.196 Y28.022 Z4.852 E1172.2767
G1 X-17.831 Y27.012 Z4.862 E1173.18046
G1 X-19.421 Y25.894 Z4.871 E1174.09453
G1 X-20.938 Y24.683 Z4.881 E1175.00736
G1 X-22.37 Y23.393 Z4.89 E1175.91374
G1 X-23.725 Y22.019 Z4.9 E1176.82124
G1 X-25.011 Y20.546 Z4.91 E1177.7408
G1 X-26.191 Y19.021 Z4.919 E1178.64758
G1 X-27.277 Y17.428 Z4.929 E1179.55425
G1 X-28.277 Y15.754 Z4.938 E1180.47124
G1 X-29.165 Y14.042 Z4.948 E1181.37821
G1 X-29.953 Y12.273 Z4.957 E1182.28891
G1 X-30.632 Y10.464 Z4.967 E1183.19759
G1 X-31.206 Y8.605 Z4.976 E1184.11254
G1 X-31.661 Y6.737 Z4.986 E1185.01669
G1 X-32.01 Y4.816 Z4.995 E1185.93486
G1 X-32.241 Y2.9 Z5.005 E1186.84243
G1 X-32.356 Y0.973 Z5.014 E1187.75025
G1 X-32.356 Y-.973 Z5.024 E1188.66539
G1 X-32.241 Y-2.9 Z5.033 E1189.57321
G1 X-32.01 Y-4.816 Z5.043 E1190.48078
G1 X-31.661 Y-6.737 Z5.052 E1191.39895
G1 X-31.206 Y-8.605 Z5.062 E1192.3031
G1 X-30.632 Y-10.464 Z5.071 E1193.21805
G1 X-29.953 Y-12.273 Z5.081 E1194.12673
G1 X-29.165 Y-14.042 Z5.091 E1195.03744
G1 X-28.277 Y-15.754 Z5.1 E1195.9444
G1 X-27.277 Y-17.428 Z5.11 E1196.8614
G1 X-26.191 Y-19.021 Z5.119 E1197.76806
G1 X-25.011 Y-20.546 Z5.129 E1198.67484
G1 X-23.725 Y-22.019 Z5.138 E1199.5944
G1 X-22.37 Y-23.393 Z5.148 E1200.5019
G1 X-20.938 Y-24.683 Z5.157 E1201.40828
G1 X-19.421 Y-25.894 Z5.167 E1202.32111
G1 X-17.831 Y-27.012 Z5.176 E1203.23518
G1 X-16.196 Y-28.022 Z5.186 E1204.13895
G1 X-14.477 Y-28.948 Z5.195 E1205.05717
G1 X-12.727 Y-29.758 Z5.205 E1205.96402
G1 X-10.923 Y-30.466 Z5.214 E1206.87538
G1 X-9.092 Y-31.062 Z5.224 E1207.78092
G1 X-7.212 Y-31.55 Z5.233 E1208.69432
G1 X-5.296 Y-31.928 Z5.243 E1209.61273
G1 X-3.401 Y-32.185 Z5.252 E1210.51204
G1 X-1.459 Y-32.33 Z5.262 E1211.42785
G1 X0.488 Y-32.359 Z5.272 E1212.34357
G1 X2.398 Y-32.274 Z5.281 E1213.24267
G1 X4.335 Y-32.07 Z5.291 E1214.15862
G1 X6.257 Y-31.751 Z5.3 E1215.07484
G1 X8.129 Y-31.323 Z5.31 E1215.97791
G1 X9.994 Y-30.778 Z5.319 E1216.89164
G1 X11.822 Y-30.123 Z5.329 E1217.80481
G1 X13.583 Y-29.37 Z5.338 E1218.70549
G1 X15.334 Y-28.495 Z5.348 E1219.62602
G1 X17.006 Y-27.53 Z5.357 E1220.53387
G1 X18.62 Y-26.465 Z5.367 E1221.44324
G1 X20.172 Y-25.301 Z5.376 E1222.35556
G1 X21.652 Y-24.045 Z5.386 E1223.26841
G1 X23.039 Y-22.72 Z5.395 E1224.17047
G1 X24.36 Y-21.297 Z5.405 E1225.08356
G1 X25.601 Y-19.787 Z5.414 E1226.00272
G1 X26.733 Y-18.23 Z5.424 E1226.90799
G1 X27.769 Y-16.606 Z5.433 E1227.81388
G1 X28.714 Y-14.914 Z5.443 E1228.72527
G1 X29.56 Y-13.155 Z5.452 E1229.64317
G1 X30.288 Y-11.379 Z5.462 E1230.54581
G1 X30.919 Y-9.531 Z5.472 E1231.46414
G1 X31.432 Y-7.672 Z5.481 E1232.37104
G1 X31.837 Y-5.774 Z5.491 E1233.28371
G1 X32.122 Y-3.871 Z5.5 E1234.18861
;TIME_ELAPSED:176.553896
;LAYER:5
;TYPE:WALL-OUTER
;MESH:CenterRing_Solid.stl
G1 X32.298 Y-1.928 Z5.51 E1235.10609
G1 X32.356 Y0.00 Z5.519 E1236.01318
G1 X32.298 Y1.928 Z5.529 E1236.92027
G1 X32.122 Y3.871 Z5.538 E1237.83774
G1 X31.837 Y5.774 Z5.548 E1238.74265
G1 X31.432 Y7.672 Z5.557 E1239.65531
G1 X30.919 Y9.531 Z5.567 E1240.56222
G1 X30.288 Y11.379 Z5.576 E1241.48054
G1 X29.56 Y13.155 Z5.586 E1242.38319
G1 X28.714 Y14.914 Z5.595 E1243.30109
G1 X27.769 Y16.606 Z5.605 E1244.21248
G1 X26.733 Y18.229 Z5.614 E1245.11797
G1 X25.601 Y19.787 Z5.624 E1246.02362
G1 X24.36 Y21.297 Z5.633 E1246.94278
G1 X23.039 Y22.72 Z5.643 E1247.85587
G1 X21.652 Y24.045 Z5.652 E1248.75793
G1 X20.172 Y25.301 Z5.662 E1249.67078
G1 X18.62 Y26.465 Z5.671 E1250.5831
G1 X17.006 Y27.53 Z5.681 E1251.49247
G1 X15.334 Y28.495 Z5.69 E1252.40032
G1 X13.583 Y29.37 Z5.7 E1253.32085
G1 X11.822 Y30.123 Z5.71 E1254.22153
G1 X9.994 Y30.778 Z5.719 E1255.1347
G1 X8.129 Y31.323 Z5.729 E1256.04844
G1 X6.257 Y31.751 Z5.738 E1256.9515
G1 X4.335 Y32.07 Z5.748 E1257.86772
G1 X2.398 Y32.274 Z5.757 E1258.78367
G1 X0.488 Y32.359 Z5.767 E1259.68277
G1 X-1.459 Y32.33 Z5.776 E1260.59849
G1 X-3.401 Y32.185 Z5.786 E1261.5143
G1 X-5.296 Y31.928 Z5.795 E1262.41361
G1 X-7.212 Y31.55 Z5.805 E1263.33202
G1 X-9.092 Y31.062 Z5.814 E1264.24542
G1 X-10.923 Y30.466 Z5.824 E1265.15096
G1 X-12.727 Y29.758 Z5.833 E1266.06232
G1 X-14.477 Y28.948 Z5.843 E1266.96917
G1 X-16.196 Y28.022 Z5.852 E1267.88739
G1 X-17.831 Y27.012 Z5.862 E1268.79116
G1 X-19.421 Y25.894 Z5.871 E1269.70523
G1 X-20.938 Y24.683 Z5.881 E1270.61806
G1 X-22.37 Y23.393 Z5.89 E1271.52444
G1 X-23.725 Y22.019 Z5.9 E1272.43194
G1 X-25.011 Y20.546 Z5.91 E1273.3515
G1 X-26.191 Y19.021 Z5.919 E1274.25828
G1 X-27.277 Y17.428 Z5.929 E1275.16495
G1 X-28.277 Y15.754 Z5.938 E1276.08194
G1 X-29.165 Y14.042 Z5.948 E1276.9889
G1 X-29.953 Y12.273 Z5.957 E1277.89961
G1 X-30.632 Y10.464 Z5.967 E1278.80828
G1 X-31.206 Y8.605 Z5.976 E1279.72324
G1 X-31.661 Y6.737 Z5.986 E1280.62739
G1 X-32.01 Y4.816 Z5.995 E1281.54556
G1 X-32.241 Y2.9 Z6.005 E1282.45313
G1 X-32.356 Y0.973 Z6.014 E1283.36095
G1 X-32.356 Y-.973 Z6.024 E1284.27609
G1 X-32.241 Y-2.9 Z6.033 E1285.18391
G1 X-32.01 Y-4.816 Z6.043 E1286.09148
G1 X-31.661 Y-6.737 Z6.052 E1287.00965
G1 X-31.206 Y-8.605 Z6.062 E1287.9138
G1 X-30.632 Y-10.464 Z6.071 E1288.82875
G1 X-29.953 Y-12.273 Z6.081 E1289.73742
G1 X-29.165 Y-14.042 Z6.091 E1290.64814
G1 X-28.277 Y-15.754 Z6.1 E1291.5551
G1 X-27.277 Y-17.428 Z6.11 E1292.4721
G1 X-26.191 Y-19.021 Z6.119 E1293.37876
G1 X-25.011 Y-20.546 Z6.129 E1294.28554
G1 X-23.725 Y-22.019 Z6.138 E1295.2051
G1 X-22.37 Y-23.393 Z6.148 E1296.1126
G1 X-20.938 Y-24.683 Z6.157 E1297.01898
G1 X-19.421 Y-25.894 Z6.167 E1297.93181
G1 X-17.831 Y-27.012 Z6.176 E1298.84588
G1 X-16.196 Y-28.022 Z6.186 E1299.74964
G1 X-14.477 Y-28.948 Z6.195 E1300.66787
G1 X-12.727 Y-29.758 Z6.205 E1301.57472
G1 X-10.923 Y-30.466 Z6.214 E1302.48608
G1 X-9.092 Y-31.062 Z6.224 E1303.39161
G1 X-7.212 Y-31.55 Z6.233 E1304.30502
G1 X-5.296 Y-31.928 Z6.243 E1305.22342
G1 X-3.401 Y-32.185 Z6.252 E1306.12274
G1 X-1.459 Y-32.33 Z6.262 E1307.03855
G1 X0.488 Y-32.359 Z6.272 E1307.95427
G1 X2.398 Y-32.274 Z6.281 E1308.85337
G1 X4.335 Y-32.07 Z6.291 E1309.76932
G1 X6.257 Y-31.751 Z6.3 E1310.68554
G1 X8.129 Y-31.323 Z6.31 E1311.5886
G1 X9.994 Y-30.778 Z6.319 E1312.50234
G1 X11.822 Y-30.123 Z6.329 E1313.41551
G1 X13.583 Y-29.37 Z6.338 E1314.31619
G1 X15.334 Y-28.495 Z6.348 E1315.23672
G1 X17.006 Y-27.53 Z6.357 E1316.14457
G1 X18.62 Y-26.465 Z6.367 E1317.05394
G1 X20.172 Y-25.301 Z6.376 E1317.96626
G1 X21.652 Y-24.045 Z6.386 E1318.87911
G1 X23.039 Y-22.72 Z6.395 E1319.78116
G1 X24.36 Y-21.297 Z6.405 E1320.69426
G1 X25.601 Y-19.787 Z6.414 E1321.61341
G1 X26.733 Y-18.23 Z6.424 E1322.51869
G1 X27.769 Y-16.606 Z6.433 E1323.42457
G1 X28.714 Y-14.914 Z6.443 E1324.33596
G1 X29.56 Y-13.155 Z6.452 E1325.25387
G1 X30.288 Y-11.379 Z6.462 E1326.15651
G1 X30.919 Y-9.531 Z6.472 E1327.07484
G1 X31.432 Y-7.672 Z6.481 E1327.98174
G1 X31.837 Y-5.774 Z6.491 E1328.89441
G1 X32.122 Y-3.871 Z6.5 E1329.79931
;TIME_ELAPSED:181.646655
;LAYER:6
;TYPE:WALL-OUTER
;MESH:CenterRing_Solid.stl
G1 X32.298 Y-1.928 Z6.505 E1330.71678
G1 X32.356 Y0.00 Z6.511 E1331.62386
G1 X32.298 Y1.928 Z6.516 E1332.53094
G1 X32.122 Y3.871 Z6.521 E1333.44841
G1 X31.837 Y5.774 Z6.526 E1334.35331
G1 X31.432 Y7.672 Z6.532 E1335.26597
G1 X30.919 Y9.531 Z6.537 E1336.17286
G1 X30.288 Y11.379 Z6.542 E1337.09118
G1 X29.56 Y13.155 Z6.548 E1337.99382
G1 X28.714 Y14.914 Z6.553 E1338.91171
G1 X27.769 Y16.606 Z6.558 E1339.82309
G1 X26.733 Y18.229 Z6.564 E1340.72858
G1 X25.601 Y19.787 Z6.569 E1341.63422
G1 X24.36 Y21.297 Z6.574 E1342.55337
G1 X23.039 Y22.72 Z6.579 E1343.46646
G1 X21.652 Y24.045 Z6.585 E1344.36851
G1 X20.172 Y25.301 Z6.59 E1345.28135
G1 X18.62 Y26.465 Z6.595 E1346.19366
G1 X17.006 Y27.53 Z6.601 E1347.10302
G1 X15.334 Y28.495 Z6.606 E1348.01087
G1 X13.583 Y29.37 Z6.611 E1348.93139
G1 X11.822 Y30.123 Z6.616 E1349.83206
G1 X9.994 Y30.778 Z6.622 E1350.74522
G1 X8.129 Y31.323 Z6.627 E1351.65895
G1 X6.257 Y31.751 Z6.632 E1352.562
G1 X4.335 Y32.07 Z6.638 E1353.47822
G1 X2.398 Y32.274 Z6.643 E1354.39416
G1 X0.488 Y32.359 Z6.648 E1355.29326
G1 X-1.459 Y32.33 Z6.653 E1356.20897
G1 X-3.401 Y32.185 Z6.659 E1357.12477
G1 X-5.296 Y31.928 Z6.664 E1358.02408
G1 X-7.212 Y31.55 Z6.669 E1358.94247
G1 X-9.092 Y31.062 Z6.675 E1359.85587
G1 X-10.923 Y30.466 Z6.68 E1360.7614
G1 X-12.727 Y29.758 Z6.685 E1361.67275
G1 X-14.477 Y28.948 Z6.69 E1362.5796
G1 X-16.196 Y28.022 Z6.696 E1363.49781
G1 X-17.831 Y27.012 Z6.701 E1364.40157
G1 X-19.421 Y25.894 Z6.706 E1365.31563
G1 X-20.938 Y24.683 Z6.712 E1366.22846
G1 X-22.37 Y23.393 Z6.717 E1367.13483
G1 X-23.725 Y22.019 Z6.722 E1368.04232
G1 X-25.011 Y20.546 Z6.728 E1368.96187
G1 X-26.191 Y19.021 Z6.733 E1369.86864
G1 X-27.277 Y17.428 Z6.738 E1370.7753
G1 X-28.277 Y15.754 Z6.743 E1371.69229
G1 X-29.165 Y14.042 Z6.749 E1372.59924
G1 X-29.953 Y12.273 Z6.754 E1373.50995
G1 X-30.632 Y10.464 Z6.759 E1374.41861
G1 X-31.206 Y8.605 Z6.765 E1375.33356
G1 X-31.661 Y6.737 Z6.77 E1376.2377
G1 X-32.01 Y4.816 Z6.775 E1377.15587
G1 X-32.241 Y2.9 Z6.78 E1378.06342
G1 X-32.356 Y0.973 Z6.786 E1378.97123
G1 X-32.356 Y-.973 Z6.791 E1379.88637
G1 X-32.241 Y-2.9 Z6.796 E1380.79418
G1 X-32.01 Y-4.816 Z6.802 E1381.70174
G1 X-31.661 Y-6.737 Z6.807 E1382.61991
G1 X-31.206 Y-8.605 Z6.812 E1383.52405
G1 X-30.632 Y-10.464 Z6.817 E1384.43899
G1 X-29.953 Y-12.273 Z6.823 E1385.34766
G1 X-29.165 Y-14.042 Z6.828 E1386.25836
G1 X-28.277 Y-15.754 Z6.833 E1387.16531
G1 X-27.277 Y-17.428 Z6.839 E1388.08231
G1 X-26.191 Y-19.021 Z6.844 E1388.98896
G1 X-25.011 Y-20.546 Z6.849 E1389.89573
G1 X-23.725 Y-22.019 Z6.855 E1390.81529
G1 X-22.37 Y-23.393 Z6.86 E1391.72278
G1 X-20.938 Y-24.683 Z6.865 E1392.62915
G1 X-19.421 Y-25.894 Z6.87 E1393.54197
G1 X-17.831 Y-27.012 Z6.876 E1394.45604
G1 X-16.196 Y-28.022 Z6.881 E1395.35979
G1 X-14.477 Y-28.948 Z6.886 E1396.27801
G1 X-12.727 Y-29.758 Z6.892 E1397.18485
G1 X-10.923 Y-30.466 Z6.897 E1398.09621
G1 X-9.092 Y-31.062 Z6.902 E1399.00173
G1 X-7.212 Y-31.55 Z6.907 E1399.91513
G1 X-5.296 Y-31.928 Z6.913 E1400.83353
G1 X-3.401 Y-32.185 Z6.918 E1401.73284
G1 X-1.459 Y-32.33 Z6.923 E1402.64864
G1 X0.488 Y-32.359 Z6.929 E1403.56435
G1 X2.398 Y-32.274 Z6.934 E1404.46344
G1 X4.335 Y-32.07 Z6.939 E1405.37939
G1 X6.257 Y-31.751 Z6.944 E1406.2956
G1 X8.129 Y-31.323 Z6.95 E1407.19865
G1 X9.994 Y-30.778 Z6.955 E1408.11238
G1 X11.822 Y-30.123 Z6.96 E1409.02554
G1 X13.583 Y-29.37 Z6.966 E1409.92622
G1 X15.334 Y-28.495 Z6.971 E1410.84674
G1 X17.006 Y-27.53 Z6.976 E1411.75458
G1 X18.62 Y-26.465 Z6.981 E1412.66394
G1 X20.172 Y-25.301 Z6.987 E1413.57626
G1 X21.652 Y-24.045 Z6.992 E1414.4891
G1 X23.039 Y-22.72 Z6.997 E1415.39115
G1 X24.36 Y-21.297 Z7.003 E1416.30423
G1 X25.601 Y-19.787 Z7.008 E1417.22338
G1 X26.733 Y-18.23 Z7.013 E1418.12865
G1 X27.769 Y-16.606 Z7.018 E1419.03453
G1 X28.714 Y-14.914 Z7.024 E1419.94591
G1 X29.56 Y-13.155 Z7.029 E1420.8638
G1 X30.288 Y-11.379 Z7.034 E1421.76644
G1 X30.919 Y-9.531 Z7.04 E1422.68476
G1 X31.432 Y-7.672 Z7.045 E1423.59166
G1 X31.837 Y-5.774 Z7.05 E1424.50431
G1 X32.122 Y-3.871 Z7.056 E1425.40921
G1 X32.298 Y-1.928 Z7.5 E1426.30309
G1 X32.356 Y0.00 E1427.16481
G1 X32.298 Y1.928 E1428.02654
G1 X32.122 Y3.871 E1428.89813
G1 X31.837 Y5.774 E1429.75778
G1 X31.432 Y7.672 E1430.57917
G1 X30.919 Y9.531 E1431.39537
G1 X30.288 Y11.379 E1432.22185
G1 X29.56 Y13.155 E1433.03422
G1 X28.714 Y14.914 E1433.86033
G1 X27.769 Y16.606 E1434.635
G1 X26.733 Y18.229 E1435.40465
G1 X25.601 Y19.787 E1436.17445
G1 X24.36 Y21.297 E1436.95572
G1 X23.039 Y22.72 E1437.73184
G1 X21.652 Y24.045 E1438.45348
G1 X20.172 Y25.301 E1439.18375
G1 X18.62 Y26.465 E1439.9136
G1 X17.006 Y27.53 E1440.64108
G1 X15.334 Y28.495 E1441.36736
G1 X13.583 Y29.37 E1442.05775
G1 X11.822 Y30.123 E1442.73325
G1 X9.994 Y30.778 E1443.41812
G1 X8.129 Y31.323 E1444.10341
G1 X6.257 Y31.751 E1444.7807
G1 X4.335 Y32.07 E1445.46786
G1 X2.398 Y32.274 E1446.10901
G1 X0.488 Y32.359 E1446.73838
G1 X-1.459 Y32.33 E1447.37937
G1 X-3.401 Y32.185 E1448.02043
G1 X-5.296 Y31.928 E1448.64994
G1 X-7.212 Y31.55 E1449.2469
G1 X-9.092 Y31.062 E1449.84061
G1 X-10.923 Y30.466 E1450.4292
G1 X-12.727 Y29.758 E1451.02157
G1 X-14.477 Y28.948 E1451.61102
G1 X-16.196 Y28.022 E1452.16195
G1 X-17.831 Y27.012 E1452.7042
G1 X-19.421 Y25.894 E1453.25264
G1 X-20.938 Y24.683 E1453.80033
G1 X-22.37 Y23.393 E1454.34415
G1 X-23.725 Y22.019 E1454.88864
G1 X-25.011 Y20.546 E1455.39439
G1 X-26.191 Y19.021 E1455.89312
G1 X-27.277 Y17.428 E1456.39178
G1 X-28.277 Y15.754 E1456.89612
G1 X-29.165 Y14.042 E1457.39494
G1 X-29.953 Y12.273 E1457.85029
G1 X-30.632 Y10.464 E1458.30462
G1 X-31.206 Y8.605 E1458.76209
G1 X-31.661 Y6.737 E1459.21416
G1 X-32.01 Y4.816 E1459.67324
G1 X-32.241 Y2.9 E1460.08164
G1 X-32.356 Y0.973 E1460.49016
G1 X-32.356 Y-.973 E1460.90197
G1 X-32.241 Y-2.9 E1461.31048
G1 X-32.01 Y-4.816 E1461.71888
G1 X-31.661 Y-6.737 E1462.08615
G1 X-31.206 Y-8.605 E1462.4478
G1 X-30.632 Y-10.464 E1462.81378
G1 X-29.953 Y-12.273 E1463.17724
G1 X-29.165 Y-14.042 E1463.54152
G1 X-28.277 Y-15.754 E1463.85895
G1 X-27.277 Y-17.428 E1464.1799
G1 X-26.191 Y-19.021 E1464.49723
G1 X-25.011 Y-20.546 E1464.8146
G1 X-23.725 Y-22.019 E1465.13644
G1 X-22.37 Y-23.393 E1465.45406
G1 X-20.938 Y-24.683 E1465.72597
G1 X-19.421 Y-25.894 E1465.99982
G1 X-17.831 Y-27.012 E1466.27403
G1 X-16.196 Y-28.022 E1466.54516
G1 X-14.477 Y-28.948 E1466.82062
G1 X-12.727 Y-29.758 E1467.04734
G1 X-10.923 Y-30.466 E1467.27517
G1 X-9.092 Y-31.062 E1467.50155
G1 X-7.212 Y-31.55 E1467.7299
G1 X-5.296 Y-31.928 E1467.9595
G1 X-3.401 Y-32.185
G1 X-1.459 Y-32.33
G1 X0.488 Y-32.359
G1 X2.398 Y-32.274
G1 X4.335 Y-32.07
G1 X6.257 Y-31.751
;TIME_ELAPSED:191.014722
G1 F1500 E1461.4595
M140 S0
M107
M104 S0
M140 S0
;Retract the filament
G92 E1
G1 E-1 F300
G28 X0 Y0
M84
M82 ;absolute extrusion mode
M104 S0
;End of Gcode
;SETTING_3 {"global_quality": "[general]\\nversion = 4\\nname = CuraProfile_3mm_
;SETTING_3 2laybase_40sec\\ndefinition = custom\\n\\n[metadata]\\ntype = quality
;SETTING_3 _changes\\nquality_type = extra coarse\\nsetting_version = 25\\n\\n[v
;SETTING_3 alues]\\nadhesion_type = none\\njerk_enabled = False\\nlayer_height =
;SETTING_3  1\\nlayer_height_0 = 0.5\\nmagic_spiralize = True\\n\\n", "extruder_
;SETTING_3 quality": ["[general]\\nversion = 4\\nname = CuraProfile_3mm_2laybase
;SETTING_3 _40sec\\ndefinition = custom\\n\\n[metadata]\\ntype = quality_changes
;SETTING_3 \\nquality_type = extra coarse\\nintent_category = default\\nposition
;SETTING_3  = 0\\nsetting_version = 25\\n\\n[values]\\nbottom_layers = 2\\nbotto
;SETTING_3 m_thickness = 1.3\\ninfill_sparse_density = 0\\nline_width = 3\\nmesh
;SETTING_3 fix_maximum_resolution = 1\\nretraction_hop = 1.0\\nretraction_hop_en
;SETTING_3 abled = True\\nspeed_layer_0 = 15.0\\nspeed_print = 40.0\\nspeed_trav
;SETTING_3 el = 30.0\\nspeed_wall = 40.0\\nspeed_wall_x = 30\\ntop_bottom_thickn
;SETTING_3 ess = 0\\ntop_layers = 0\\ntravel_avoid_other_parts = False\\nwall_li
;SETTING_3 ne_count = 3\\nwall_thickness = 3.0\\n\\n"]}
