;FLAVOR:Marlin
;TIME:330
;Filament used: 2.89899m
;Layer height: 1
;MINX:-42.385
;MINY:-44.27
;MINZ:0.5
;MAXX:42.234
;MAXY:44.245
;MAXZ:14.5
;TARGET_MACHINE.NAME:Unknown
;Generated with Cura_SteamEngine 5.11.0
M140 S60
M105
M190 S60
M104 S200
M105
M109 S200
G28 ;Home
M302 S0 ;Set cold extrusion
M92 E400 ;E Steps at 400 steps/mm M92 E-400 reverse
G1 Z15.0 F6000 ;Move the platform down 15mm
;Prime the extruder
G92 E0
G1 F200 E3
G92 E0
M82 ;absolute extrusion mode
G92 E0
G92 E0
G1 F1500 E-6.5
;LAYER_COUNT:14
;LAYER:0
M107
G1 F600 Z1.5
;MESH:027.stl
G0 F675 X0.00 Y0.000 Z1.5
G0 X6.938 Y31.051
;TYPE:WALL-INNER
G1 F600 Z0.5
G1 F1500 E0
G1 F900 X29.615 Y18.417 E6.10377
G1 X35.602 Y-5.859 E11.98286
G1 X17.312 Y-24.453 E18.11552
G1 X-4.972 Y-37.78 E24.22075
G1 X-28.982 Y-30.835 E30.09769
G1 X-35.945 Y-5.685 E36.23372
G1 X-36.346 Y20.273 E42.338
G1 X-18.32 Y37.596 E48.21641
G1 X6.938 Y31.051 E54.35152
G0 F675 X7.498 Y32.333
G0 X8.063 Y33.858
G1 F900 X32.216 Y20.403 E60.85242
G1 X38.916 Y-6.768 E67.43256
G1 X19.178 Y-26.831 E74.05023
G1 X-4.552 Y-41.024 E80.55176
G1 X-31.426 Y-33.251 E87.12971
G1 X-38.611 Y-7.302 E93.46072
G1 X-38.94 Y-6.051 E93.76487
G1 X-39.365 Y21.531 E100.25105
G1 X-19.19 Y40.921 E106.83056
G1 X8.063 Y33.858 E113.45031
G0 F675 X7.498 Y32.331
G0 X9.259 Y36.625
;TYPE:WALL-OUTER
G1 F900 X34.817 Y22.389 E120.32918
G1 X42.234 Y-7.674 E127.60991
G1 X21.919 Y-28.322 E134.42078
G1 X20.975 Y-29.253 E134.73253
G1 X-4.133 Y-44.27 E141.61158
G1 X-33.87 Y-35.667 E148.89043
G1 X-41.507 Y-8.084 E155.62008
G1 X-41.934 Y-6.462 E156.01446
G1 X-42.385 Y22.79 E162.89335
G1 X-20.06 Y44.245 E170.1738
G1 X7.983 Y36.977 E176.98546
G1 X9.259 Y36.625 E177.2967
G0 F675 X10.569 Y35.896
G0 X8.328 Y31.87
G0 X5.889 Y28.372
;TYPE:SKIN
G1 F900 X-17.493 Y34.437 E182.9765
G1 X-33.477 Y19.074 E188.18938
G1 X-33.099 Y-5.268 E193.91365
G1 X-26.657 Y-28.539 E199.59119
G1 X-5.371 Y-34.697 E204.80145
G1 X15.533 Y-22.191 E210.52911
G1 X32.45 Y-4.993 E216.20137
G1 X27.143 Y16.527 E221.41301
G1 X5.889 Y28.372 E227.13419
G0 F675 X-31.91 Y14.759
G1 F900 X-14.546 Y32.123 E232.90819
G0 F675 X-11.177 Y31.249
G1 F900 X-31.845 Y10.581 E239.78085
G0 F675 X-31.78 Y6.404
G1 F900 X-7.809 Y30.375 E247.75185
G0 F675 X-4.44 Y29.501
G1 F900 X-31.715 Y2.226 E256.82152
G0 F675 X-31.651 Y-1.952
G1 F900 X-1.071 Y28.627 E266.99002
G0 F675 X2.297 Y27.753
G1 F900 X-31.365 Y-5.909 E278.18354
G0 F675 X-30.445 Y-9.232
G1 F900 X5.601 Y26.814 E290.1698
G0 F675 X8.325 Y25.296
G1 F900 X-29.526 Y-12.555 E302.75627
G0 F675 X-28.606 Y-15.878
G1 F900 X11.05 Y23.778 E315.94296
G0 F675 X13.774 Y22.26
G1 F900 X-27.686 Y-19.201 E329.72968
G0 F675 X-26.766 Y-22.523
G1 F900 X16.498 Y20.741 E344.11612
G0 F675 X19.223 Y19.223
G1 F900 X-25.846 Y-25.846 E359.10277
G0 F675 X-23.615 Y-27.857
G1 F900 X21.947 Y17.705 E374.25336
G0 F675 X24.672 Y16.186
G1 F900 X-20.324 Y-28.809 E389.21557
G0 F675 X-17.033 Y-29.761
G1 F900 X26.322 Y13.594 E403.63227
G0 F675 X27.161 Y10.191
G1 F900 X-13.743 Y-30.713 E417.23394
G0 F675 X-10.452 Y-31.665
G1 F900 X28.001 Y6.788 E430.0206
G0 F675 X28.84 Y3.384
G1 F900 X-7.162 Y-32.617 E441.99206
G1 X-7.692 Y-33.147
G0 F675 X-0.093 Y-29.791
G1 F900 X29.679 Y-0.019 E451.89205
G0 F675 X30.519 Y-3.422
G1 F900 X10.469 Y-23.472 E458.55921
G1 X9.939 Y-24.002
;MESH:NONMESH
G0 F600 X9.939 Y-24.002 Z1.5
G0 F675 X-2.266 Y17.582
;TIME_ELAPSED:151.561958
;LAYER:1
M106 S255
;TYPE:WALL-INNER
;MESH:027.stl
G1 F1350 X1.104 Y16.654 E460.20299
G1 X16.28 Y8.199 E468.37257
G1 X18.618 Y-1.242 E472.94645
G1 X10.161 Y-9.836 E478.61654
G1 X7.761 Y-12.204 E480.20207
G1 X-7.15 Y-21.121 E488.37236
G1 X-16.495 Y-18.423 E492.94647
G1 X-19.612 Y-7.176 E498.43489
G1 X-20.564 Y-3.532 E500.20604
G1 X-20.831 Y13.828 E508.37079
G1 X-13.818 Y20.576 E512.94754
G1 X-2.266 Y17.582 E518.55952
G0 F1237.5 X-1.491 Y20.48
G1 F1350 X2.249 Y19.451 E520.38366
G1 X18.878 Y10.186 E529.33554
G1 X21.933 Y-2.15 E535.31196
G1 X12.36 Y-11.88 E541.73094
G1 X9.611 Y-14.594 E543.54757
G1 X-6.729 Y-24.365 E552.50073
G1 X-18.938 Y-20.84 E558.4767
G1 X-22.509 Y-7.955 E564.76445
G1 X-23.558 Y-3.94 E566.71594
G1 X-23.85 Y15.086 E575.66424
G1 X-14.689 Y23.9 E581.64252
G1 X-1.491 Y20.48 E588.05406
G0 F1237.5 X-.717 Y23.379
G1 F1350 X3.393 Y22.247 E590.05881
G1 X21.477 Y12.172 E599.7938
G1 X25.249 Y-3.058 E607.17232
G1 X14.483 Y-14 E614.39104
G1 X11.461 Y-16.983 E616.38791
G1 X-6.308 Y-27.609 E626.12418
G1 X-21.381 Y-23.257 E633.50201
G1 X-25.406 Y-8.735 E640.58864
G1 X-26.552 Y-4.348 E642.72092
G1 X-26.869 Y16.344 E652.45276
G1 X-15.56 Y27.225 E659.8329
G1 X-.717 Y23.379 E667.04354
G0 F1237.5 X0.058 Y26.277
G1 F1350 X4.538 Y25.043 E669.22879
G1 X24.075 Y14.163 E679.74493
G1 X28.564 Y-3.966 E688.52782
G1 X16.606 Y-16.12 E696.54597
G1 X13.311 Y-19.372 E698.72307
G1 X-5.884 Y-30.855 E709.24172
G1 X-23.825 Y-25.675 E718.02335
G1 X-28.303 Y-9.515 E725.90918
G1 X-29.546 Y-4.756 E728.22225
G1 X-29.892 Y17.599 E738.73626
G1 X-16.431 Y30.55 E747.52059
G1 X0.058 Y26.277 E755.53091
G0 F1237.5 X0.833 Y29.175
G1 F1350 X5.682 Y27.84 E757.89606
G1 X25.282 Y16.921 E768.44701
G1 X26.669 Y16.17 E769.18874
G1 X31.879 Y-4.874 E779.38376
G1 X18.729 Y-18.24 E788.20133
G1 X15.161 Y-21.761 E790.55867
G1 X-4.212 Y-33.348 E801.17426
G1 X-5.444 Y-34.105 E801.85425
G1 X-26.268 Y-28.092 E812.04711
G1 X-31.2 Y-10.294 E820.73228
G1 X-32.54 Y-5.164 E823.22568
G1 X-32.884 Y17.266 E833.77494
G1 X-32.927 Y18.843 E834.51682
G1 X-17.303 Y33.875 E844.71266
G1 X0.833 Y29.175 E853.52311
G0 F1237.5 X1.607 Y32.074
G1 F1350 X6.826 Y30.636 E856.06888
G1 X26.742 Y19.542 E866.7897
G1 X29.263 Y18.177 E868.13786
G1 X35.195 Y-5.782 E879.74511
G1 X20.852 Y-20.36 E889.36244
G1 X17.011 Y-24.15 E891.90001
G1 X-2.566 Y-35.858 E902.62714
G1 X-5.003 Y-37.355 E903.97213
G1 X-28.711 Y-30.509 E915.57666
G1 X-34.097 Y-11.074 E925.06071
G1 X-35.534 Y-5.572 E927.7349
G1 X-35.886 Y17.306 E938.49487
G1 X-35.961 Y20.086 E939.80268
G1 X-18.174 Y37.2 E951.41035
G1 X1.607 Y32.074 E961.0199
G0 F1237.5 X2.005 Y33.411
G0 X2.382 Y34.972
G1 F1350 X7.971 Y33.433 E963.74603
G1 X28.249 Y22.138 E974.66157
G1 X31.857 Y20.185 E976.59091
G1 X38.51 Y-6.69 E989.61075
G1 X22.975 Y-22.48 E1000.02749
G1 X18.861 Y-26.54 E1002.74563
G1 X-1.072 Y-38.461 E1013.66785
G1 X-4.562 Y-40.605 E1015.59403
G1 X-31.155 Y-32.926 E1028.6107
G1 X-36.994 Y-11.854 E1038.8935
G1 X-38.528 Y-5.98 E1041.74848
G1 X-38.885 Y17.225 E1052.66224
G1 X-38.996 Y21.33 E1054.59338
G1 X-19.045 Y40.524 E1067.61258
G1 X2.382 Y34.972 E1078.02169
G0 F1237.5 X2.006 Y33.41
G0 X3.156 Y37.87
;TYPE:WALL-OUTER
G1 F1650 X9.115 Y36.229 E1080.9283
G1 X29.677 Y24.776 E1091.99667
G1 X34.451 Y22.192 E1094.54948
G1 X41.826 Y-7.598 E1108.98156
G1 X25.098 Y-24.6 E1120.19806
G1 X20.711 Y-28.929 E1123.09643
G1 X0.498 Y-41.017 E1134.17197
G1 X-4.121 Y-43.855 E1136.72136
G1 X-33.598 Y-35.343 E1151.14971
G1 X-39.891 Y-12.634 E1162.2314
G1 X-41.522 Y-6.388 E1165.26715
G1 X-41.884 Y17.145 E1176.33518
G1 X-42.03 Y22.574 E1178.88917
G1 X-19.916 Y43.849 E1193.31987
G1 X3.156 Y37.87 E1204.5282
G0 F1237.5 X4.602 Y37.472
G0 X3.38 Y33.032
G0 X-3.004 Y14.826
;TYPE:SKIN
G1 F1050 X-12.988 Y17.413 E1209.37837
G1 X-17.962 Y12.63 E1212.62346
G1 X-17.719 Y-3.142 E1220.04134
G1 X-16.783 Y-6.705 E1221.77374
G1 X-14.17 Y-16.127 E1226.37181
G1 X-7.551 Y-18.038 E1229.61162
G1 X6.006 Y-9.929 E1237.04042
G1 X8.214 Y-7.748 E1238.49991
G1 X15.466 Y-.378 E1243.36227
G1 X13.808 Y6.31 E1246.6026
G1 X0.019 Y13.993 E1254.0257
G1 X-3.004 Y14.826 E1255.50029
G0 F1237.5 X12.791 Y4.18
G1 F1050 X10.577 Y6.394 E1256.97272
G0 F1237.5 X13.234 Y-.506
G1 F1050 X0.996 Y11.732 E1265.11165
G1 X0.466 Y12.262
G0 F1237.5 X-5.417 Y13.902
G1 F1050 X11.13 Y-2.645 E1276.11629
G0 F1237.5 X9.026 Y-4.783
G1 F1050 X-11.143 Y15.386 E1289.52975
G0 F1237.5 X-14.183 Y14.183
G1 F1050 X6.919 Y-6.919 E1303.56371
G0 F1237.5 X4.713 Y-8.956
G1 F1050 X-16.346 Y12.104 E1317.56941
G0 F1237.5 X-16.388 Y7.903
G1 F1050 X2.058 Y-10.544 E1329.83732
G0 F1237.5 X-.597 Y-12.131
G1 F1050 X-16.322 Y3.594 E1340.29529
G0 F1237.5 X-16.256 Y-.715
G1 F1050 X-3.251 Y-13.719 E1348.94398
G0 F1237.5 X-5.906 Y-15.307
G1 F1050 X-15.49 Y-5.723 E1355.31785
G1 X-16.02 Y-5.193
G0 F1237.5 X-13.873 Y-11.583
G1 F1050 X-9.559 Y-15.897 E1358.1869
G1 X-9.029 Y-16.427
;MESH:NONMESH
G0 F600 X-9.029 Y-16.427 Z2.5
G0 F1237.5 X17.87 Y-25.26
G0 X20.351 Y-28.505
;TIME_ELAPSED:245.979768
;LAYER:2
;TYPE:WALL-OUTER
;MESH:027.stl
G1 F2400 X29.269 Y-19.708 E1364.07774
G1 X41.272 Y-7.503 E1372.12783
G1 X38.268 Y4.482 E1377.93829
G1 X33.969 Y21.911 E1386.38017
G1 X23.836 Y27.401 E1391.7998
G1 X8.924 Y35.708 E1399.82706
G1 X-3.153 Y39.033 E1405.71775
G1 X-19.724 Y43.326 E1413.76775
G1 X-28.602 Y34.731 E1419.57876
G1 X-41.548 Y22.292 E1428.02163
G1 X-41.235 Y10.774 E1433.44013
G1 X-40.972 Y-6.292 E1441.46661
G1 X-37.813 Y-18.416 E1447.35845
G1 X-33.245 Y-34.914 E1455.40876
G1 X-21.364 Y-38.303 E1461.21883
G1 X-4.118 Y-43.296 E1469.66206
G1 X5.702 Y-37.265 E1475.08143
G1 X20.351 Y-28.505 E1483.10809
G0 F1800 X20.71 Y-28.933
G1 F2400 X29.581 Y-20.016 Z2.547 E1489.02314
G1 X41.563 Y-7.791 Z2.611 E1497.07308
G1 X38.707 Y4.59 Z2.659 E1503.04836
G1 X34.146 Y22.235 Z2.727 E1511.61896
G1 X24.033 Y27.753 Z2.77 E1517.03665
G1 X9.103 Y36.029 Z2.834 E1525.06428
G1 X-3.081 Y39.309 Z2.881 E1530.99801
G1 X-19.66 Y43.573 Z2.946 E1539.0483
G1 X-28.791 Y34.928 Z2.993 E1544.96155
G1 X-41.758 Y22.287 Z3.061 E1553.47765
G1 X-41.454 Y10.771 Z3.104 E1558.89513
G1 X-41.156 Y-6.295 Z3.168 E1566.92193
G1 X-37.94 Y-18.451 Z3.215 E1572.83518
G92 E0
G1 X-33.343 Y-34.941 Z3.279 E8.0504
G1 X-21.39 Y-38.393 Z3.325 E13.90122
G1 X-4.091 Y-43.34 Z3.393 E22.36248
G1 X5.72 Y-37.295 Z3.436 E27.78174
G1 X20.351 Y-28.505 Z3.5 E35.80845
;TIME_ELAPSED:259.366333
;LAYER:3
;TYPE:WALL-OUTER
;MESH:027.stl
G1 X33.744 Y-15.11 Z3.572 E44.71624
G1 X41.013 Y-7.693 Z3.611 E49.60001
G1 X36.539 Y11.082 Z3.685 E58.67651
G1 X33.661 Y21.955 Z3.727 E63.96581
G1 X18.188 Y30.362 Z3.794 E72.24694
G1 X8.912 Y35.504 Z3.834 E77.23453
G1 X-9.412 Y40.462 Z3.906 E86.16157
G1 X-19.469 Y43.048 Z3.946 E91.0449
G1 X-33.33 Y29.803 Z4.018 E100.06076
G1 X-41.274 Y22.007 Z4.061 E105.295
G1 X-40.791 Y4.404 Z4.127 E113.57623
G1 X-40.606 Y-6.198 Z4.168 E118.56277
G1 X-35.773 Y-24.51 Z4.24 E127.46918
G1 X-32.984 Y-34.512 Z4.279 E132.35223
G1 X-14.682 Y-39.762 Z4.351 E141.30617
G1 X-4.091 Y-42.781 Z4.393 E146.48517
G1 X10.902 Y-33.539 Z4.46 E154.76781
G1 X19.991 Y-28.077 Z4.5 E159.7545
;TIME_ELAPSED:265.976160
;LAYER:4
;TYPE:WALL-OUTER
;MESH:027.stl
G1 X37.907 Y-10.202 Z4.597 E171.65606
G1 X40.461 Y-7.596 Z4.611 E173.372
G1 X34.369 Y17.576 Z4.711 E185.55131
G1 X33.177 Y21.676 Z4.727 E187.55923
G1 X12.343 Y32.972 Z4.818 E198.70423
G1 X8.721 Y34.979 Z4.834 E200.65155
G1 X-15.743 Y41.614 Z4.932 E212.57179
G1 X-19.278 Y42.523 Z4.946 E214.28827
G1 X-37.868 Y24.679 Z5.045 E226.40618
G1 X-40.789 Y21.729 Z5.061 E228.35848
G1 X-40.128 Y-1.963 Z5.152 E239.50439
G1 X-40.055 Y-6.105 Z5.168 E241.45254
G1 X-33.605 Y-30.568 Z5.265 E253.34985
G1 X-32.624 Y-34.084 Z5.279 E255.06646
G1 X-7.975 Y-41.13 Z5.377 E267.12237
G1 X-4.092 Y-42.222 Z5.393 E269.01925
G1 X16.084 Y-29.782 Z5.484 E280.16593
G1 X19.632 Y-27.649 Z5.5 E282.11274
;TIME_ELAPSED:272.501387
;LAYER:5
;TYPE:WALL-OUTER
;MESH:027.stl
G1 X20.908 Y-26.385 Z5.507 E282.95738
G1 X39.86 Y-7.534 Z5.611 E295.52803
G1 X39.755 Y-5.95 Z5.617 E296.27456
G1 X32.644 Y21.395 Z5.728 E309.56173
G1 X31.616 Y21.943 Z5.732 E310.10956
G1 X8.516 Y34.42 Z5.835 E322.45608
G1 X6.736 Y34.938 Z5.842 E323.32788
G1 X-19.038 Y41.936 Z5.946 E335.88738
G1 X-20.167 Y41.086 Z5.951 E336.55196
G1 X-40.242 Y21.407 Z6.061 E349.77199
G1 X-40.194 Y20.244 Z6.066 E350.31938
G1 X-39.433 Y-5.995 Z6.168 E362.66391
G1 X-39.008 Y-7.775 Z6.175 E363.52452
G1 X-32.204 Y-33.573 Z6.279 E376.07133
G1 X-31.025 Y-33.975 Z6.284 E376.65712
G1 X-4.109 Y-41.558 Z6.393 E389.80758
G1 X-3.128 Y-40.926 Z6.398 E390.35636
G1 X19.213 Y-27.13 Z6.5 E402.70435
;TIME_ELAPSED:278.931706
;LAYER:6
;TYPE:WALL-OUTER
;MESH:027.stl
G1 X24.627 Y-21.826 Z6.53 E406.26859
G1 X39.077 Y-7.488 Z6.611 E415.84152
G1 X37.556 Y0.05 Z6.642 E419.45784
G1 X31.919 Y21.066 Z6.728 E429.69033
G1 X26.045 Y24.171 Z6.755 E432.81486
G1 X8.277 Y33.714 Z6.835 E442.29948
G1 X0.92 Y35.844 Z6.865 E445.90132
G1 X-18.703 Y41.182 Z6.946 E455.46473
G1 X-24.208 Y36.126 Z6.976 E458.97974
G1 X-39.54 Y20.952 Z7.062 E469.12402
G1 X-39.247 Y14.308 Z7.088 E472.25152
G1 X-38.628 Y-5.844 Z7.168 E481.73282
G1 X-36.847 Y-13.256 Z7.199 E485.31766
G1 X-31.664 Y-32.896 Z7.279 E494.86991
G1 X-24.689 Y-34.92 Z7.308 E498.28534
G1 X-4.097 Y-40.678 Z7.393 E508.34055
G1 X1.491 Y-37.062 Z7.42 E511.47061
G1 X18.637 Y-26.445 Z7.5 E520.95447
;TIME_ELAPSED:285.238855
;LAYER:7
;TYPE:WALL-OUTER
;MESH:027.stl
G1 X28.266 Y-17.188 Z7.554 E527.23585
G1 X38.196 Y-7.332 Z7.611 E533.81532
G1 X35.156 Y5.998 Z7.667 E540.24494
G1 X31.145 Y20.62 Z7.728 E547.37522
G1 X20.374 Y26.214 Z7.778 E553.08287
G1 X7.97 Y32.875 Z7.835 E559.70393
G1 X-4.906 Y36.673 Z7.889 E566.01702
G1 X-18.397 Y40.342 Z7.946 E572.59184
G1 X-28.16 Y31.073 Z8.001 E578.92268
G1 X-38.766 Y20.505 Z8.062 E585.96367
G1 X-38.182 Y8.376 Z8.111 E591.67415
G1 X-37.748 Y-5.689 Z8.168 E598.29162
G1 X-34.649 Y-18.727 Z8.223 E604.59379
G1 X-31.09 Y-32.212 Z8.279 E611.1525
G1 X-18.338 Y-35.816 Z8.333 E617.38425
G1 X-4.097 Y-39.784 Z8.393 E624.33644
G1 X6.097 Y-33.171 Z8.443 E630.05072
G1 X18.063 Y-25.761 Z8.5 E636.66953
;TIME_ELAPSED:291.411468
;LAYER:8
;TYPE:WALL-OUTER
;MESH:027.stl
G1 X31.905 Y-12.547 Z8.58 E645.66888
G1 X37.317 Y-7.177 Z8.611 E649.25424
G1 X32.755 Y11.946 Z8.693 E658.49953
G1 X30.37 Y20.172 Z8.728 E662.52727
G1 X14.702 Y28.256 Z8.802 E670.81837
G1 X7.665 Y32.034 Z8.835 E674.57441
G1 X-10.753 Y37.507 Z8.915 E683.61012
G1 X-18.091 Y39.502 Z8.946 E687.18621
G1 X-32.11 Y26.019 Z9.027 E696.33318
G1 X-37.992 Y20.059 Z9.062 E700.27108
G1 X-37.114 Y2.442 Z9.135 E708.56607
G1 X-36.868 Y-5.533 Z9.168 E712.31824
G1 X-32.451 Y-24.197 Z9.248 E721.33777
G1 X-30.515 Y-31.527 Z9.28 E724.90304
G1 X-11.985 Y-36.711 Z9.36 E733.95169
G1 X-4.097 Y-38.891 Z9.394 E737.80022
G1 X10.7 Y-29.281 Z9.467 E746.09753
G1 X17.488 Y-25.076 Z9.5 E749.85258
;TIME_ELAPSED:297.449452
;LAYER:9
;TYPE:WALL-OUTER
;MESH:027.stl
G1 X35.562 Y-7.889 Z9.606 E761.58163
G1 X36.435 Y-7.022 Z9.611 E762.16023
G1 X30.352 Y17.894 Z9.72 E774.22158
G1 X29.597 Y19.724 Z9.729 E775.15254
G1 X9.03 Y30.297 Z9.827 E786.02773
G1 X7.359 Y31.194 Z9.835 E786.91961
G1 X-16.591 Y38.338 Z9.941 E798.67292
G1 X-17.785 Y38.662 Z9.946 E799.25473
G1 X-36.06 Y20.965 Z10.055 E811.21804
G1 X-37.218 Y19.612 Z10.062 E812.05553
G1 X-36.046 Y-3.489 Z10.16 E822.93317
G1 X-35.987 Y-5.379 Z10.168 E823.82241
G1 X-30.251 Y-29.668 Z10.274 E835.55894
G1 X-29.941 Y-30.842 Z10.28 E836.12996
G1 X-5.633 Y-37.605 Z10.387 E847.99542
G1 X-4.096 Y-37.996 Z10.394 E848.74125
G1 X15.304 Y-25.39 Z10.492 E859.62134
G1 X16.916 Y-24.39 Z10.5 E860.51343
;TIME_ELAPSED:303.352313
;LAYER:10
;TYPE:WALL-OUTER
;MESH:027.stl
G1 X19.464 Y-22.001 Z10.515 E862.15598
G1 X35.667 Y-6.782 Z10.611 E872.60986
G1 X35.117 Y-3.533 Z10.626 E874.1595
G1 X28.963 Y19.252 Z10.728 E885.25851
G1 X26.52 Y20.486 Z10.74 E886.54562
G1 X7.058 Y30.436 Z10.835 E896.82474
G1 X3.647 Y31.508 Z10.85 E898.50618
G1 X-17.594 Y37.927 Z10.946 E908.9413
G1 X-19.937 Y35.86 Z10.96 E910.41063
G1 X-36.549 Y19.299 Z11.061 E921.44165
G1 X-36.381 Y16.564 Z11.073 E922.73026
G1 X-35.255 Y-5.265 Z11.168 E933.0094
G1 X-34.51 Y-8.688 Z11.183 E934.65681
G1 X-29.45 Y-30.323 Z11.28 E945.10563
G1 X-26.617 Y-31.164 Z11.292 E946.49536
G1 X-4.129 Y-37.31 Z11.393 E957.4586
G1 X-1.853 Y-35.784 Z11.405 E958.74724
G1 X16.483 Y-23.882 Z11.5 E969.02738
;TIME_ELAPSED:309.142202
;LAYER:11
;TYPE:WALL-OUTER
;MESH:027.stl
G1 X23.032 Y-17.849 Z11.539 E973.21479
G1 X35.03 Y-6.613 Z11.612 E980.94495
G1 X33.045 Y1.962 Z11.65 E985.08414
G1 X28.435 Y18.899 Z11.728 E993.33884
G1 X21.414 Y22.413 Z11.762 E997.03105
G1 X6.826 Y29.852 Z11.834 E1004.73181
G1 X-1.688 Y32.56 Z11.874 E1008.93333
G1 X-17.416 Y37.333 Z11.946 E1016.66279
G1 X-23.681 Y31.34 Z11.984 E1020.73995
G1 X-36.016 Y19.018 Z12.061 E1028.93914
G1 X-35.519 Y11.179 Z12.096 E1032.63298
G1 X-34.669 Y-5.17 Z12.168 E1040.33178
G1 X-32.789 Y-13.908 Z12.207 E1044.53502
G1 X-29.064 Y-29.884 Z12.279 E1052.24955
G1 X-20.839 Y-32.174 Z12.317 E1056.26463
G1 X-4.134 Y-36.741 Z12.393 E1064.40875
G1 X2.392 Y-32.362 Z12.428 E1068.10461
G1 X16.123 Y-23.453 Z12.5 E1075.80195
;TIME_ELAPSED:314.840172
;LAYER:12
;TYPE:WALL-OUTER
;MESH:027.stl
G1 X26.699 Y-13.803 Z12.564 E1082.53475
G1 X34.479 Y-6.516 Z12.612 E1087.54766
G1 X31.049 Y7.476 Z12.676 E1094.32248
G1 X27.951 Y18.619 Z12.728 E1099.76144
G1 X16.33 Y24.383 Z12.786 E1105.86174
G1 X6.635 Y29.327 Z12.834 E1110.9796
G1 X-7.055 Y33.722 Z12.899 E1117.74121
G1 X-17.224 Y36.808 Z12.946 E1122.73872
G1 X-27.459 Y26.855 Z13.01 E1129.4525
G1 X-35.532 Y18.739 Z13.061 E1134.83585
G1 X-34.684 Y5.792 Z13.119 E1140.93746
G1 X-34.119 Y-5.073 Z13.168 E1146.05383
G1 X-31.125 Y-19.076 Z13.232 E1152.78784
G1 X-28.704 Y-29.456 Z13.279 E1157.80024
G1 X-15.065 Y-33.203 Z13.343 E1164.45189
G1 X-4.134 Y-36.181 Z13.393 E1169.77974
G1 X6.64 Y-28.945 Z13.451 E1175.88308
G1 X15.764 Y-23.025 Z13.5 E1180.99786
;TIME_ELAPSED:320.454303
;LAYER:13
;TYPE:WALL-OUTER
;MESH:027.stl
G1 X30.367 Y-9.756 Z13.551 E1190.27668
G1 X33.929 Y-6.419 Z13.564 E1192.57201
G1 X29.053 Y12.991 Z13.616 E1201.98348
G1 X27.467 Y18.34 Z13.63 E1204.60717
G1 X11.247 Y26.353 Z13.677 E1213.1149
G1 X6.444 Y28.802 Z13.691 E1215.65026
G1 X-12.362 Y34.865 Z13.742 E1224.94232
G1 X-17.033 Y36.282 Z13.755 E1227.23778
G1 X-31.236 Y22.369 Z13.806 E1236.58764
G1 X-35.048 Y18.46 Z13.82 E1239.15529
G1 X-33.848 Y0.404 Z13.867 E1247.66513
G1 X-33.568 Y-4.976 Z13.881 E1250.19858
G1 X-29.448 Y-24.305 Z13.932 E1259.49254
G1 X-28.346 Y-29.027 Z13.945 E1261.77281
G1 X-9.291 Y-34.232 Z13.996 E1271.06201
G1 X-4.134 Y-35.622 Z14.01 E1273.57372
G1 X10.888 Y-25.527 Z14.057 E1282.085
G1 X15.405 Y-22.597 Z14.071 E1284.61694
G1 X30.09 Y-9.459 Z14.5 E1292.95848
G1 X33.659 Y-6.129 E1294.90964
G1 X28.637 Y12.884 E1301.84546
G1 X27.308 Y18.018 E1303.7159
G1 X11.072 Y26.013 E1309.24786
G1 X6.275 Y28.473 E1310.89573
G1 X-12.438 Y34.619 E1315.99012
G1 X-17.106 Y36.045 E1317.25256
G1 X-31.061 Y22.19 E1321.41399
G1 X-34.844 Y18.473 E1322.41161
G1 X-33.649 Y0.414 E1325.39048
G1 X-33.383 Y-4.967 E1326.15056
G1 X-29.342 Y-24.281
;TIME_ELAPSED:330.143597
G1 F1500 E1319.65056
M140 S0
M107
M104 S0
M140 S0
;Retract the filament
G92 E1
G1 E-1 F300
G28 X0 Y0
M84
M82 ;absolute extrusion mode
M104 S0
;End of Gcode
;SETTING_3 {"global_quality": "[general]\\nversion = 4\\nname = CuraProfile_3mm_
;SETTING_3 2laybase_40sec\\ndefinition = custom\\n\\n[metadata]\\ntype = quality
;SETTING_3 _changes\\nquality_type = extra coarse\\nsetting_version = 25\\n\\n[v
;SETTING_3 alues]\\nadhesion_type = none\\njerk_enabled = False\\nlayer_height =
;SETTING_3  1\\nlayer_height_0 = 0.5\\nmagic_spiralize = True\\n\\n", "extruder_
;SETTING_3 quality": ["[general]\\nversion = 4\\nname = CuraProfile_3mm_2laybase
;SETTING_3 _40sec\\ndefinition = custom\\n\\n[metadata]\\ntype = quality_changes
;SETTING_3 \\nquality_type = extra coarse\\nintent_category = default\\nposition
;SETTING_3  = 0\\nsetting_version = 25\\n\\n[values]\\nbottom_layers = 2\\nbotto
;SETTING_3 m_thickness = 1.3\\ninfill_sparse_density = 0\\nline_width = 3\\nmesh
;SETTING_3 fix_maximum_resolution = 1\\nretraction_hop = 1.0\\nretraction_hop_en
;SETTING_3 abled = True\\nspeed_layer_0 = 15.0\\nspeed_print = 40.0\\nspeed_trav
;SETTING_3 el = 30.0\\nspeed_wall = 40.0\\nspeed_wall_x = 30\\ntop_bottom_thickn
;SETTING_3 ess = 0\\ntop_layers = 0\\ntravel_avoid_other_parts = False\\nwall_li
;SETTING_3 ne_count = 3\\nwall_thickness = 3.0\\n\\n"]}
